divesite,country,region,location,X,Y
Ao Khai Koh Chan,Thailand,Gulf of Thailand,Eastern Gulf,12.51705406,100.9705295
Three Trees,Thailand,Andaman Sea,Koh Similan,8.67483,97.6469
Talang,Thailand,Andaman Sea,Koh Lipe and the Butang Islands,6.489237126,99.332757
Lighthouse Pinnacle,Thailand,Gulf of Thailand,Koh Tao,10.12089317,99.84523207
Racha Noi Bay,Thailand,Koh Phuket,Racha Islands,7.466028175,98.30942988
King Kong Rock,Thailand,Gulf of Thailand,Koh Tao,10.07317605,99.84782011
Marista Rock,Thailand,Koh Phuket,Racha Islands,7.50255,98.31816667
Hin Luk Bat,Thailand,Gulf of Thailand,Koh Chang,11.96073862,102.3012543
Hin Kuak Ma,Thailand,Gulf of Thailand,Koh Chang,11.78065311,102.4111176
Malone Wall,Thailand,Andaman Sea,Koh Phi Phi,7.685416667,98.76256667
Racha Yai Wreck,Thailand,Koh Phuket,Racha Islands,7.608072222,98.37831667
HTMS Sattakut,Thailand,Gulf of Thailand,Koh Tao,10.10555556,99.81361111
Tuna wreck,Thailand,Andaman Sea,Koh Similan,8.56675,97.64644444
Num Chai Bay,Thailand,Andaman Sea,Koh Similan,8.675554458,97.64622688
Anemone Life,Thailand,Gulf of Thailand,Koh Chang,11.70661909,102.5313663
Koh Raet,Thailand,Gulf of Thailand,Koh Chang,11.68281222,102.5240922
Koh Maphring,Thailand,Gulf of Thailand,Koh Chang,11.78699676,102.3955822
Three fingers life,Thailand,Gulf of Thailand,Eastern Gulf,11.79031556,102.3967838
Ao Sane,Thailand,Andaman Sea,Koh Phuket,7.777637273,98.29709172
Maritus Rock,Thailand,Andaman Sea,Koh Phuket,7.735199617,98.29542875
Buddha Rock,Thailand,Gulf of Thailand,Koh Tao,10.06018333,99.827625
Hin Dot,Thailand,Andaman Sea,Koh Phi Phi,7.712012309,98.77859116
Yong Hua Wreck,Thailand,Andaman Sea,Koh Lipe and the Butang Islands,6.483885729,99.28336143
Jabang,Thailand,Andaman Sea,Koh Lipe and the Butang Islands,6.513520242,99.27117348
Adang corner,Thailand,Andaman Sea,Koh Lipe and the Butang Islands,6.578070509,99.27700996
Koh Yang,Thailand,Andaman Sea,Koh Lipe and the Butang Islands,6.540296399,99.26138878
Bird Rock,Thailand,Andaman Sea,Koh Similan,8.557766155,97.63678551
Batfish Bend,Thailand,Andaman Sea,Koh Similan,8.682257441,97.64983177
Koh Sarang,Thailand,Andaman Sea,Koh Lipe and the Butang Islands,6.492371185,99.17766094
Koh Pung,Thailand,Andaman Sea,Koh Lipe and the Butang Islands,6.540658805,99.16540861
Ko Bon North Point,Thailand,Andaman Sea,Koh Surin,8.827063382,97.80235291
Koh Tachai The Dome,Thailand,Andaman Sea,Koh Surin,9.060651635,97.81376839
Ko Haa  4,Thailand,Andaman Sea,Koh Lanta,7.429,98.89696667
Ko Haa  2,Thailand,Andaman Sea,Koh Lanta,7.43065,98.89793333
Ko Haa  3 - Lagoon,Thailand,Andaman Sea,Koh Lanta,7.430416667,98.89655
Ko Haa Nua  1 - The Chimney,Thailand,Andaman Sea,Koh Lanta,7.4344,98.89855
Mae Haad,Thailand,Gulf of Thailand,Koh Samui,9.793689962,99.97777462
Koh Tae Nai,Thailand,Gulf of Thailand,Koh Samui,9.707851498,99.97140169
Kong Yai,Thailand,Gulf of Thailand,Koh Samui,9.802845604,100.0158834
Koh Tae Nok,Thailand,Gulf of Thailand,Koh Samui,9.704319361,99.94674683
Haad Yao,Thailand,Gulf of Thailand,Koh Samui,9.775483651,99.96461034
Haad Salad,Thailand,Gulf of Thailand,Koh Samui,9.786733197,99.97092962
Home Run Reef,Thailand,Koh Phuket,Racha Islands,7.609722222,98.37972222
Stonehenge,Thailand,Andaman Sea,Koh Lipe and the Butang Islands,6.481455195,99.33460236
Koh Rang,Thailand,Gulf of Thailand,Koh Chang,11.80555556,102.3911111
Cheow Lan Lake,Thailand,,,9.011388889,98.71
Anita s reef,Thailand,Andaman Sea,Koh Similan,8.571666667,97.64722222
West of Eden,Thailand,Andaman Sea,Koh Similan,8.591111111,97.635
Waterfall wall,Thailand,Koh Phuket,Racha Islands,7.590282107,98.36557388
Honeymoon Bay,Thailand,Andaman Sea,Koh Similan,8.565319962,97.63978958
HTMS Kut,Thailand,Gulf of Thailand,Eastern Gulf,12.95166667,100.8016667
Koh Man Wichai,Thailand,Gulf of Thailand,Eastern Gulf,12.89222222,100.7311111
Banana Bay,Thailand,Koh Phuket,Racha Islands,7.500855198,98.32622051
Aow Leuk,Thailand,Gulf of Thailand,Koh Tao,10.07129065,99.84072447
Three Rocks,Thailand,Gulf of Thailand,Koh Tao,10.08303707,99.81679916
Koh Bida Nai,Thailand,Andaman Sea,Koh Phi Phi,7.65778669,98.76777649
Ashitol Bay,Thailand,Koh Phuket,Racha Islands,7.514683115,98.32533002
Crab Island,Thailand,Andaman Sea,Koh Phuket,7.819719877,98.28545094
Karon Beach,Thailand,Andaman Sea,Koh Phuket,7.828823576,98.29219401
Laem Thian,Thailand,Gulf of Thailand,Koh Tao,10.09140296,99.85516548
Tanote Bay,Thailand,Gulf of Thailand,Koh Tao,10.08422014,99.84855652
Green Rock,Thailand,Gulf of Thailand,Koh Tao,10.12866655,99.81190681
Hin pee wee,Thailand,Gulf of Thailand,Koh Tao,10.10957056,99.8015213
Palong Wall,Thailand,Andaman Sea,Koh Phi Phi,7.696574662,98.76408577
Koh Ma,Thailand,Gulf of Thailand,Koh Samui,9.8034,99.97708333
White Rock,Thailand,Gulf of Thailand,Koh Tao,10.10883333,99.81453333
Koh Mai Si Lek,Thailand,Gulf of Thailand,Koh Chang,11.71446667,102.5100833
HTMS Thonburi Wreck,Thailand,Gulf of Thailand,Koh Chang,11.94925,102.4243167
Koh Talu,Thailand,Gulf of Thailand,Chumphon,11.07956667,99.55385
Koh Ran,Thailand,Gulf of Thailand,Chumphon,10.77935,99.53095
Koh Ran Gai,Thailand,Gulf of Thailand,Chumphon,10.7982,99.53968333
Koh Lak Ngam,Thailand,Gulf of Thailand,Chumphon,10.46003333,99.40253333
Koh Ngam Noi,Thailand,Gulf of Thailand,Chumphon,10.487,99.41961667
Koh Ngam Yai,Thailand,Gulf of Thailand,Chumphon,10.50203333,99.4234
Japanese Garden,Thailand,Gulf of Thailand,Koh Tao,10.1191187,99.81585503
Twins,Thailand,Gulf of Thailand,Koh Tao,10.11725979,99.81173515
Nang Yuan Pinnacle,Thailand,Gulf of Thailand,Koh Tao,10.12317446,99.81482506
Mango Bay,Thailand,Gulf of Thailand,Koh Tao,10.12182254,99.83499527
Hin Wong Pinnacle,Thailand,Gulf of Thailand,Koh Tao,10.10213464,99.85344887
Shark Island,Thailand,Gulf of Thailand,Koh Tao,10.06199463,99.84529495
Sai Ree Beach,Thailand,Gulf of Thailand,Koh Tao,10.09376903,99.82349396
Ko Torinla West,Thailand,Andaman Sea,Koh Surin,9.368366667,97.86056667
Ko Torinla East,Thailand,Andaman Sea,Koh Surin,9.36675,97.87021667
Hin Pratumba,Thailand,Andaman Sea,Koh Surin,9.428016667,97.82953333
Hin Kop,Thailand,Andaman Sea,Koh Surin,9.474766667,97.87046667
Koh Chi,Thailand,Andaman Sea,Koh Surin,9.472598207,97.90595055
Hin Gong,Thailand,Andaman Sea,Koh Surin,9.396988224,97.89565086
Snapper Alley,Thailand,Andaman Sea,Koh Similan,8.674196877,97.65249252
Breakfast Bend,Thailand,Andaman Sea,Koh Similan,8.678778692,97.65275002
Waterfall Bay,Thailand,Andaman Sea,Koh Similan,8.66248754,97.63807297
South West Rock,Thailand,Gulf of Thailand,Koh Tao,9.994566667,99.77876667
Chumphon Pinnacle,Thailand,Gulf of Thailand,Koh Tao,10.17148333,99.77835
SS Suddhadib,Thailand,Gulf of Thailand,Eastern Gulf,12.53311012,100.9563035
ChristmasPoint,Thailand,Andaman Sea,Koh Similan,8.680815037,97.63721466
Bon Soong Wreck,Thailand,Andaman Sea,Koh Surin,8.773796284,98.16318512
Turtle Rock,Thailand,Andaman Sea,Koh Similan,8.663583333,97.63768333
Beacon Beach,Thailand,Andaman Sea,Koh Similan,8.64805,97.64918333
Beacon Point,Thailand,Andaman Sea,Koh Similan,8.6305,97.6532
Deep Six,Thailand,Andaman Sea,Koh Similan,8.599966667,97.63466667
East of Eden,Thailand,Andaman Sea,Koh Similan,8.588298739,97.64073372
Koh Ngai,Thailand,Andaman Sea,Koh Lanta,7.394982674,99.20001984
Koh Kraden Wreck,Thailand,Andaman Sea,Koh Lanta,7.29368213,99.25031662
Hin Daeng,Thailand,Andaman Sea,Koh Lanta,7.1461,98.82398333
Hin Muang,Thailand,Andaman Sea,Koh Lanta,7.159416667,98.83131667
Ko Rok Nok,Thailand,Andaman Sea,Koh Lanta,7.2144,99.05395
Ko Rok Nai,Thailand,Andaman Sea,Koh Lanta,7.223816667,99.06135
The Emarald Cave,Thailand,Andaman Sea,Koh Lanta,7.375316667,99.27368333
Ko Yung,Thailand,Andaman Sea,Koh Phi Phi,7.81195,98.77211667
Ko See,Thailand,Andaman Sea,Koh Phi Phi,7.9311,98.80693333
Ko Yawabon,Thailand,Andaman Sea,Koh Phi Phi,7.945133333,98.77568333
Coral Gardens,Thailand,Andaman Sea,Koh Similan,8.48385,97.64925
Ko Yung Pinnacle,Thailand,Andaman Sea,Koh Phi Phi,7.821883333,98.77445
Hin Phae,Thailand,Andaman Sea,Koh Phi Phi,7.721883333,98.78633333
Ko Haa Yai  5 - The Cathedral,Thailand,Andaman Sea,Koh Lanta,7.423566667,98.89151667
Boulder City,Thailand,Andaman Sea,Koh Similan,8.50985,97.67031667
Eastern Shallows,Thailand,Andaman Sea,Koh Similan,8.4747,97.65193333
Shark Point,Thailand,Andaman Sea,Koh Phi Phi,7.633833333,98.81443333
Koh Hah,Thailand,Andaman Sea,Koh Phi Phi,7.9236,98.80383333
Koh Bida Nok,Thailand,Andaman Sea,Koh Phi Phi,7.653383333,98.76383333
Lohsamah Bay,Thailand,Andaman Sea,Koh Phi Phi,7.6719,98.76818333
Maya Cave,Thailand,Andaman Sea,Koh Phi Phi,7.677166667,98.75941667
Richelieu Rock,Thailand,Andaman Sea,Koh Surin,9.363707817,97.98362732
Ko Tachai,Thailand,Andaman Sea,Koh Surin,9.0576,97.81335
Ko Bon Pinnacle,Thailand,Andaman Sea,Koh Surin,8.83355,97.79746667
Ko Bon,Thailand,Andaman Sea,Koh Surin,8.8273,97.79515
Koh Kra,Thailand,Gulf of Thailand,Koh Samui,8.3813,100.7385
Ko Wao,Thailand,Gulf of Thailand,Koh Samui,9.7792,99.67175
Hin Yippon,Thailand,Gulf of Thailand,Koh Samui,9.800783333,99.714
Ao Cheweng,Thailand,Gulf of Thailand,Koh Samui,9.5372726,100.0719738
Samran Pinnacle,Thailand,Gulf of Thailand,Koh Samui,9.966233333,99.92018333
Hin Bai,Thailand,Gulf of Thailand,Koh Samui,9.947733333,99.98925
Shark Point,Thailand,Andaman Sea,Koh Phuket,7.8005,98.62693333
Anemone reef,Thailand,Andaman Sea,Koh Phuket,7.8077,98.62795
Coral Island,Thailand,Andaman Sea,Koh Phuket,7.74765,98.37481667
Rocky Point,Thailand,Andaman Sea,Koh Similan,8.476966667,97.65586667
Donald Duck Bay,Thailand,Andaman Sea,Koh Similan,8.667216667,97.64216667
Stonehenge,Thailand,Andaman Sea,Koh Similan,8.578783333,97.62771667
Kanpela Point,Thailand,Koh Phuket,Racha Islands,7.49735,98.32481667
Siam Bay,Thailand,Koh Phuket,Racha Islands,7.614316667,98.37158333
The Rock,Thailand,Koh Phuket,Racha Islands,7.539366667,98.34008333
Bungalow Bay,Thailand,Koh Phuket,Racha Islands,7.6117,98.36066667
Staghorn reef,Thailand,Koh Phuket,Racha Islands,7.60315,98.37873333
King Cruiser Wreck,Thailand,Andaman Sea,Koh Phuket,7.802466667,98.64331667
Koh Dok Mai,Thailand,Andaman Sea,Koh Phuket,7.796433334,98.53083333
Racha Yai Bay 3,Thailand,Koh Phuket,Racha Islands,7.59985,98.37436667
Northern Tip,Thailand,Koh Phuket,Racha Islands,7.52645,98.3345
Ray Bahn,Thailand,Koh Phuket,Racha Islands,7.463083333,98.30436667
Petchbury Bremen wreck,Thailand,Gulf of Thailand,Eastern Gulf,12.66088333,100.7499333
Ko Rin,Thailand,Gulf of Thailand,Eastern Gulf,12.79353333,100.6988833
Pak-1 wreck,Thailand,Gulf of Thailand,Eastern Gulf,12.09173333,101.6821833
HTMS Khram,Thailand,Gulf of Thailand,Eastern Gulf,12.93258333,100.6931833
Elephant Head,Thailand,Andaman Sea,Koh Similan,8.621671712,97.64133453
Shark Fin Reef,Thailand,Andaman Sea,Koh Similan,8.509214521,97.67377853
Fantasea Reef,Thailand,Andaman Sea,Koh Similan,8.656038763,97.63652802
North Point,Thailand,Andaman Sea,Koh Similan,8.68446346,97.64468193
Batu Belah,Indonesia,Bali,Amed,-8.315230556,115.6254139
Anchor Wreck,Indonesia,Bali,Menjangan island,-8.090427778,114.4983306
Dream Wall,Indonesia,Bali,Menjangan island,-8.091380556,114.5040611
Tanah Ampo Jetty,Indonesia,Bali,Amuk Bay,-8.507404723,115.5184206
Angel Canyon,Indonesia,Bali,,-8.137066541,115.3918934
Pura Jepun,Indonesia,Bali,Amuk Bay,-8.506943817,115.5562377
Gondolreef,Indonesia,Bali,Pemuteran and Lovina,-8.14543566,114.7191954
Magic Forest,Indonesia,Bali,Pemuteran and Lovina,-8.146582683,114.7417259
Lenbongan bay,Indonesia,Bali,Nusa Penida,-8.6785,115.4383167
Submarine Reef,Indonesia,Bali,Bukit Peninsula,-8.795528,115.237115
Bias Tugal,Indonesia,Bali,Amuk Bay,-8.537424592,115.5091918
Japanese Wreck,Indonesia,Bali,Amed,-8.364212773,115.7003796
Padangbai Housereef,Indonesia,Bali,Amuk Bay,-8.533788191,115.5130219
Pyramids,Indonesia,Bali,Amed,-8.337176151,115.6606936
Napoleon Reef,Indonesia,Bali,Pemuteran and Lovina,-8.132016667,114.6743333
Geger Beach,Indonesia,Bali,Bukit Peninsula,-8.818004064,115.2245021
Nusa Dua Beach,Indonesia,Bali,Bukit Peninsula,-8.815592096,115.2267981
Channel Point,Indonesia,Bali,Sanur,-8.709227251,115.266763
Bunutan wall,Indonesia,Bali,Amed,-8.344267209,115.6757355
Seraya,Indonesia,Bali,Tulamben,-8.295200401,115.6116629
Peti,Indonesia,Bali,Menjangan island,-8.091203215,114.5175898
Tanjung Jipun,Indonesia,Bali,Amuk Bay,-8.525979113,115.5127859
Ghost Bay,Indonesia,Bali,Amed,-8.333877596,115.6439784
Padangbai Blue Lagoon,Indonesia,Bali,Amuk Bay,-8.529809401,115.5140841
Puri Jati,Indonesia,Bali,Seririt,-8.183561794,114.914149
Close Encounters,Indonesia,Bali,Pemuteran and Lovina,-8.128059983,114.6671391
Kubu,Indonesia,Bali,Tulamben,-8.251058333,115.57735
Alam Batu Housreef,Indonesia,Bali,Tulamben,-8.234097189,115.5630934
Canyons,Indonesia,Bali,Nusa Penida,-8.680221104,115.47369
Secret Bay,Indonesia,Bali,Gilimanuk,-8.167568377,114.4455242
Pemuteran house reef,Indonesia,Bali,Pemuteran and Lovina,-8.141739675,114.6552944
Taka Lebar,Indonesia,Bali,Pemuteran and Lovina,-8.120752627,114.6430206
Taka Menaum,Indonesia,Bali,Pemuteran and Lovina,-8.124151414,114.6534061
Taka Jaran,Indonesia,Bali,Pemuteran and Lovina,-8.128399857,114.6582127
Kisik Pegemetan,Indonesia,Bali,Pemuteran and Lovina,-8.119987896,114.6218204
Tanjung Gelap,Indonesia,Bali,Pemuteran and Lovina,-8.129419476,114.5608807
Cave Point,Indonesia,Bali,Menjangan island,-8.100359303,114.5175362
Temple Point,Indonesia,Bali,Menjangan island,-8.092106086,114.5265055
Bat Cave,Indonesia,Bali,Menjangan island,-8.096238027,114.5282865
Pos 1,Indonesia,Bali,Menjangan island,-8.095483871,114.502902
Coral Garden,Indonesia,Bali,Menjangan island,-8.091930823,114.5224822
Pos 2,Indonesia,Bali,Menjangan island,-8.098022502,114.5254755
Eel Garden,Indonesia,Bali,Menjangan island,-8.093476323,114.4973767
Kapal Budak,Indonesia,Bali,Menjangan island,-8.091049195,114.5021081
Lipah Bay,Indonesia,Bali,Amed,-8.348805206,115.682838
Jemeluk,Indonesia,Bali,Amed,-8.336772763,115.6624961
Emerald bay,Indonesia,Bali,Tulamben,-8.284217386,115.6039596
The River,Indonesia,Bali,Tulamben,-8.278728417,115.5957681
Selang south,Indonesia,Bali,Gili Selang,-8.401235147,115.7109904
Selang north,Indonesia,Bali,Gili Selang,-8.398963807,115.712074
Mimpang,Indonesia,Bali,Amuk Bay,-8.523559964,115.5769444
Gili Tepekong - Toilet Bowl,Indonesia,Bali,Amuk Bay,-8.531538853,115.5862141
Gili Tepekong - The Canyon,Indonesia,Bali,Amuk Bay,-8.532727184,115.5844975
Gili Biaha,Indonesia,Bali,Amuk Bay,-8.509723835,115.6144524
Blue Lagoon,Indonesia,Bali,Amuk Bay,-8.530047222,115.5135917
Batu Abah,Indonesia,Bali,Nusa Penida,-8.780709564,115.6305456
Batu Lumbung,Indonesia,Bali,Nusa Penida,-8.803632741,115.5269051
Batu Meling,Indonesia,Bali,Nusa Penida,-8.773075259,115.493989
Gamat,Indonesia,Bali,Nusa Penida,-8.700626394,115.468272
Crystal Bay,Indonesia,Bali,Nusa Penida,-8.715452409,115.4556012
Ceningan Channel,Indonesia,Bali,Nusa Penida,-8.684622547,115.4667485
Jangka Point,Indonesia,Bali,Nusa Penida,-8.664799738,115.4715657
Ental Point,Indonesia,Bali,Nusa Penida,-8.660535948,115.4481125
Sental,Indonesia,Bali,Nusa Penida,-8.675809004,115.524416
Buyuk,Indonesia,Bali,Nusa Penida,-8.673093839,115.5484486
Ped,Indonesia,Bali,Nusa Penida,-8.671667309,115.5039078
S D,Indonesia,Bali,Nusa Penida,-8.671057453,115.4981196
Malibu Point,Indonesia,Bali,Nusa Penida,-8.730023327,115.605526
Manta Point,Indonesia,Bali,Nusa Penida,-8.763786643,115.4835606
Toyapakeh,Indonesia,Bali,Nusa Penida,-8.681652904,115.4831207
Batu Kelebit,Indonesia,Bali,Tulamben,-8.278022384,115.5985951
Coral Garden,Indonesia,Bali,Tulamben,-8.276525376,115.5942178
Tulamben Drop-off,Indonesia,Bali,Tulamben,-8.277884362,115.5971253
USAT Liberty Wreck,Indonesia,Bali,Tulamben,-8.274635529,115.5931503
Alor Divers Housereef,Indonesia,Alor Pantar,,-8.211023094,124.3292391
Anemone City,Indonesia,Alor Pantar,,-8.324628484,124.3327045
Regina s Reef,Indonesia,Central Java,Karimunjawa National Park,-5.826459071,110.386681
Intan Wreck,Indonesia,Central Java,,-4.406666667,106.6833333
Indonor Wreck,Indonesia,Central Java,Karimunjawa National Park,-5.7817,110.4625
Wodong Wreck,Indonesia,Flores,,-8.607754288,122.4733543
Big Fish Country,Indonesia,Kalimantan,Maratua,2.258993218,118.6444473
Light House,Indonesia,Kalimantan,Maratua,2.314481449,118.5697746
Divers Delight,Indonesia,Kalimantan,Maratua,2.300073583,118.5899448
Turtle Parade,Indonesia,Kalimantan,Maratua,2.291154355,118.6013603
Turtle Bay,Indonesia,Kalimantan,Maratua,2.269713677,118.6194706
Sea Wall Garden,Indonesia,Kalimantan,Maratua,2.226488305,118.6654758
Small Fish Country,Indonesia,Kalimantan,Maratua,2.25882169,118.6373234
Paradise House Reef,Indonesia,Kalimantan,Maratua,2.24269797,118.5655689
Turtle Traffic,Indonesia,Kalimantan,Maratua,2.287552343,118.5569
Paradise Resort Jetty,Indonesia,Kalimantan,Maratua,2.240896905,118.5647964
Samama Channel,Indonesia,Kalimantan,Samama,2.124337642,118.3338261
Samama Mangroves,Indonesia,Kalimantan,Samama,2.140891492,118.326273
Sandy Ridge,Indonesia,Kalimantan,Sangalaki,1.888833333,118.436875
Manta Run,Indonesia,Kalimantan,Sangalaki,1.906373333,118.4377633
Sherwood Forest,Indonesia,Kalimantan,Sangalaki,1.919791667,118.4514183
Manta Parade,Indonesia,Kalimantan,Sangalaki,2.084195968,118.4003448
Manta Avenue,Indonesia,Kalimantan,Sangalaki,1.918331667,118.4747167
Eel Ridge,Indonesia,Kalimantan,Sangalaki,1.904068333,118.48511
Turtle Town,Indonesia,Kalimantan,Sangalaki,1.876415,118.4514933
Channel Entrance,Indonesia,Kalimantan,Sangalaki,1.875153333,118.4755317
Coral Gardens,Indonesia,Kalimantan,Sangalaki,1.873725,118.4684883
Jellyfish Lakes,Indonesia,Kalimantan,Maratua,2.203845937,118.5987854
Maratua Channel,Indonesia,Kalimantan,Maratua,2.253675841,118.6435032
Pulau Belambangan,Indonesia,Kalimantan,,1.793568392,118.9809036
Pulau Sambit,Indonesia,Kalimantan,,1.748957761,119.0176392
Lighthouse Reef,Indonesia,Kalimantan,Sangalaki,1.924305492,118.5445404
Blue light cave,Indonesia,Kalimantan,Kakaban,2.137374886,118.5302925
Jellyfish Lake,Indonesia,Kalimantan,Kakaban,2.153328204,118.5194778
Barracuda point,Indonesia,Kalimantan,Kakaban,2.135659465,118.5028267
Cauldron,Indonesia,Komodo island,,-8.460380816,119.5611298
Tanjung Rusa,Indonesia,Komodo island,,-8.393922234,119.2760754
Sebayor Kecil,Indonesia,Komodo island,,-8.511039562,119.6957231
Lighthouse,Indonesia,Komodo island,,-8.442912931,119.5838642
Cristal Rock,Indonesia,Komodo island,,-8.439251579,119.5664942
Gililawa Bay,Indonesia,Komodo island,,-8.486124868,119.5543385
Crinoid Canyon,Indonesia,Komodo island,,-8.810227398,119.6677423
Castle Rock,Indonesia,Komodo island,,-8.439702778,119.5701667
Cannibal Rock,Indonesia,Komodo island,,-8.788852778,119.6701139
Langkoi Rock,Indonesia,Komodo island,,-8.756,119.3838333
Yellow wall,Indonesia,Komodo island,,-8.794175247,119.674952
Frog Fish Point,Indonesia,Lombok,Northern Islands,-8.34833046,116.0873876
Mirko Reef,Indonesia,Lombok,Northern Islands,-8.351803971,116.0664368
Halik s reef,Indonesia,Lombok,Northern Islands,-8.337866155,116.0325873
Gili Nanggu,Indonesia,Lombok,Southwest,-8.719927671,116.009016
Tuang Slope,Indonesia,Lombok,Northern Islands,-8.32805,116.1538167
Blue Bay,Indonesia,Lombok,Northern Islands,-8.32955,116.1146667
Anker Point,Indonesia,Lombok,Northern Islands,-8.321466667,116.1227167
Air Wall,Indonesia,Lombok,Northern Islands,-8.362121668,116.0716724
Takat Malang,Indonesia,Lombok,Northern Islands,-8.3201,116.0985833
Lighthouse,Indonesia,Lombok,Southwest,-8.727372183,115.9676456
Gili Renggit East,Indonesia,Lombok,Southwest,-8.717806701,115.917778
Medan,Indonesia,Lombok,Southwest,-8.737828185,115.8909988
Gili Renggit West,Indonesia,Lombok,Southwest,-8.718485412,115.9131432
Bangko Bangko,Indonesia,Lombok,Southwest,-8.720182187,115.8535767
Manta Point,Indonesia,Lombok,Northern Islands,-8.358257871,116.0233498
Coral Fan,Indonesia,Lombok,Northern Islands,-8.335626292,116.0350657
Meno Wall,Indonesia,Lombok,Northern Islands,-8.351973812,116.0492492
Bounty Wreck,Indonesia,Lombok,Northern Islands,-8.358066803,116.0515881
Salut Dropoff,Indonesia,Lombok,East,-8.299234684,116.7232132
Meno Slope,Indonesia,Lombok,Northern Islands,-8.345763958,116.050247
Coral Arks,Indonesia,Lombok,Northern Islands,-8.345010277,116.0444641
Sunset Reef,Indonesia,Lombok,Northern Islands,-8.364032323,116.0391426
Deep Turbo,Indonesia,Lombok,Northern Islands,-8.336008449,116.0476398
Han s Reef,Indonesia,Lombok,Northern Islands,-8.3546,116.0886
Japanese Wreck,Indonesia,Lombok,Northern Islands,-8.376966667,116.0890667
Shark Point,Indonesia,Lombok,Northern Islands,-8.356729326,116.0264397
Batu Lompa,Indonesia,Maluku Islands,Ambon,-3.594575829,128.3554924
Blacktip Point,Indonesia,Maluku Islands,,1.971291081,128.232035
Batu Kapal,Indonesia,Maluku Islands,,-4.485659842,129.9301831
Sangowo Reef,Indonesia,Maluku Islands,,2.100416667,128.5665667
Air Terjun,Indonesia,Maluku Islands,,1.691333333,127.5362667
Cape Paperu House Reef,Indonesia,Maluku Islands,,-3.591750948,128.6645794
Batu Palau,Indonesia,Maluku Islands,,-3.623959326,128.6408043
Eagle Rock,Indonesia,Maluku Islands,,-3.628119492,128.6402893
Molana Beach,Indonesia,Maluku Islands,,-3.640454256,128.5984039
Molana Layang Kecil,Indonesia,Maluku Islands,,-3.650733097,128.6011505
Shark Cave-Haruku,Indonesia,Maluku Islands,,-3.617840394,128.5407257
Tanjung Burung-Haruku,Indonesia,Maluku Islands,,-3.610393684,128.5462189
Tanjung Abora-Haruku,Indonesia,Maluku Islands,,-3.604117615,128.5546303
Pohen Kering-Molana,Indonesia,Maluku Islands,,-3.643195292,128.6135101
Ahmed,Indonesia,Maluku Islands,,-3.644206045,128.8028526
Gunggung Kecil-Nusa Laut,Indonesia,Maluku Islands,,-3.655963838,128.8090324
Pier,Indonesia,Maluku Islands,,-3.642461493,128.789978
Hukurila Canyon,Indonesia,Maluku Islands,Ambon,-3.736541088,128.2515407
Shipwreck,Indonesia,Maluku Islands,Ambon,-3.665830286,128.171466
Maluku Divers House Reef,Indonesia,Maluku Islands,Ambon,-3.78208335,128.1164861
Tanjung Hukurila,Indonesia,Maluku Islands,Ambon,-3.7438961,128.2412517
Pulau Tiga,Indonesia,Maluku Islands,Ambon,-3.669668696,127.9103851
Laha,Indonesia,Maluku Islands,Ambon,-3.705750009,128.1036866
Air Manis,Indonesia,Maluku Islands,Ambon,-3.719325624,128.0909944
Nomad Divers Bangka House Reef,Indonesia,Sulawesi,Bangka,1.767665737,125.1606847
Aringkambin,Indonesia,Sulawesi,Bangka,1.769237098,125.1764635
Thalassa House Reef,Indonesia,Sulawesi,Manado,1.533627018,124.8323216
Soleman point,Indonesia,Sulawesi,Manado,1.556388889,124.8036111
Ibu s secret garden,Indonesia,Sulawesi,Manado,1.586388889,124.8197222
Bianca,Indonesia,Sulawesi,Lembeh Strait,1.459420197,125.2211702
Whale bones,Indonesia,Sulawesi,Manado,1.409154633,124.6980375
Tasik Ria Pier,Indonesia,Sulawesi,Manado,1.413391238,124.7060037
Wallet,Indonesia,Sulawesi,Manado,1.405592037,124.6835992
Tanjung Kalapa,Indonesia,Sulawesi,Manado,1.416481185,124.6290886
Serena Patah,Indonesia,Sulawesi,Lembeh Strait,1.455558374,125.2270952
Kuda Laut,Indonesia,Sulawesi,Lembeh Strait,1.479982934,125.2314618
Kungkungan house reef,Indonesia,Sulawesi,Lembeh Strait,1.464774824,125.2303353
45 Bananas,Indonesia,Sulawesi,Manado,1.444346015,124.7417414
Tasik Ria House reef,Indonesia,Sulawesi,Manado,1.419977714,124.6993196
Pygmy Point,Indonesia,Sulawesi,Manado,1.424096318,124.7043407
Lumba Lumba house reef,Indonesia,Sulawesi,Manado,1.42464332,124.7179234
Aer Bajo 2,Indonesia,Sulawesi,Lembeh Strait,1.476136139,125.2509057
Aer Bajo 3,Indonesia,Sulawesi,Lembeh Strait,1.476839717,125.2510452
Critter Hunt,Indonesia,Sulawesi,Lembeh Strait,1.436423667,125.2092574
Hoga Chanel,Indonesia,Sulawesi,Wakatobi,-5.478488312,123.7594628
Tinabo Island,Indonesia,Sulawesi,Takabonerate National Park,-6.574574606,121.0995483
Walea House Reef,Indonesia,Sulawesi,Togian Islands,-0.369412724,122.3773956
Starship,Indonesia,Sulawesi,Wakatobi,-5.789188957,123.8435555
Fan Garden,Indonesia,Sulawesi,Wakatobi,-5.781845117,123.8514519
Batfish Wall,Indonesia,Sulawesi,Wakatobi,-5.776550662,123.8602066
Fan 38 West,Indonesia,Sulawesi,Wakatobi,-5.791921524,123.8838959
Fan 38 East,Indonesia,Sulawesi,Wakatobi,-5.795337214,123.8929939
Labasong,Indonesia,Manado,Bunaken,1.603559605,124.7660635
BMJ,Indonesia,Sulawesi,Manado,1.440808409,124.7412154
Wandoka Point,Indonesia,Sulawesi,Wakatobi,-5.299788,123.521134
Manado concrete reef,Indonesia,Sulawesi,Manado,1.462001432,124.7918612
Spiral Corner,Indonesia,Sulawesi,Wakatobi,-5.777660794,123.8775444
Magnifica,Indonesia,Sulawesi,Wakatobi,-5.770006533,123.8695621
Dunia Baru,Indonesia,Sulawesi,Wakatobi,-5.763485101,123.8920498
Waitii Ridge,Indonesia,Sulawesi,Wakatobi,-5.759642232,123.8933372
Koilo-Soha Beach,Indonesia,Sulawesi,Wakatobi,-5.741452298,123.8923073
Teluk Waitii,Indonesia,Sulawesi,Wakatobi,-5.749394453,123.8956547
Gunung Waha,Indonesia,Sulawesi,Wakatobi,-5.71480684,123.8978863
Ali Reef,Indonesia,Sulawesi,Wakatobi,-5.714123607,123.9024353
Eel Valley,Indonesia,Sulawesi,Wakatobi,-5.714294415,123.9067268
Muka kuala,Indonesia,Sulawesi,Kalinaun bay,1.616771195,125.1466477
Hitam putih,Indonesia,Sulawesi,Kalinaun bay,1.607333556,125.1446199
Canyon,Indonesia,Sulawesi,Kalinaun bay,1.63785558,125.164876
Henri point,Indonesia,Sulawesi,Kalinaun bay,1.635442576,125.1617002
Annie point,Indonesia,Sulawesi,Kalinaun bay,1.637319357,125.162816
Tanjung bintang,Indonesia,Sulawesi,Kalinaun bay,1.634380854,125.1596403
Garim reef,Indonesia,Sulawesi,Kalinaun bay,1.639051356,125.1626658
Batu pendeta,Indonesia,Sulawesi,Kalinaun bay,1.677385519,125.179553
Batu punteng,Indonesia,Sulawesi,Kalinaun bay,1.60125269,125.1651978
Teluk Maya,Indonesia,Sulawesi,Wakatobi,-5.798752884,123.9190865
Malabea,Indonesia,Sulawesi,Wakatobi,-5.800119146,123.9242363
Barracuda,Indonesia,Sulawesi,Wakatobi,-5.784278842,123.9189148
The Zoo,Indonesia,Sulawesi,Wakatobi,-5.782015905,123.9123917
Conchita,Indonesia,Sulawesi,Wakatobi,-5.780541434,123.9068985
Waha Top,Indonesia,Sulawesi,Wakatobi,-5.718052186,123.929472
Kulati Wreck,Indonesia,Sulawesi,Wakatobi,-5.755970132,123.9992523
Mermaid,Indonesia,Sulawesi,Wakatobi,-5.83700697,123.8978004
Fish Wall,Indonesia,Sulawesi,Wakatobi,-5.897798262,123.9757347
Bigfish housereef,Indonesia,Sulawesi,Manado,1.461816956,124.8203087
Pieter s Point,Indonesia,Sulawesi,Manado,1.60019095,124.8442769
Gabet,Indonesia,Sulawesi,Manado,1.57101969,124.8015976
Masuk II,Indonesia,Sulawesi,Manado,1.580865036,124.8112965
Bolung Point,Indonesia,Sulawesi,Manado,1.604652401,124.8633742
Wori Bay,Indonesia,Sulawesi,Manado,1.606411239,124.8669147
Katarina Point,Indonesia,Sulawesi,Manado,1.617243076,124.869318
Black Rock,Indonesia,Sulawesi,Manado,1.589766562,124.8241925
Sahaung,Indonesia,Sulawesi,Bangka,1.748957761,125.1598549
Yuki Point,Indonesia,Sulawesi,Bangka,1.678071871,125.1382899
Magic Rock,Indonesia,Sulawesi,Lembeh Strait,1.489359471,125.2410507
Tjendrawasih Barge Wreck,Indonesia,Sulawesi,Gorontalo,0.495923526,123.0709076
City Limit,Indonesia,Sulawesi,Gorontalo,0.480603304,123.0863571
Tanjung Pasir,Indonesia,Sulawesi,Gorontalo,0.485881704,122.9909134
West Point,Indonesia,Sulawesi,Gorontalo,0.486225014,122.9773521
Liabale,Indonesia,Sulawesi,Wakatobi,-5.809341329,123.9467239
Polytechnic Housereef,Indonesia,Sulawesi,Manado,1.452662856,124.7475243
TNI AL-Miori Housereef,Indonesia,Sulawesi,Manado,1.464219432,124.7861373
Jayamahe,Indonesia,Sulawesi,Manado,1.474440651,124.8269069
Blade,Indonesia,Sulawesi,Wakatobi,-5.771085366,123.7784958
Pinki s Wall,Indonesia,Sulawesi,Wakatobi,-5.800119146,123.8317108
Table Coral City,Indonesia,Sulawesi,Wakatobi,-5.751956415,123.8923931
Galaxy,Indonesia,Sulawesi,Wakatobi,-5.793287803,123.8385773
Tanjung tanduk,Indonesia,Sulawesi,Balantak peninsula,-0.837334389,123.4410095
Batu Tetek,Indonesia,Sulawesi,Balantak peninsula,-0.763698851,123.4537125
Rons Point,Indonesia,Manado,Bunaken,1.607097614,124.7391558
Jiko Yance,Indonesia,Sulawesi,Lembeh Strait,1.528870792,125.2773893
Pulau Abadi,Indonesia,Sulawesi,Lembeh Strait,1.438274703,125.2127481
Kapal Indah,Indonesia,Sulawesi,Lembeh Strait,1.434107859,125.2060694
Goby A  Crab,Indonesia,Sulawesi,Lembeh Strait,1.432492,125.188455
Teluk Kembahu 3,Indonesia,Sulawesi,Lembeh Strait,1.492717,125.237536
Teluk Kembahu 1,Indonesia,Sulawesi,Lembeh Strait,1.495243,125.240052
Nudi Retreat,Indonesia,Sulawesi,Lembeh Strait,1.486544101,125.2410775
Batu sandar,Indonesia,Sulawesi,Lembeh Strait,1.505447229,125.267272
Teluk Kembahu 2,Indonesia,Sulawesi,Lembeh Strait,1.494679,125.238476
Hairball One,Indonesia,Sulawesi,Lembeh Strait,1.502065953,125.2426768
Hairball Two,Indonesia,Sulawesi,Lembeh Strait,1.500419976,125.2421691
Aw Shucks,Indonesia,Sulawesi,Lembeh Strait,1.505946,125.246202
Makawide,Indonesia,Sulawesi,Lembeh Strait,1.482559676,125.2395916
Jahir,Indonesia,Sulawesi,Lembeh Strait,1.473057089,125.2353215
Three Brothers Rock,Indonesia,Sulawesi,Bangka,1.764485814,125.1675797
Yellow koko,Indonesia,Sulawesi,Bangka,1.676763514,125.1267672
Tg  Sampini,Indonesia,Sulawesi,Bangka,1.685814753,125.1514435
Batu Mandi,Indonesia,Sulawesi,Bangka,1.687986401,125.1616788
Blue bay I,Indonesia,Sulawesi,Bangka,1.745354548,125.1538467
Simone point,Indonesia,Sulawesi,Bangka,1.684613643,125.1515722
Busa Bora,Indonesia,Sulawesi,Bangka,1.762341063,125.1287842
Sachikos point,Indonesia,Manado,Bunaken,1.628237869,124.7666645
Oluhuta,Indonesia,Sulawesi,Gorontalo,0.419622485,123.1446362
Traffic Jam,Indonesia,Sulawesi,Gorontalo,0.407048616,123.1530905
Jinn Caves,Indonesia,Sulawesi,Gorontalo,0.405761188,123.1551075
J   R  Macro,Indonesia,Sulawesi,Gorontalo,0.439448816,123.1312037
Goa - Goa,Indonesia,Sulawesi,Gorontalo,0.486310842,122.9759789
Tanjung Pasir  Kayu Bulan,Indonesia,Sulawesi,Gorontalo,0.484905415,122.9893792
Japanese Cargo Wreck,Indonesia,Sulawesi,Gorontalo,0.486546868,123.0823445
Makhruzi,Indonesia,Sulawesi,Gorontalo,0.44736646,123.1218266
Lembeh Resort House Reef,Indonesia,Sulawesi,Lembeh Strait,1.456985183,125.2422309
Mari Mabuk,Indonesia,Sulawesi,Wakatobi,-5.71984566,123.891921
Bunaken Timur 2,Indonesia,Manado,Bunaken,1.607054716,124.7822857
Bunaken Timur 1,Indonesia,Manado,Bunaken,1.613403679,124.7831547
Siladen Pier,Indonesia,Manado,Bunaken,1.627430556,124.8000444
Roma,Indonesia,Sulawesi,Wakatobi,-5.729837764,123.8928223
Cornucopia,Indonesia,Sulawesi,Wakatobi,-5.773561835,123.862524
Tanjung Patok,Indonesia,Sulawesi,Wakatobi,-5.769121262,123.891964
House Reef,Indonesia,Sulawesi,Wakatobi,-5.776038293,123.8942814
Prince John Housereef,Indonesia,Sulawesi,Donggala,-0.646119728,119.7384453
Siladen Housereef,Indonesia,Manado,Bunaken,1.626573424,124.8009968
Dalton Point,Indonesia,Manado,Bunaken,1.631592489,124.7740459
Lekuan II,Indonesia,Manado,Bunaken,1.601220516,124.7651196
Lekuan III,Indonesia,Manado,Bunaken,1.605330199,124.7670937
Cela Cela,Indonesia,Manado,Bunaken,1.611768179,124.7679573
Alung Banua,Indonesia,Manado,Bunaken,1.616663949,124.7531891
Fukui Point,Indonesia,Manado,Bunaken,1.608427466,124.7403145
Tenga,Indonesia,Manado,Bunaken,1.616483779,124.730916
Raymond Point,Indonesia,Manado,Bunaken,1.627131098,124.7336197
Mike s Point,Indonesia,Manado,Bunaken,1.636826032,124.7397137
Tanjun Parigi,Indonesia,Manado,Bunaken,1.628139202,124.7593904
Muka Gereja,Indonesia,Manado,Bunaken,1.61644088,124.6948028
Negri,Indonesia,Manado,Bunaken,1.622948535,124.7142649
Panggulingan,Indonesia,Manado,Bunaken,1.645,124.71015
Tanjung Kopi,Indonesia,Manado,Bunaken,1.65196891,124.6970987
Cape Bira,Indonesia,Sulawesi,,-5.624527628,120.4740143
Bunaken Fukui,Indonesia,Manado,Bunaken,1.611902778,124.7391694
Nudi Falls,Indonesia,Sulawesi,Lembeh Strait,1.462095815,125.2283478
Pantai Parigi,Indonesia,Sulawesi,Lembeh Strait,1.4698,125.2447
Tanduk Russa,Indonesia,Sulawesi,Lembeh Strait,1.458083333,125.2198833
Divers Loge Lembeh House Reef,Indonesia,Sulawesi,Lembeh Strait,1.406521771,125.1687115
Serena,Indonesia,Sulawesi,Lembeh Strait,1.459366667,125.2338167
Police Pier,Indonesia,Sulawesi,Lembeh Strait,1.459925641,125.2224987
Air Prang,Indonesia,Sulawesi,Lembeh Strait,1.475583333,125.23495
B24 Liberator,Indonesia,Sulawesi,Togian Islands,-0.430093541,122.0085812
Angel s Window,Indonesia,Sulawesi,Lembeh Strait,1.50003103,125.2611727
Una Una - Apollo,Indonesia,Sulawesi,Togian Islands,-0.202983333,121.5683833
Una Una - The Pinnacle,Indonesia,Sulawesi,Togian Islands,-0.1843,121.6544333
Tapuan I and II,Indonesia,Sulawesi,Togian Islands,-0.594033333,121.6162667
Pasir Tengah Atoll,Indonesia,Sulawesi,Togian Islands,-0.405133333,121.6373833
Mandolin,Indonesia,Manado,Bunaken,1.610958472,124.7325468
Muka Kampung,Indonesia,Manado,Bunaken,1.593305712,124.7789276
Pangalisang,Indonesia,Manado,Bunaken,1.599424137,124.7829133
Lekuan I,Indonesia,Manado,Bunaken,1.5962121,124.7676194
Siladen Utara,Indonesia,Manado,Bunaken,1.640343651,124.8021126
Siladen Timur,Indonesia,Manado,Bunaken,1.627592252,124.8054063
Tangkasi,Indonesia,Manado,Bunaken,1.735145407,124.7747326
Bango,Indonesia,Manado,Bunaken,1.689160698,124.7684669
Gorango,Indonesia,Manado,Bunaken,1.699198499,124.7410011
Barracuda point,Indonesia,Manado,Bunaken,1.748614598,124.7259808
Batu Kapal,Indonesia,Manado,Bunaken,1.769032677,124.7693253
Jalan Masuk,Indonesia,Manado,Bunaken,1.762169482,124.8009109
Tanjung Pisok,Indonesia,Sulawesi,Manado,1.567780797,124.798615
Tanjung Tihowo,Indonesia,Sulawesi,Manado,1.605767762,124.8542976
Poopoh,Indonesia,Sulawesi,Manado,1.410570683,124.6344638
Critter Circus,Indonesia,Sulawesi,Manado,1.416298138,124.7024846
Molas Wreck,Indonesia,Sulawesi,Manado,1.531251745,124.8269606
Bimoli wreck,Indonesia,Sulawesi,Lembeh Strait,1.43595,125.1775
Batu Kapal,Indonesia,Sulawesi,Lembeh Strait,1.553441664,125.2942121
California Dreaming,Indonesia,Sulawesi,Lembeh Strait,1.522231997,125.2759945
Pulau Putus,Indonesia,Sulawesi,Lembeh Strait,1.523647703,125.2767134
Mawali Wreck,Indonesia,Sulawesi,Lembeh Strait,1.4463,125.2256
Karang Serang,Indonesia,Sumatra,,-6.10919206,105.4403615
Memperak Slope,Indonesia,Sumatra,Pulau Belitung,-2.714332198,108.4305326
Sumpat Reef,Indonesia,Sumatra,Riau Islands,1.197598382,104.5247275
Tanjung Berakit,Indonesia,Sumatra,Riau Islands,1.243249949,104.5691878
Todang,Indonesia,Sumatra,Riau Islands,1.183611,104.319442
Ujong Phe Coral Garden,Indonesia,Sumatra,,5.60652562,95.1883471
Red Bonsai,Indonesia,Sumatra,,5.583354959,95.20065308
Palau Pagang Utara,Indonesia,Sumatra,Padang,-1.14799447,100.3374481
Adjis Reef,Indonesia,Sumatra,Padang,-1.216644398,100.2694702
Palau Marak Utara,Indonesia,Sumatra,Padang,-1.18875557,100.3417826
Palau Pagang Selatan,Indonesia,Sumatra,Padang,-1.165843614,100.3455162
Cubadak Pier,Indonesia,Sumatra,Padang,-1.217287983,100.4012203
Lhok Mata Ie,Indonesia,Sumatra,,5.571908101,95.22511482
Pulau Batee,Indonesia,Sumatra,,5.581988182,95.21086693
Pulau Tuan,Indonesia,Sumatra,,5.565159475,95.25039196
Sophie Rickmers Wreck,Indonesia,Sumatra,Pulau Weh,5.846399315,95.29781342
Batee Meuduro,Indonesia,Sumatra,Pulau Weh,5.771896624,95.33074021
Tugboat Wreck,Indonesia,Sumatra,Pulau Weh,5.881235,95.31858444
The Canyon,Indonesia,Sumatra,Pulau Weh,5.903155604,95.21464348
Batee Tokong,Indonesia,Sumatra,Pulau Weh,5.898075736,95.25223196
Tongkeng Reef,Indonesia,West Java,Seribu islands,-5.590324039,106.5412411
House Reef of Putri,Indonesia,West Java,Seribu islands,-5.59382635,106.5670332
Triton point,Indonesia,West Java,Seribu islands,-5.602624745,106.5449318
Matahari island,Indonesia,West Java,Seribu islands,-5.607034571,106.5438804
Mia Point,Indonesia,West Java,Seribu islands,-5.572929632,106.5570769
Aydin Reef,Indonesia,West Java,Seribu islands,-5.588839822,106.5895853
Sepa island,Indonesia,West Java,Seribu islands,-5.577222222,106.5799722
Kedondong,Indonesia,West Java,,-5.93817981,105.8590221
Gunung Gede,Indonesia,West Java,,-5.959465729,105.8474886
Batu Mandi,Indonesia,West Java,,-5.979483884,105.8505142
Tempuyungan,Indonesia,West Java,,-5.966948792,105.8670044
Victory Wreck,Indonesia,West Java,,-5.972547505,105.8627155
Tanjung Bajo,Indonesia,West Java,,-5.94526015,105.8606207
Pulau Sanghyang,Indonesia,West Java,,-5.962207598,105.8653334
Suralaya Wall,Indonesia,West Java,,-5.87710478,106.0407686
Heaven Alley,Indonesia,West Timor   Rote Island,,-9.25573367,123.9988918
North Slope,Indonesia,West Timor   Rote Island,,-10.95376627,122.876913
Conservation House Reef,Indonesia,Irian Jaya,Triton Bay,-3.908366479,134.1150963
Aquarium,Indonesia,Irian Jaya,Triton Bay,-3.914650453,134.1027319
Pintu Arus,Indonesia,Irian Jaya,Triton Bay,-3.913816982,134.0998952
3 Rocks,Indonesia,Irian Jaya,Triton Bay,-3.909004532,134.079253
Stumpy Rock,Indonesia,Irian Jaya,Triton Bay,-3.918209816,133.9893453
Macro Rock,Indonesia,Irian Jaya,Triton Bay,-3.923296227,134.1045301
Dramai,Indonesia,Irian Jaya,Triton Bay,-4.041362384,134.2362802
Cristmas Rock,Indonesia,Irian Jaya,Triton Bay,-4.01046538,134.2036259
Larry s Heaven,Indonesia,Irian Jaya,Triton Bay,-4.014709292,134.1585605
Fresh Waters,Indonesia,Irian Jaya,Triton Bay,-3.930290705,134.1734028
Bagus,Indonesia,Irian Jaya,Triton Bay,-3.970439666,134.1633542
Blue Water Mangrove,Indonesia,Raja Ampat,Misool,-1.805600394,129.6448257
Kalaeidoskop,Indonesia,Raja Ampat,Misool,-2.182404167,130.2158036
Bo s Rainbow,Indonesia,Irian Jaya,Triton Bay,-3.913128283,134.12168
Little Komodo,Indonesia,Irian Jaya,Triton Bay,-3.916456895,134.1030987
Walo Bommies,Indonesia,Raja Ampat,Kofiau,-1.270817,129.668367
Kampung Deer,Indonesia,Raja Ampat,Kofiau,-1.152433973,129.84909
Andiamo,Indonesia,Raja Ampat,Misool,-2.098783333,130.8509167
Living Colours,Indonesia,Raja Ampat,Misool,-2.098333333,130.8541667
Candy Store,Indonesia,Raja Ampat,Misool,-2.099066667,130.8603333
Magic Mountain,Indonesia,Raja Ampat,Misool,-2.260166667,130.6458333
Kanim,Indonesia,Raja Ampat,Misool,-2.188916667,130.6248333
Yilliet,Indonesia,Raja Ampat,Misool,-2.189883333,130.59845
Boo Window,Indonesia,Raja Ampat,Misool,-2.221428109,130.6039238
Leo s Reef,Indonesia,Raja Ampat,Batanta   Salawati,-0.788861111,130.5032222
Pulau Ahe,Indonesia,Irian Jaya,,-3.089488889,135.562575
Gladden Corner,Indonesia,Raja Ampat,Kofiau,-1.185065643,129.97015
GT Rock,Indonesia,Irian Jaya,Triton Bay,-4.0286,134.21125
Fiabacet,Indonesia,Raja Ampat,Misool,-2.220216667,130.5578333
Monmon,Indonesia,Irian Jaya,,-3.883693663,132.8065109
Pulau Pisang,Indonesia,Irian Jaya,,-2.626783333,131.66395
Nusaulang,Indonesia,Irian Jaya,,-4.119866667,132.9827333
Katy Rock,Indonesia,Irian Jaya,Triton Bay,-3.90885,134.1241333
Disney Land,Indonesia,Irian Jaya,Triton Bay,-4.005027642,134.1813469
The Passage,Indonesia,Raja Ampat,Gam,-0.430951823,130.555687
Cape Kri,Indonesia,Raja Ampat,Gam,-0.549651298,130.6965351
El nacimiento del Mante,Mexico,Moneterrey,,22.69816877,-99.045825
Isla de Píçjaros,Mexico,Northwest,Mazatlíçn,23.25744357,-106.4740205
San Pedro - La Playa,Mexico,Northwest,San Carlos,27.97223116,-111.3751888
San Pedro - Rocas Grandes,Mexico,Northwest,San Carlos,27.97757518,-111.380167
San Pedro - Lighthouse,Mexico,Northwest,San Carlos,27.97901536,-111.3806391
San Pedro - North Point,Mexico,Northwest,San Carlos,27.98511699,-111.3894367
San Pedro - La Ventana,Mexico,Northwest,San Carlos,27.97749938,-111.3891792
San Pedro - Punta Pelicano,Mexico,Northwest,San Carlos,27.96358921,-111.3833857
San Pedro - La Caverna,Mexico,Northwest,San Carlos,27.95960914,-111.3807678
San Pedro - The Rookery,Mexico,Northwest,San Carlos,27.95490867,-111.372056
San Pedro - Punta Sur Oesta,Mexico,Northwest,San Carlos,27.95293744,-111.3686228
San Pedro - La Cueva,Mexico,Northwest,San Carlos,27.95744846,-111.3664341
Punta San Pedro,Mexico,Northwest,San Carlos,28.05130312,-111.251421
Diaz Ordaz Wreck,Mexico,Northwest,San Carlos,28.04600063,-111.2335682
La Palpa,Mexico,Northwest,San Carlos,27.98295683,-111.1482096
Punta La Manga,Mexico,Northwest,San Carlos,27.97488425,-111.1325455
Deer Island,Mexico,Northwest,San Carlos,27.95437795,-111.1193275
San Antonio Point,Mexico,Northwest,San Carlos,27.93568768,-111.1062384
Zorro s Cove,Mexico,Northwest,San Carlos,27.93693885,-111.0953379
Frenchie s Beach,Mexico,Northwest,San Carlos,27.93667345,-111.0915613
Tres Marias,Mexico,Northwest,San Carlos,27.93644597,-111.0763478
Eagle Rock,Mexico,Northwest,San Carlos,27.9327303,-111.0637093
Seamount,Mexico,Northwest,San Carlos,27.93476003,-111.0489464
Lighthouse,Mexico,Northwest,San Carlos,27.86609202,-110.949297
Haystack,Mexico,Northwest,San Carlos,27.90827195,-110.9699821
Window Rock,Mexico,Northwest,San Carlos,27.93246489,-110.9902811
Honeymoon Island,Mexico,Northwest,San Carlos,27.94647384,-111.031673
Martini Cove,Mexico,Northwest,San Carlos,27.93136533,-111.060276
South Himalaya Bay,Mexico,Northwest,San Carlos,28.14675983,-111.3141203
North Himalaya Bay,Mexico,Northwest,San Carlos,28.14805556,-111.3161111
El Choyudo,Mexico,Northwest,Tiburon Island,28.73784167,-112.3032333
Turner Island,Mexico,Northwest,Tiburon Island,28.70869401,-112.2861099
La segunda gringa,Mexico,Northwest,San Carlos,27.87607899,-110.9529126
La primera gringa,Mexico,Northwest,San Carlos,27.88521632,-110.9552783
San Pedro - Punta Sur,Mexico,Northwest,San Carlos,27.95142109,-111.3660049
San Pedro - Las Cascalitas,Mexico,Northwest,San Carlos,27.97469475,-111.3788795
Tanguijo,Mexico,Southern Gulf of Mexico,Veracruz,21.13834708,-97.27226257
Arrecife Tuxpan,Mexico,Southern Gulf of Mexico,Veracruz,21.02851055,-97.19501495
Morgan,Mexico,Southern Gulf of Mexico,Veracruz,19.23111667,-96.05721667
Punta Dorado,Mexico,Southern Gulf of Mexico,Veracruz,19.22876667,-96.0625
Sueste,Mexico,Southern Gulf of Mexico,Veracruz,19.22035,-96.04876667
Ahogado del Arquitecto,Mexico,Southern Gulf of Mexico,Veracruz,19.22146667,-96.05788333
Caomex,Mexico,Southern Gulf of Mexico,Veracruz,19.22083333,-96.05245
C-50 Rivapalacios,Mexico,Southern Gulf of Mexico,Veracruz,19.21278333,-96.05421667
Lobos,Mexico,Southern Gulf of Mexico,Veracruz,21.47084177,-97.23200798
La Virgen,Mexico,Southern Gulf of Mexico,Veracruz,19.22933333,-96.06416667
Caleta,Mexico,Central Pacific,Acapulco,16.83103629,-99.90303352
Torrecillas,Mexico,Central Pacific,Puerto Vallarta,20.48234106,-105.5856514
Camion hundido en mismaloya,Mexico,Central Pacific,Puerto Vallarta,20.53355016,-105.2914882
Morro de La Manzanilla,Mexico,Central Pacific,Manzanillo Bay,19.27236939,-104.8978686
Devil  Jaw,Mexico,Central Pacific,Puerto Vallarta,20.54663106,-105.2918422
Club De Yates,Mexico,Central Pacific,Manzanillo Bay,19.10067273,-104.3505853
Las Caletas,Mexico,Central Pacific,,20.50228008,-105.3712463
Palmitas,Mexico,Central Pacific,Acapulco,16.82408333,-99.91225
Los Bajos de la Quebrada,Mexico,Central Pacific,Acapulco,16.84318333,-99.92243333
Rio de la Plata,Mexico,Central Pacific,Acapulco,16.84195,-99.86475
Las Cuevas,Mexico,Central Pacific,Acapulco,16.81736872,-99.90543008
Elephant Rock,Mexico,Central Pacific,Manzanillo Bay,19.09115779,-104.3921757
Majahuitas,Mexico,Central Pacific,Puerto Vallarta,20.5064,-105.39
Punta Mismaloya,Mexico,Central Pacific,Puerto Vallarta,20.5341,-105.297
Los Arcos,Mexico,Central Pacific,Puerto Vallarta,20.5452,-105.291
Las Tres Marietas,Mexico,Central Pacific,Puerto Vallarta,20.68900278,-105.5868528
Pena Blanca,Mexico,Central Pacific,Manzanillo Bay,19.10109346,-104.4881773
San Luciano wreck,Mexico,Central Pacific,Manzanillo Bay,19.10608135,-104.3961239
Los frailes,Mexico,Central Pacific,Manzanillo Bay,19.07659791,-104.3923044
Anegados,Mexico,Central Pacific,Puerto Vallarta,20.67736667,-105.6414167
El morro,Mexico,Central Pacific,Puerto Vallarta,20.67301667,-105.6752667
La Pared,Mexico,Central Pacific,Puerto Vallarta,20.6208153,-105.2467918
Socorro - Punta Tosca,Mexico,Islas Revillagigedos,,18.78104948,-111.0401487
San Benedicto - Canyon,Mexico,Islas Revillagigedos,,19.29686621,-110.8067107
San Benedicto - The Boiler,Mexico,Islas Revillagigedos,,19.33086605,-110.815444
Socorro - Cabo Pearce,Mexico,Islas Revillagigedos,,18.77818501,-110.9068108
Socorro - The Aquarium,Mexico,Islas Revillagigedos,,18.78200429,-111.0465539
Roca Partida,Mexico,Islas Revillagigedos,,18.9908,-112.0696833
Palancar Bricks,Mexico,Yucatan,Cozumel Isalnd,20.32043585,-87.02745366
Santa Rosa Reef,Mexico,Yucatan,Cozumel Isalnd,20.36539049,-87.02676702
Palancar Caves,Mexico,Yucatan,Cozumel Isalnd,20.32684264,-87.03020024
Net Reef,Mexico,Yucatan,Akumal,20.40385438,-87.30338704
Aquarius Playa Maroma,Mexico,Yucatan,Playa del Carmen,20.58848842,-87.07991123
Los Arcos,Mexico,Yucatan,Playa del Carmen,20.70784982,-86.93777561
Polo Profundo,Mexico,Yucatan,Playa del Carmen,20.66173878,-87.01481938
Money Bar,Mexico,Yucatan,Cozumel Isalnd,20.460033,-86.986043
Mama Vina,Mexico,Yucatan,Playa del Carmen,20.56057,-87.1105
Cenote Manatí_,Mexico,Yucatan,Tulum,20.26647465,-87.39127278
The pit,Mexico,Yucatan,Tulum,20.3447879,-87.42173195
Cenote Calavera,Mexico,Yucatan,Tulum,20.22924111,-87.4573195
Chun-Zumbul Reef,Mexico,Yucatan,Playa del Carmen,20.65784369,-86.97601318
Moc Che Deep,Mexico,Yucatan,Playa del Carmen,20.6867533,-86.88262939
Moc Che Shallow,Mexico,Yucatan,Playa del Carmen,20.68932278,-86.93138123
C-56 Shipwreck,Mexico,Yucatan,Puerto Morelos,20.82544264,-86.7906189
Palancar Gardens,Mexico,Yucatan,Cozumel Isalnd,20.33609621,-87.02742577
The Brain,Mexico,Yucatan,Playa del Carmen,20.69341779,-87.00047493
Kukulcan,Mexico,Yucatan,Playa del Carmen,20.51311279,-87.2479248
Sabalos,Mexico,Yucatan,Playa del Carmen,20.58462778,-87.10606111
Punta Benado,Mexico,Yucatan,Playa del Carmen,20.54986594,-87.14115143
Barracuda,Mexico,Yucatan,Playa del Carmen,20.58030268,-87.11141109
La Jardinera de la Esperanza,Mexico,Yucatan,Cancun,21.02827021,-86.78153694
Exectamente,Mexico,Yucatan,Cozumel Isalnd,20.4111465,-87.02154636
San Clemente reef,Mexico,Yucatan,Cozumel Isalnd,20.38170201,-87.02628851
Blue Ha Reef,Mexico,Yucatan,Mahahual,18.70543977,-87.70531654
Playa Corona,Mexico,Yucatan,Cozumel Isalnd,20.43543799,-87.0029211
La Francesa,Mexico,Yucatan,Cozumel Isalnd,20.35034167,-87.02768333
Pelicano Wreck,Mexico,Yucatan,Playa del Carmen,20.48230086,-87.2367239
Xpu-Ha Canyon,Mexico,Yucatan,Playa del Carmen,20.46903355,-87.24861145
Sieto Cocos,Mexico,Yucatan,Xcalak,18.34206106,-87.80187607
La Chiminea,Mexico,Yucatan,Xcalak,18.23175625,-87.82861233
Barracuda Point,Mexico,Yucatan,Cozumel Isalnd,20.54273303,-86.93723917
Las Esponjas,Mexico,Yucatan,Akumal,20.39211111,-87.30541667
Halfmoon Bay,Mexico,Yucatan,Akumal,20.40002778,-87.30225
Las Gorgonians,Mexico,Yucatan,Akumal,20.43625,-87.27730556
Yool Caanal,Mexico,Yucatan,Akumal,20.40313889,-87.30211111
Grouper Reef,Mexico,Yucatan,Akumal,20.38486111,-87.31002778
Leon,Mexico,Yucatan,Akumal,20.39591667,-87.3059
Herradura,Mexico,Yucatan,Akumal,20.3883,-87.30866667
Motorcycle Reef,Mexico,Yucatan,Akumal,20.39377778,-87.30744444
La Inglacia,Mexico,Yucatan,Akumal,20.37427778,-87.31997222
Yal Ku North,Mexico,Yucatan,Akumal,20.40558333,-87.30172222
Yal Ku Chicu,Mexico,Yucatan,Akumal,20.41494444,-87.29527778
Pared Verde,Mexico,Yucatan,Playa del Carmen,20.6412985,-87.05085754
Sitio de los tiburones toro,Mexico,Yucatan,Playa del Carmen,20.62744252,-87.05911875
Punta Gonzalez,Mexico,Yucatan,Banco Chinchorro,18.51330739,-87.4417305
Kai Ha,Mexico,Yucatan,Banco Chinchorro,18.56782929,-87.42404938
Punta Isabel,Mexico,Yucatan,Banco Chinchorro,18.60647232,-87.42250443
SS Far Star,Mexico,Yucatan,Banco Chinchorro,18.39272799,-87.39151955
Ginger Scout,Mexico,Yucatan,Banco Chinchorro,18.66161496,-87.22904205
Cueva de Pargo,Mexico,Yucatan,Playa del Carmen,20.62250226,-87.01309204
Cenote Azul,Mexico,Yucatan,Playa del Carmen,20.4882959,-87.25206614
Tortuga Reef,Mexico,Yucatan,Akumal,20.3923421,-87.31240511
XCaret - Snorkeling Lagoon,Mexico,Yucatan,Playa del Carmen,20.578375,-87.11816667
El Meco,Mexico,Yucatan,Cancun,21.21700056,-86.79532886
Sleepy Shark Caves,Mexico,Yucatan,Cancun,21.2831163,-86.75472021
Coco Beach,Mexico,Yucatan,Playa del Carmen,20.61027141,-87.07877398
Neto s,Mexico,Yucatan,Puerto Morelos,20.83173,-86.87671781
Rodman,Mexico,Yucatan,Puerto Morelos,20.88277626,-86.84852779
Esquela,Mexico,Yucatan,Playa del Carmen,20.49630066,-87.21972942
Tarpon Hole,Mexico,Yucatan,Xcalak,18.260878,-87.825066
Cenote Taj Mahal,Mexico,Yucatan,Playa del Carmen,20.48338632,-87.27719307
Punta Tunich,Mexico,Yucatan,Cozumel Isalnd,20.39280833,-87.02551944
Cordona Reef,Mexico,Yucatan,Cozumel Isalnd,20.38436667,-87.02423889
Mamitas,Mexico,Yucatan,Playa del Carmen,20.62616229,-87.06324399
La Pared,Mexico,Yucatan,Puerto Morelos,20.82437968,-86.87637448
Cozumel plane wreck,Mexico,Yucatan,Cozumel Isalnd,20.47995906,-86.97370112
Chac Mool Cenote,Mexico,Yucatan,Playa del Carmen,20.5128465,-87.2469002
Rio Bermejo,Mexico,Yucatan,Mahahual,18.68424022,-87.71078825
Jardin,Mexico,Yucatan,Mahahual,18.71102885,-87.70428658
Faro Nuevo,Mexico,Yucatan,Mahahual,18.72442158,-87.69570351
Escalones,Mexico,Yucatan,Mahahual,18.72210485,-87.69857883
Yucab Reef,Mexico,Yucatan,Cozumel Isalnd,20.40550542,-87.02119231
Sleeping Sharks Cave,Mexico,Yucatan,Cancun,21.28740999,-86.75597548
Ultrafreeze Wreck,Mexico,Yucatan,Cancun,21.1644028,-86.68384552
La Boya de los Locos,Mexico,Yucatan,Cancun,21.036089,-86.769924
C-58 Wreck,Mexico,Yucatan,Cancun,21.11840833,-86.72525556
San Toribio,Mexico,Yucatan,Cancun,21.12281389,-86.72133056
Aristos,Mexico,Yucatan,Cancun,21.12099722,-86.74150556
Cuevas de Afuera,Mexico,Yucatan,Cancun,21.12833889,-86.71551667
Punta Negra,Mexico,Yucatan,Cancun,21.12787222,-86.73103889
Grampin,Mexico,Yucatan,Cancun,21.14077222,-86.73663611
Chitales,Mexico,Yucatan,Cancun,21.16577222,-86.73555833
El Tunel,Mexico,Yucatan,Cancun,21.14665,-86.72708611
Santo Remedio,Mexico,Yucatan,Cancun,21.16817222,-86.73025556
Bandera,Mexico,Yucatan,Cancun,21.18734167,-86.7248
Manchones reef,Mexico,Yucatan,Cancun,21.20243056,-86.71666667
Herradura,Mexico,Yucatan,Cancun,21.11021944,-86.743525
Chun-zumbul,Mexico,Yucatan,Playa del Carmen,20.64563576,-86.97807312
Jardines,Mexico,Yucatan,Playa del Carmen,20.6240446,-87.01892853
Chikin Ha Cenote,Mexico,Yucatan,Playa del Carmen,20.49925522,-87.26028979
Las Palmas Shallows,Mexico,Yucatan,Cozumel Isalnd,20.45803333,-86.99053611
Angelita Cenote,Mexico,Yucatan,Tulum,20.13756375,-87.57796526
Chankanaab Bolones,Mexico,Yucatan,Cozumel Isalnd,20.43626238,-87.01146126
San Francisco,Mexico,Yucatan,Cozumel Isalnd,20.37072928,-87.02676058
Cenote PonDeRosa,Mexico,Yucatan,Playa del Carmen,20.49173805,-87.25824594
Gran Cenote,Mexico,Yucatan,Tulum,20.24647494,-87.46404111
Cenote Carwash,Mexico,Yucatan,Tulum,20.27413365,-87.48621225
Punta Sur - Devil s Throat,Mexico,Yucatan,Cozumel Isalnd,20.29617254,-87.02047348
Palancar Horseshoe,Mexico,Yucatan,Cozumel Isalnd,20.32659917,-87.03266144
Columbia Deep,Mexico,Yucatan,Cozumel Isalnd,20.31222,-87.02528
Paso del Cedral,Mexico,Yucatan,Cozumel Isalnd,20.35428889,-87.02827222
Villa Blanca,Mexico,Yucatan,Cozumel Isalnd,20.51605833,-86.95430556
Punta Dalila,Mexico,Yucatan,Cozumel Isalnd,20.34538889,-87.02290278
Tortugas Reef,Mexico,Yucatan,Playa del Carmen,20.58226127,-87.10850358
Palancar Deep,Mexico,Yucatan,Cozumel Isalnd,20.33384273,-87.0306015
Paraiso Bajo,Mexico,Yucatan,Cozumel Isalnd,20.47188813,-86.98146343
Santa Rosa Wall,Mexico,Yucatan,Cozumel Isalnd,20.36551923,-87.02735066
Cenote Dos Ojos,Mexico,Yucatan,Tulum,20.32475,-87.39111667
Columbia Reef,Mexico,Yucatan,Cozumel Isalnd,20.31645763,-87.01686859
Punta Sur,Mexico,Yucatan,Cozumel Isalnd,20.30188805,-87.01867104
Tormentos Reef,Mexico,Yucatan,Cozumel Isalnd,20.44075,-87.00465
C-53 Xicotencatl,Mexico,Yucatan,Cozumel Isalnd,20.4452,-87.00053333
Pargo Via,Mexico,Baja California,Isla Cerralvo,24.14331667,-109.79395
La Punta,Mexico,Baja California,,26.06927352,-112.3100138
Isla Coronadito,Mexico,Baja California,,29.09842841,-113.5269255
Punta Arenas,Mexico,Baja California,Isla Cerralvo,24.04485716,-109.8262507
La Reina,Mexico,Baja California,Isla Cerralvo,24.44496178,-109.9492836
Punta Sur  BCS,Mexico,Baja California,Isla Cerralvo,24.13742821,-109.8009843
Punta Pericos,Mexico,Baja California,Isla Cerralvo,24.01509271,-109.8059571
La Reinita,Mexico,Baja California,Isla Cerralvo,24.32505651,-109.9400514
Roca Montaí±a,Mexico,Baja California,Isla Cerralvo,24.12519685,-109.7935102
Fang Ming,Mexico,Baja California,La Paz   Isla Partida,24.44472222,-110.3813889
Los Islotes,Mexico,Baja California,La Paz   Isla Partida,24.59333406,-110.3961182
Sand Falls,Mexico,Baja California,Cabo San Lucas,22.8784932,-109.8989949
Coronados Reef,Mexico,Baja California,Coronados Islands,32.37758333,-117.2073
Middle Coronado Island,Mexico,Baja California,Coronados Islands,32.418,-117.2590833
Puerto Cueva,Mexico,Baja California,Coronados Islands,32.4137,-117.2417333
South Coronado Island,Mexico,Baja California,Coronados Islands,32.38991667,-117.23915
Middle Rock,Mexico,Baja California,Coronados Islands,32.42266667,-117.2619
North Coronado,Mexico,Baja California,Coronados Islands,32.44208333,-117.2966667
North Coronado Island Passage,Mexico,Baja California,Coronados Islands,32.43608333,-117.2947
San Jerinimo Island,Mexico,Baja California,,29.78595,-115.78885
San Martin Island,Mexico,Baja California,,30.48263333,-116.0989333
Rosario,Mexico,Baja California,,29.78083333,-115.7975
Isla De San Francisquito,Mexico,Baja California,,24.81920491,-110.5719638
Outer Pulmo Coral Reef,Mexico,Baja California,Cabo Pulmo,23.42804762,-109.4199657
El Bajo de los Meros,Mexico,Baja California,Cabo Pulmo,23.44592375,-109.4140434
El Vencedor,Mexico,Baja California,Cabo Pulmo,23.44710491,-109.4180775
El Islote,Mexico,Baja California,Cabo Pulmo,23.40670334,-109.4144726
Sea Lion Colony,Mexico,Baja California,Cabo Pulmo,23.38204681,-109.4145584
Las Casitas,Mexico,Baja California,Cabo Pulmo,23.40292245,-109.4137859
North Wall,Mexico,Baja California,Cabo San Lucas,22.87904181,-109.8995769
Neptunes Finger,Mexico,Baja California,Cabo San Lucas,22.8773515,-109.8953497
Anegada Rock,Mexico,Baja California,Cabo San Lucas,22.878854,-109.8986328
The Point,Mexico,Baja California,Cabo San Lucas,22.8760368,-109.8926353
Ixtapa Lagoon,Mexico,Capital Region,Ixtapa   Zihuatanejo,17.65267222,-101.6119222
Torrecillas,Mexico,Capital Region,Ixtapa   Zihuatanejo,17.64524892,-101.6322899
Las Estacas,Mexico,Central Highlands,,18.7312625,-99.11263347
La media Luna,Mexico,Central Highlands,,21.86062249,-100.0279909
Bird Rock Kelp Forest,United States,San Diego,La Jolla,32.80753551,117.2818941
Johnsons Lee,United States,Santa Barbara,Santa Rosa Island,33.90007851,-120.1061732
Sandy Point,United States,Santa Barbara,Santa Rosa Island,34.00359283,-120.2474423
Cuyler Harbor,United States,Santa Barbara,San Miguel Island,34.05194465,-120.3493154
Tyler Bight,United States,Santa Barbara,San Miguel Island,34.03083235,-120.4116196
Folsom Lake,United States,California,,38.74468939,-121.1423833
Jingäó»s Finding 1,United States,California,Orange County,33.57474736,-117.8559775
Little Corona Beach,United States,California,Orange County,33.58950784,-117.8692192
The Needle,United States,California,Monterrey,36.52631667,-121.9489167
Fire Rock,United States,California,Monterrey,36.559119,-121.95017
Cathedral,United States,Santa Barbara,Anacapa Island,34.01412535,-119.4369006
Jenny Lynne,United States,LA County,Redondo   Palos Verdes,33.733,-118.3968
Radio Tower,United States,California,LA County,33.69885073,-118.2920265
Flat Rock,United States,LA County,Redondo   Palos Verdes,33.79705214,-118.4100652
Jade Cove,United States,California,Monterrey,35.91396667,-121.4704417
Landing Craft LCM3,United States,LA County,Redondo   Palos Verdes,33.80936667,-118.4055167
Honeymoon cove,United States,LA County,Redondo   Palos Verdes,33.76548274,-118.4220144
North T-Pier,United States,California,San Luis Obispo,35.3707304,-120.8582072
Littlerock Dam Reservoir,United States,California,LA County,34.48170909,-118.0234194
June Lake,United States,California,,37.79018889,-119.0662028
Mill Creek,United States,California,Monterrey,35.9835192,-121.4924705
Spooners Cove,United States,California,San Luis Obispo,35.27458138,-120.8888769
New Hope Rock,United States,California,San Diego,32.68602778,-117.2663889
Buchon Reef,United States,California,San Luis Obispo,35.24183333,-120.90575
Mission Bay Jetty South,United States,California,,32.75867331,-117.2428805
Mission Bay Jetty North,United States,California,,32.75982819,-117.2470808
Winfield Scott Wreck,United States,California,LA County,34.0095,-119.3875
Redondo Beach Artificial Reef,United States,LA County,Redondo   Palos Verdes,33.83833333,-118.4102778
UB88,United States,California,LA County,33.60353333,-118.23465
Ballbuster,United States,California,Monterrey,36.68346013,-121.9456673
Navarro Beach,United States,California,Sonoma,39.19012322,-123.761673
Stornetta Cove,United States,California,Sonoma,38.93199064,-123.7302589
Arena Cove,United States,California,Sonoma,38.91472815,-123.711108
Horseshoe Cove,United States,California,Sonoma,38.31644076,-123.0703712
Doran Beach,United States,California,Sonoma,38.30676305,-123.0529878
Hawthorne Reef,United States,LA County,Redondo   Palos Verdes,33.7469,-118.4205667
Yellow Banks,United States,Santa Barbara,Santa Cruz Island,34.00339956,-119.5467424
S S  Avalon Wreck,United States,LA County,Redondo   Palos Verdes,33.78855,-118.4280333
Haggerty s Crane,United States,LA County,Redondo   Palos Verdes,33.80501667,-118.4089
Star of Scotland,United States,California,LA County,33.99688872,-118.5204005
Carlsbad Artificial Reef  1,United States,California,San Diego,33.08333333,-117.3191667
La jolla Kelp Beds,United States,San Diego,La Jolla,32.85298501,-117.276907
Children s Pool,United States,San Diego,La Jolla,32.84750499,-117.2774434
Hidden Beach,United States,California,Monterrey,36.61203341,-121.8974036
Eric s Pinnacle,United States,California,Monterrey,36.64555556,-121.9447222
Net Reef,United States,Santa Barbara,Anacapa Island,34.01769142,-119.433639
Breakwater,United States,California,Monterrey,36.60996436,-121.8931818
Rubicon Point,United States,California,El Dorado County,38.9961278,-120.0936019
Emerald bay,United States,California,El Dorado County,38.95367716,-120.090732
Palawan,United States,LA County,Redondo   Palos Verdes,33.81968333,-118.4162833
Abalone Cove,United States,LA County,Redondo   Palos Verdes,33.74163333,-118.3793167
Bird Rock,United States,California,Orange County,33.54143333,-117.7889667
Laguna Beach,United States,California,Orange County,33.54213333,-117.7859667
Monument Point,United States,California,Orange County,33.54265,-117.792
Rock Pile,United States,California,Orange County,33.54298333,-117.791
Picnic Beach,United States,California,Orange County,33.54353333,-117.7929667
Hurst Shoal,United States,California,San Francisco,37.68993333,-122.9951
Southeast Farallon,United States,California,San Francisco,37.698,-122.9988833
Middle Farallon,United States,California,San Francisco,37.7292,-123.0322667
Maintop Island,United States,California,San Francisco,37.70051667,-123.0080333
Isle of Saint James,United States,California,San Francisco,37.76605,-123.0983833
Noonday Rock,United States,California,San Francisco,37.79326667,-123.1655667
Fanny Shoal,United States,California,San Francisco,37.79218333,-123.1811167
Cordell Bank,United States,California,San Francisco,38.03125,-123.41765
Point Loma,United States,California,San Diego,32.66708333,-117.2479667
Jewfish Point,United States,LA County,Catalina Island,33.32033333,-118.3032667
The Palisades,United States,LA County,Catalina Island,33.31865,-118.37385
Paradise Cove,United States,LA County,Catalina Island,33.42801667,-118.42535
Fourth of July Cove,United States,LA County,Catalina Island,33.44775,-118.4997167
Little Geiger Cove,United States,LA County,Catalina Island,33.4574,-118.5155167
Cypress Point,United States,California,Monterrey,36.57805,-121.9772
Castle Lake,United States,California,Siskiyou County,41.22981667,-122.3813833
Eagle Reef,United States,LA County,Catalina Island,33.46058333,-118.50755
East  End,United States,LA County,San Nicolas Island,33.22203333,-119.4316
San Clemente North,United States,LA County,San Clemente Island,33.03735,-118.5999833
Forney Cove,United States,Santa Barbara,Santa Cruz Island,34.05675,-119.9172667
Bowen Point,United States,Santa Barbara,Santa Cruz Island,33.95955,-119.72375
Gull Island,United States,Santa Barbara,Santa Cruz Island,33.94933333,-119.8231667
Punta Arena,United States,Santa Barbara,Santa Cruz Island,33.96275,-119.82355
Morse Point,United States,Santa Barbara,Santa Cruz Island,33.96791667,-119.8437667
Kinton Point,United States,LA County,San Nicolas Island,34.01111667,-119.8857833
Black Point,United States,Santa Barbara,Santa Cruz Island,34.03723333,-119.8857333
Castle Rock,United States,LA County,San Clemente Island,33.03413333,-118.6129167
Eel Point Reef,United States,LA County,San Clemente Island,32.91986667,-118.55505
Eel Point,United States,LA County,San Clemente Island,32.91718333,-118.54345
Seal Cove,United States,LA County,San Clemente Island,32.90671667,-118.5343
Cove Point,United States,LA County,San Clemente Island,32.8161,-118.43625
Bishop Rock,United States,LA County,San Clemente Island,32.44581667,-119.1297167
Dockweiler Beach State Park,United States,California,LA County,33.92603333,-118.4351667
Cleo Street Barge,United States,California,Orange County,33.53661667,-117.7845955
San Juan Rocks,United States,California,Orange County,33.45918333,-117.7166833
Oil Rigs Elly-Ellen,United States,California,LA County,33.58353333,-118.1294167
Oil Rig Eureka,United States,California,LA County,33.56405,-118.1158167
Oil Rig Edith,United States,California,LA County,33.59603333,-118.1416333
Doctors Cove,United States,LA County,Catalina Island,33.471,-118.5313
Ford Point,United States,Santa Barbara,Santa Rosa Island,33.91616667,-120.04475
Bee Rock,United States,Santa Barbara,Santa Rosa Island,33.94835,-120.21305
South Point,United States,Santa Barbara,Santa Rosa Island,33.89581667,-120.10715
Pinnacles,United States,Santa Barbara,Santa Rosa Island,33.9216,-119.9755
Valiant Wreck,United States,LA County,Catalina Island,33.351,-118.3253333
East Point,United States,Santa Barbara,Santa Rosa Island,33.94046667,-119.9729
Cape Cortes,United States,LA County,Catalina Island,33.42971667,-118.5348667
Ribbon Rock,United States,LA County,Catalina Island,33.43848333,-118.5705
Stony Point,United States,LA County,Catalina Island,33.47476667,-118.55415
Crane Point,United States,LA County,Catalina Island,33.4425,-118.4685167
Moonstone Cove,United States,LA County,Catalina Island,33.38913333,-118.3651167
Pirate s Cove,United States,LA County,Catalina Island,33.40461667,-118.3676667
Wilson Cove,United States,LA County,San Clemente Island,33.00695,-118.5559333
Talcott Shoal,United States,Santa Barbara,Santa Rosa Island,34.02645,-120.2346667
Frog Rock,United States,LA County,Catalina Island,33.35986667,-118.3324833
Gallagher Beach,United States,LA County,Catalina Island,33.37166667,-118.34845
Iron Bound Cove,United States,LA County,Catalina Island,33.4465,-118.5744333
Wyckoff Ledge,United States,Santa Barbara,San Miguel Island,34.02125,-120.3894167
Lions Head,United States,LA County,Catalina Island,33.45366667,-118.50155
Eel Cove,United States,LA County,Catalina Island,33.45636667,-118.5115
Big Geiger Cove,United States,LA County,Catalina Island,33.45968333,-118.5172333
Arrow Point,United States,LA County,Catalina Island,33.47651667,-118.5368333
Johnsons Rock,United States,LA County,Catalina Island,33.47688333,-118.5892333
Black Point,United States,LA County,Catalina Island,33.47573333,-118.5803333
Eagle Rock,United States,LA County,Catalina Island,33.47176667,-118.6048167
Shag Rock,United States,LA County,Santa Barbara Island,33.48663333,-119.0353667
Fishermans Cove,United States,LA County,Catalina Island,33.44495,-118.4851833
Tajiguas,United States,California,Santa Barbara,34.46355068,-120.1005435
Rat Rock,United States,Santa Barbara,Anacapa Island,34.01282694,-119.4453657
Landing cove,United States,Santa Barbara,Anacapa Island,34.01702446,-119.3620133
Biltmore,United States,California,Santa Barbara,34.41623891,-119.6422935
Monastery Beach,United States,California,Monterrey,36.52401861,-121.9271708
Lover s Point,United States,California,Monterrey,36.62636883,-121.9165385
Salt Point State Park,United States,California,Sonoma,38.56695429,-123.3300358
Ocean Cove,United States,California,Sonoma,38.5552973,-123.3043671
Stillwater Cove,United States,California,Sonoma,38.54690259,-123.2977527
Fort Ross,United States,California,Sonoma,38.50903661,-123.2363892
Osborn Bank,United States,LA County,Santa Barbara Island,33.3599,-119.0420833
Bull City,United States,LA County,San Nicolas Island,33.27206667,-119.60505
Nine Fathom Bank,United States,LA County,San Clemente Island,32.47885,-119.2157667
Tanner Bank,United States,LA County,San Clemente Island,32.70081667,-119.1348167
Willow Cove,United States,LA County,Catalina Island,33.37786667,-118.3554833
Arch Reef,United States,LA County,Santa Barbara Island,33.48921667,-119.0626333
The Rookery,United States,LA County,Santa Barbara Island,33.47098333,-119.0300667
Cat Canyon,United States,LA County,Santa Barbara Island,33.465,-119.0352833
Ben Weston Point,United States,LA County,Catalina Island,33.3568,-118.4888
Sentinel Point,United States,LA County,Catalina Island,33.37318333,-118.4855333
Binnacle Rock,United States,LA County,Catalina Island,33.30033333,-118.3336667
Seal Rocks,United States,LA County,Catalina Island,33.30733333,-118.3058333
Rock Quarry,United States,LA County,Catalina Island,33.44095,-118.4625
Sea Fan Grottos,United States,LA County,Catalina Island,33.44241667,-118.4720167
Begg Rock,United States,LA County,San Nicolas Island,33.36251667,-119.6978833
Wilson Rock,United States,Santa Barbara,San Miguel Island,34.10563333,-120.3966167
Castle Rock,United States,Santa Barbara,San Miguel Island,34.05571667,-120.4359
Point Bennett,United States,Santa Barbara,San Miguel Island,34.03141667,-120.4505333
Yellowtail Point,United States,LA County,Catalina Island,33.43313333,-118.4483333
Seal Point,United States,LA County,Catalina Island,33.42745,-118.4201167
Rippers Cove,United States,LA County,Catalina Island,33.42693333,-118.4344333
Kelp Point,United States,LA County,Catalina Island,33.43375,-118.5388333
Twin Rocks,United States,LA County,Catalina Island,33.41816667,-118.3903333
Little Gibraltar,United States,LA County,Catalina Island,33.42208333,-118.4053333
Goat Harbor,United States,LA County,Catalina Island,33.41736667,-118.3956167
Fish Hook,United States,LA County,San Clemente Island,32.82971667,-118.3587667
Coal oil point,United States,California,Santa Barbara,34.40726815,-119.8782796
Little River,United States,California,Mendocino,39.27412523,-123.7910485
White Cove,United States,LA County,Catalina Island,33.39238333,-118.3685167
Church Rock,United States,LA County,Catalina Island,33.29733333,-118.3259
China Point,United States,LA County,Catalina Island,33.32878333,-118.4703333
Pelican Bay,United States,Santa Barbara,Santa Cruz Island,34.0335,-119.7026167
Christmas Tree Cove,United States,LA County,Redondo   Palos Verdes,33.76277962,-118.4188414
Cabrillo Beach,United States,LA County,Redondo   Palos Verdes,33.70882498,-118.2837921
McAbee,United States,California,Monterrey,36.6156568,-121.8988413
Underwater Arch,United States,LA County,Redondo   Palos Verdes,33.7511948,-118.4177899
Archery Range,United States,LA County,Redondo   Palos Verdes,33.73769245,-118.3681878
Pt  Vicente Pinnacles,United States,LA County,Redondo   Palos Verdes,33.74063219,-118.4122431
Horse Pastures,United States,California,Orange County,33.48333333,-117.7275
Long Beach Breakwater,United States,California,LA County,33.72323762,-118.1868571
Cherry Cove,United States,LA County,Catalina Island,33.45166667,-118.501
Lobster Bay,United States,LA County,Catalina Island,33.42958333,-118.5277667
Painted cave,United States,Santa Barbara,Santa Cruz Island,34.07203333,-119.86
San Nicholas Island,United States,LA County,San Nicolas Island,33.28333333,-119.5033333
Sutil Island,United States,LA County,Santa Barbara Island,33.46166667,-119.0441667
Point Lobos,United States,California,Monterrey,36.52041463,-121.9406435
Harbor Reefs,United States,LA County,Catalina Island,33.4483,-118.49205
Skunk Bay,United States,Santa Barbara,Santa Rosa Island,33.96166667,-119.9647222
Prince Island,United States,Santa Barbara,San Miguel Island,34.0585438,-120.3338099
Bechers Cove,United States,Santa Barbara,Santa Rosa Island,34.00362778,-120.0317583
Ship Rock,United States,LA County,Catalina Island,33.46305556,-118.4911111
Pyramid Cove,United States,LA County,San Clemente Island,32.81666667,-118.3916667
Cortez Bank,United States,LA County,San Clemente Island,32.43166667,-119.0883333
USS John C  Butler,United States,LA County,San Clemente Island,33.03606667,-118.5827
Farnsworth Bank,United States,LA County,Catalina Island,33.34355,-118.5198333
Coral Gardens,United States,LA County,San Clemente Island,33.04348333,-118.6268
La Jolla Shores,United States,San Diego,La Jolla,32.85566181,-117.2582012
Bourgeoisie Cove,United States,California,Orange County,33.5837978,-117.8644127
Aliso,United States,California,Orange County,33.51190673,-117.7564967
Point Dume,United States,California,LA County,33.98834915,-118.805809
NOSC Tower Wreck,United States,California,San Diego,32.77192778,-117.2686806
Arch Rock Cove,United States,Santa Barbara,Anacapa Island,34.01703335,-119.3561018
Coral Reef,United States,Santa Barbara,Anacapa Island,34.00873594,-119.4390678
Breakwater,United States,California,Monterrey,36.60947346,-121.893729
Mesa,United States,California,Santa Barbara,34.396641,-119.731166
Suejac Wreck,United States,LA County,Catalina Island,33.34867866,-118.3231992
USS Peacock Wreck,United States,Santa Barbara,Santa Cruz Island,34.04887258,-119.5482445
Scorpion Anchorage,United States,Santa Barbara,Santa Cruz Island,34.06076588,-119.5746803
Nicholas Canyon,United States,California,LA County,34.04308533,-118.9153934
White Point,United States,LA County,Redondo   Palos Verdes,33.70793694,-118.3189559
Veteran s Park,United States,LA County,Redondo   Palos Verdes,33.83623703,-118.3918476
Crescent Cove,United States,California,Orange County,33.545669,-117.8037143
Dead Man s Reef,United States,California,Orange County,33.54134101,-117.8063428
Woods Cove,United States,California,Orange County,33.526725,-117.7704033
Fisherman s Cove,United States,California,Orange County,33.54528897,-117.7958125
Diver s Cove,United States,California,Orange County,33.54463174,-117.7945626
Shaws Cove,United States,California,Orange County,33.54431877,-117.7995676
Malaga cove,United States,California,LA County,33.80401167,-118.3942933
Casino Point,United States,LA County,Catalina Island,33.34927017,-118.3248782
Butterfly House,United States,California,Monterrey,36.54160934,-121.9331306
Coral Street Beach,United States,California,Monterrey,36.63593864,-121.9275141
Marineland,United States,LA County,Redondo   Palos Verdes,33.73600617,-118.3979014
Refugio,United States,California,Santa Barbara,34.462382,-120.07264
Pebbly Beach,United States,LA County,Catalina Island,33.47491667,-118.5337833
Garibaldi Reef,United States,LA County,Catalina Island,33.32601667,-118.3053167
Little Farnsworth,United States,LA County,Catalina Island,33.33378333,-118.3076333
East End Eagle Reef,United States,LA County,Catalina Island,33.46043333,-118.50735
Long Point,United States,LA County,Catalina Island,33.40558333,-118.3666
Bird Rock Wall,United States,LA County,Catalina Island,33.4524,-118.4887333
Italian Gardens,United States,LA County,Catalina Island,33.41068333,-118.3735
Torqua Springs,United States,LA County,Catalina Island,33.3838,-118.3592
Hen Rock,United States,LA County,Catalina Island,33.39912588,-118.3667582
Ruby E  Wreck,United States,California,San Diego,32.76722222,-117.2766667
Yukon Wreck,United States,California,San Diego,32.78016667,-117.285
La Jolla Cove,United States,San Diego,La Jolla,32.85061458,-117.2725189
The Cave,United States,San Diego,La Jolla,32.85026307,-117.2701478
Blue Cavern,United States,LA County,Catalina Island,33.44755651,-118.4770775
Emerald Bay,United States,LA County,Catalina Island,33.468036,-118.526044
Pirates Hide Out,United States,Keys,Marquesas Keys,24.59176132,-82.14965386
Ana Cecilia Wreck,United States,Florida,Palm Beach,26.7853,-80.016
Drifting Spot,United States,Florida,Palm Beach,26.75465,-80.01168333
Castor Wreck,United States,Florida,,26.47883333,-80.03713333
Jose Cuervo Bar,United States,Florida,Miami,25.7689,-80.12823333
Mathew Lawrence,United States,Florida,Miami,25.811,-80.07338333
RJ s Ledge,United States,Florida,Miami,25.72363333,-80.09925
Rainbow Reef,United States,Florida,Miami,25.69325,-80.0972
Emerald Reef,United States,Florida,Miami,25.67476667,-80.09775
African Queen,United States,Florida,Miami,25.78006667,-80.07553333
Alicia,United States,Florida,Miami,25.41223333,-80.12736667
Andro,United States,Florida,Miami,25.89405,-80.08555
Arratoon Apcar,United States,Florida,Miami,25.58993256,-80.09604439
Belzona Barge,United States,Florida,Miami,25.69583333,-80.087
Concepcion,United States,Florida,Miami,25.90936667,-80.08995
C-One,United States,Florida,Miami,25.90916667,-80.09006667
Customs Reef,United States,Florida,Miami,25.6995,-80.08316667
Deep Freeze,United States,Florida,Miami,25.82171667,-80.08251667
Erl King,United States,Florida,Miami,25.42421881,-80.12420037
Golden Beach Boulder Reef,United States,Florida,Miami,25.96266,-80.0978251
Lady Carmen,United States,Florida,Miami,25.90888333,-80.09061667
Lugano,United States,Florida,Miami,25.44363497,-80.11918772
Mandalay,United States,Florida,Miami,25.4415563,-80.12126434
Miss Karline,United States,Florida,Miami,25.81285,-80.089083
Ball Buoys Reef,United States,Florida,Miami,25.31556,-80.18761667
Patricia Wreck,United States,Florida,Miami,25.81326667,-80.0894
Proteus Wreck,United States,Florida,Miami,25.70551667,-80.08733333
Rio Miami,United States,Florida,Miami,25.70276667,-80.0872
Shamrock,United States,Florida,Miami,25.77343333,-80.07338333
Sheri-Lynn,United States,Florida,Miami,25.66816667,-80.07038333
Steane D Auray,United States,Florida,Miami,25.6177,-80.09051667
Jolly Jacks,United States,Florida,Palm Beach,26.8369956,-80.01782429
Shark Canyon,United States,Florida,Palm Beach,26.869483,-80.01999
Pink House,United States,Florida,Palm Beach,26.6848167,-80.03079998
Tumble Rock,United States,Florida,,26.50311667,-80.03536667
Boynton Comb Reef,United States,Florida,,26.48546667,-80.03901667
Cable Crossing,United States,Florida,Palm Beach,26.709688,-80.028864
Ballantine Reef,United States,Florida,Palm Beach,26.717348,-80.029519
Briney Breezes,United States,Florida,,26.50933616,-80.03471375
Pauls Reef,United States,Florida,Palm Beach,26.65271,-80.0208
Rons Rock,United States,Florida,Palm Beach,26.69378,-80.01781
Navarre Beach Reef,United States,Florida,Pensacola,30.37937565,-86.85381442
Half Moon Wreck,United States,Florida,Miami,25.72760278,-80.13463611
The Breckenshire,United States,Florida,Palm Bay,27.65369189,-80.34649372
Samantha s,United States,Keys,Middle Keys,24.64701716,-81.03172302
Paradiso Wreck,United States,Florida,Miami,25.72413746,-80.12741089
Horseshoe reef,United States,Keys,Middle Keys,24.66111111,-80.99416667
North North Dry Rocks,United States,Keys,Upper Keys,25.13777778,-80.28888889
Bridge Span  1,United States,Florida,Panama City,29.9817,-85.85213333
Weeki Wachee,United States,Florida,Central Florida Springs - Ocala,28.51732767,-82.57337093
Hudson Grotto,United States,Florida,Central Florida Springs - Ocala,28.34529335,-82.70134449
Mac s Reef,United States,Florida,Panama City,29.9821,-85.83911667
Eagle s Nest,United States,Florida,Northwest Florida Springs,28.55491466,-82.60916501
El Capitana,United States,Florida,Palm Bay,27.85685949,-80.44444799
Hospital Hole,United States,Florida,Northwest Florida Springs,28.53041173,-82.62320638
Little River,United States,Florida,Northwest Florida Springs,29.99677364,-82.966391
Green Roofs,United States,Florida,Palm Beach,26.89897504,-80.0547123
Aligator bayou,United States,Florida,Panama City,30.17125008,-85.75736761
Sombrero Beach,United States,Keys,Middle Keys,24.69111111,-81.08444444
Stage I,United States,Florida,Panama City,30.01833333,-85.90194444
Alligator Deep,United States,Keys,Upper Keys,24.83285667,-80.62677383
Sheridan,United States,Florida,St Petersburg,28.02277778,-83.22222222
Marker 32 Reef,United States,Keys,Lower Keys,24.47331389,-81.74425278
9 Foot Stake,United States,Keys,Lower Keys,24.47156667,-81.76425
Western Sambos,United States,Keys,Lower Keys,24.47972784,-81.71467781
Cannonball Cut,United States,Keys,Lower Keys,24.48308675,-81.69965744
Narwall,United States,Florida,Miami,25.81472706,-80.07659912
Bridge Span  14,United States,Florida,Panama City,30.07527778,-85.82361111
Black Bart,United States,Florida,Panama City,30.0608,-85.823883
Ophelia Brian,United States,Florida,Miami,25.70576667,-80.0858
Alligator Reef,United States,Keys,Upper Keys,24.85098529,-80.61928511
Catfish Hotel Sink,United States,Florida,Central Florida Springs - Ocala,29.48862491,-82.97593832
Manatee Springs,United States,Florida,Central Florida Springs - Ocala,29.48962417,-82.97684491
Barracuda Reef,United States,Florida,Fort Lauderdale,26.08316667,-80.09533333
Forty Fathom Grotto,United States,Florida,Central Florida Springs - Ocala,29.28918272,-82.30874419
Good patches,United States,Keys,Upper Keys,24.8935,-80.58066667
Cannon Patch,United States,Keys,Upper Keys,25.10833333,-80.34166667
Worth Avenue Pier Debris,United States,Florida,Palm Beach,26.70068333,-80.0305
200  Wooden Shipreck,United States,Keys,Upper Keys,25.20944444,-80.24666667
Ponce De Leon Springs,United States,Florida,Northwest Florida Springs,30.72105809,-85.93074024
Troy Springs,United States,Florida,Central Florida Springs - Ocala,30.00584314,-82.9975462
Fort Pickens Jettys,United States,Florida,Pensacola,30.33137717,-87.29546696
Site D Coral Reef,United States,Keys,Upper Keys,24.87896163,-80.5696106
Captain Grumphy,United States,Keys,Upper Keys,24.88519071,-80.522
Tug Boat Janet,United States,Florida,Destin,30.2625,-86.39583333
Key Largo Undersee Park,United States,Keys,Upper Keys,25.13330172,-80.39911866
Dania Erojacks Reef,United States,Florida,Fort Lauderdale,26.0623,-80.10725
Spanish Rocks,United States,Florida,St Petersburg,27.49035631,-82.71339297
USS Vandenburg,United States,Keys,Lower Keys,24.45045556,-81.73319167
Boca Grande Wreck,United States,Florida,Naples,26.2146,-82.3466
Palm Island Ferry,United States,Florida,St Petersburg,26.82035,-82.53131667
Angel s Reef,United States,Florida,Fort Lauderdale,26.313,-80.06631667
Tug Heron,United States,Florida,Pensacola,30.13646667,-87.22775
Chevron Rig,United States,Florida,Pensacola,30.07073333,-87.0353
Kingry Barge,United States,Florida,Pensacola,30.15961667,-87.2317
Tug Deliverance,United States,Florida,Pensacola,30.18178333,-87.24363333
Tug Sylvia,United States,Florida,Pensacola,30.185,-87.23666667
Anteres,United States,Florida,Pensacola,30.0105,-87.12915
Admiral Fetterman Reef,United States,Florida,Pensacola,30.0781,-87.18575
Oops Barge,United States,Florida,Pensacola,30.21888333,-87.23021667
PC Barge,United States,Florida,Pensacola,30.18673333,-87.2344
Soule Barge,United States,Florida,Pensacola,30.18141667,-87.2428
Catherine,United States,Florida,Pensacola,30.31133333,-87.26533333
The Elbow,United States,Keys,Middle Keys,24.71560899,-80.94932556
Playpen,United States,Florida,Palm Beach,26.74713333,-80.00725
Eidsvag and Owens,United States,Florida,Palm Beach,26.767,-80.00833333
Liberty Ship,United States,Florida,Pensacola,30.27148333,-87.16028333
Three Coal Barges,United States,Florida,Pensacola,30.2915,-87.2215
Avocet,United States,Florida,Pensacola,29.97333333,-87.21048333
Tex Edwards,United States,Florida,Pensacola,30.26896667,-87.16928333
San Pablo,United States,Florida,Pensacola,30.18883333,-87.21815
Venice Beach,United States,Florida,St Petersburg,27.09944779,-82.46202707
Commercial Pier Reef,United States,Florida,Fort Lauderdale,26.18847457,-80.09305179
United Caribbean,United States,Florida,Fort Lauderdale,26.322248,-80.061501
The Bib Wreck,United States,Keys,Upper Keys,24.99516389,-80.3795
Park Headquarters reef,United States,Keys,Dry Tortugas,24.62991667,-82.87891667
Noula Express,United States,Florida,Fort Lauderdale,26.3213,-80.05746667
Blue Heron Bridge,United States,Florida,Palm Beach,26.7832383,-80.04217029
Hens   Chicken Reef,United States,Keys,Upper Keys,24.93583333,-80.54733333
Deerfield Beach North Rocks,United States,Florida,Fort Lauderdale,26.3233737,-80.07205009
Neptune Memorial Reef,United States,Florida,Miami,25.6902,-80.09075
St  Andrews State Park,United States,Florida,Panama City,30.12217117,-85.73442936
Cayman Salvager,United States,Keys,Lower Keys,24.4535,-81.76633333
YDT- 15 wreck,United States,Florida,Pensacola,30.08761667,-87.15948333
Pete Tide II,United States,Florida,Pensacola,30.14588333,-87.23328333
Esso Bonnaire,United States,Florida,Palm Beach,26.96416667,-80.008
MG-111 barge,United States,Florida,Palm Beach,26.97783,-80.02483
Mohawk Chief,United States,Florida,Destin,30.14678333,-86.71791667
East Jetty,United States,Florida,Destin,30.3812333,-86.50733471
Navy Barge,United States,Florida,Pensacola,30.18565,-87.24525
Lighthouse Ledge,United States,Florida,Fort Lauderdale,26.27361111,-80.06583333
Sea Emperor,United States,Florida,Fort Lauderdale,26.32433333,-80.06148333
Molasses Reef,United States,Keys,Upper Keys,25.00964167,-80.374525
City Service Tanker,United States,Florida,Port Canaveral,28.39583333,-79.96027778
Rainbow River,United States,Florida,Central Florida Springs - Ocala,29.10237683,-82.43759751
King s Park Lake,United States,Florida,Central Florida Springs - Ocala,28.44872768,-80.69443792
The Living Seas,United States,Florida,Central Florida Springs - Ocala,28.37014303,-81.54941082
Juno Ledge,United States,Florida,Palm Beach,26.8761434,-80.04020691
Santa Lucia,United States,Florida,Naples,26.0898,-81.84381667
D Tower,United States,Florida,Naples,25.56628333,-81.71808333
R  Tower,United States,Florida,Naples,25.79983333,-82.2145
Black Hole,United States,Florida,Naples,25.96527778,-82.21138889
Biscayne wreck,United States,Florida,Miami,25.70438333,-80.08836667
Guy Harvey,United States,Florida,Fort Lauderdale,26.21091667,-80.06576667
RSB-1,United States,Florida,Fort Lauderdale,26.22736667,-80.06493333
Tacoma,United States,Florida,Miami,25.70016667,-80.08445
Tracy,United States,Florida,Fort Lauderdale,26.15931667,-80.07938333
Hydro Atlantic,United States,Florida,Fort Lauderdale,26.325,-80.05071667
Vortex Springs,United States,Florida,Northwest Florida Springs,30.770721,-85.948389
Cypress Spring,United States,Florida,Northwest Florida Springs,30.658146,-85.684437
Morrison Springs,United States,Florida,Northwest Florida Springs,30.657528,-85.9046
Jackson Blue Spring,United States,Florida,Northwest Florida Springs,30.79013,-85.14015
Sally Ward Spring,United States,Florida,Northwest Florida Springs,30.240935,-84.310562
Cherokee Sink,United States,Florida,Northwest Florida Springs,30.21287,-84.304449
Harvey s Cave,United States,Florida,Northwest Florida Springs,30.13493,-84.347185
Shangri-La Springs,United States,Florida,Northwest Florida Springs,30.79016587,-85.14288505
Hall Of Fame Moorings,United States,Florida,Fort Lauderdale,26.1905,-80.08516667
Hog Heaven,United States,Florida,Fort Lauderdale,26.1517,-80.07976667
Jim Atria Wreck,United States,Florida,Fort Lauderdale,26.1645,-80.07041667
Copenhagen Wreck,United States,Florida,Fort Lauderdale,26.20581667,-80.08513333
Capt Dan Wreck,United States,Florida,Fort Lauderdale,26.21875,-80.06625
Marriott Reef,United States,Florida,Fort Lauderdale,26.09131667,-80.06576667
Bill Boyd,United States,Florida,Fort Lauderdale,26.1588,-80.07933333
Rodeo 25,United States,Florida,Fort Lauderdale,26.2313,-80.06355
Ancient Mariner,United States,Florida,Fort Lauderdale,26.30195,-80.06241667
Mike s Wreck,United States,Keys,Upper Keys,25.14455,-80.25655
Train Wheel Wreck,United States,Keys,Upper Keys,25.14524576,-80.25674164
Blue Grotto,United States,Florida,Central Florida Springs - Ocala,29.38758611,-82.48606111
Paradise Springs,United States,Florida,Central Florida Springs - Ocala,29.099661,-82.08027
Crystal River - Hunter Spring,United States,Florida,Central Florida Springs - Ocala,28.89442269,-82.59247899
Crystal River - King s Spring,United States,Florida,Central Florida Springs - Ocala,28.88180683,-82.59493589
Crystal River - Three Sisters Springs,United States,Florida,Central Florida Springs - Ocala,28.88830283,-82.58895457
Devils Den,United States,Florida,Central Florida Springs - Ocala,29.40943333,-82.47513056
YDT-14 Wreck,United States,Florida,Pensacola,30.08833333,-87.16
Ginnie Springs,United States,Florida,Central Florida Springs - Ocala,29.830146,-82.683105
DEMA Trader,United States,Florida,Miami,25.70355,-80.08706667
U-2513,United States,Keys,Dry Tortugas,24.86691667,-83.3099
Rhein,United States,Keys,Dry Tortugas,25.93526667,-83.51001667
Araby Maid wreck,United States,Keys,Dry Tortugas,24.73051667,-83.48258333
Tug Born Again,United States,Florida,Pensacola,30.13438333,-87.23821667
Joseph E  Brown,United States,Florida,Pensacola,30.21275,-86.82228333
Tenneco Oil Rig,United States,Florida,Pensacola,29.99535,-87.08568333
Timber holes,United States,Florida,Pensacola,30.18471667,-86.85963333
A-7 Corsair II wreck,United States,Florida,Pensacola,29.98325,-87.1964
Brass Wreck,United States,Florida,Pensacola,30.21421667,-87.0536
USS Massachusetts,United States,Florida,Pensacola,30.29566667,-87.31203333
U S S  Oriskany,United States,Florida,Pensacola,30.034993,-87.001067
Mercedes I,United States,Florida,Fort Lauderdale,26.15626667,-80.07523333
Tenneco Towers,United States,Florida,Fort Lauderdale,25.98253333,-80.085
Ultra Freeze,United States,Florida,Miami,25.62903333,-80.08711667
BlueFire Wreck,United States,Florida,Miami,25.56626667,-80.09063333
Colson s Barge,United States,Florida,Palm Beach,26.78241667,-80.01065
Black Rock,United States,Florida,Palm Beach,26.81376667,-80.00261667
Princess Anne,United States,Florida,Palm Beach,26.7935,-80.00366667
South Doubles,United States,Florida,Palm Beach,26.74066667,-80.014
The Trench,United States,Florida,Palm Beach,26.70516667,-80.017
Flower Gardens,United States,Florida,Palm Beach,26.69733333,-80.0175
Rolls Royce,United States,Florida,Palm Beach,26.76701667,-80.00836667
King Neptune,United States,Florida,Palm Beach,26.71533333,-80.018
Breakers 3rd Window,United States,Florida,Palm Beach,26.712333,-80.016383
Amarillys,United States,Florida,Palm Beach,26.78783333,-80.01583333
Mizpah,United States,Florida,Palm Beach,26.78616667,-80.01633333
Devil s Hole,United States,Florida,Central Florida Springs - Ocala,29.62658849,-81.95218474
Apopka Spring,United States,Florida,Central Florida Springs - Ocala,28.56666667,-81.67888889
DeLeon Sprongs,United States,Florida,Central Florida Springs - Ocala,29.13460278,-81.36364167
Alexander Springs,United States,Florida,Central Florida Springs - Ocala,29.08130556,-81.57588889
Blue Springs,United States,Florida,Central Florida Springs - Ocala,28.94709589,-81.33929729
Almirante,United States,Florida,Miami,25.41633333,-80.1175
Orion wreck,United States,Florida,Miami,25.691,-80.08633333
Cruz del Sur,United States,Florida,Miami,25.96935,-80.07698333
Doc de Milly,United States,Florida,Miami,25.3678,-80.13101667
The Tortuga wreck,United States,Florida,Miami,25.82088333,-80.08476667
Army Tanks,United States,Florida,Miami,25.81133333,-80.09133333
The Spirit of Miami,United States,Florida,Miami,25.698,-80.087
Adolphus Busch Wreck,United States,Keys,Middle Keys,24.53068333,-81.46146667
Sombrero Reef,United States,Keys,Middle Keys,24.62561106,-81.10988259
Looe Key Reef   HMS Looe,United States,Keys,Middle Keys,24.545,-81.40833333
Coffins Patch,United States,Keys,Middle Keys,24.67916667,-80.97216667
Delta Shoal   The Barge,United States,Keys,Middle Keys,24.62966667,-81.0915
Thunderbolt Wreck,United States,Keys,Middle Keys,24.66128333,-80.9637
The Benwood Wreck,United States,Keys,Upper Keys,25.05266667,-80.33366667
Conch Reef,United States,Keys,Upper Keys,24.95183333,-80.46258333
The City of Washington Wreck,United States,Keys,Upper Keys,25.14643333,-80.2559
The Bibb Wreck,United States,Keys,Upper Keys,24.99516667,-80.3795
French Reef,United States,Keys,Upper Keys,25.0343,-80.34833333
The Duane Wreck,United States,Keys,Upper Keys,24.9897,-80.38208333
Crocker Reef,United States,Keys,Upper Keys,24.9025,-80.53083333
Davis Reef,United States,Keys,Upper Keys,24.922,-80.50591667
The Eagle Wreck,United States,Keys,Upper Keys,24.86975,-80.57031667
Christ of the Abyss,United States,Keys,Upper Keys,25.12416667,-80.29666667
Spiegel Grove,United States,Keys,Upper Keys,25.01054983,-80.37278333
Western dry rocks,United States,Keys,Lower Keys,24.44466667,-81.9265
Eastern dry rocks,United States,Keys,Lower Keys,24.45933333,-81.84616667
Rock key,United States,Keys,Lower Keys,24.4535,-81.86
Sand key,United States,Keys,Lower Keys,24.45166667,-81.87633333
Joe s tug,United States,Keys,Lower Keys,24.46383333,-81.73733333
Manta Heaven,United States,Hawaii,Big Island,19.73579767,-156.0554383
Big Arch,United States,Hawaii,Big Island,19.6838,-156.037
Molokini Crater  Outside,United States,Maui,Molokini Island,20.63048457,-156.4980127
Nai a,United States,Hawaii,Big Island,21.331763,-158.1231268
Paradise Pinnacle,United States,Hawaii,Big Island,19,-155
Hammerhead Point,United States,Hawaii,Big Island,19,-155
Honaunau Bay,United States,Hawaii,Big Island,19.42348845,-155.9147942
Alakaha Bay,United States,Hawaii,Big Island,19.41573771,-155.9109318
Paaoao Bay,United States,Hawaii,Big Island,19.53527647,-155.958246
Spitting Cave,United States,Hawaii,Oahu,21.25898206,-157.7057898
Monolith,United States,Maui,Lanai Island,20.7275386,-156.9472504
Keahole,United States,Hawaii,Big Island,19.73649147,-156.0554695
Honu Reef,United States,Hawaii,Maui,20.91639325,-156.6971666
Kapalua Bay,United States,Hawaii,Maui,21.00031758,-156.6679144
Olowalu,United States,Hawaii,Maui,20.80737663,-156.6052365
Mala Wharf,United States,Hawaii,Maui,20.88555791,-156.6875777
South shore,United States,Hawaii,Niihau,21.77723524,-160.202508
Seaplane Wreck,United States,Hawaii,Oahu,21.48014683,-158.2326937
Lava Dome,United States,Hawaii,Big Island,20.12106283,-155.9049218
Horseshoe Reef,United States,Hawaii,Big Island,20.09817283,-155.8815768
Garden Eel Cove,United States,Hawaii,Big Island,19.646346,-156.0176178
Pipe Dreams,United States,Hawaii,Big Island,19.726191,-156.061295
Sixth Hole,United States,Hawaii,Big Island,19.92316389,-155.8918139
Pentagon,United States,Hawaii,Big Island,19.92216667,-155.8922722
Landing Craft and Tank,United States,Hawaii,Maui,20.65366741,-156.4506447
Kahekili Beach Park,United States,Hawaii,Maui,20.93466667,-156.6945
Napili Bay,United States,Hawaii,Maui,20.99549971,-156.6672492
Honolua Bay,United States,Hawaii,Maui,21.01435464,-156.6392416
Ahihi Bay,United States,Hawaii,Maui,20.62005215,-156.4433384
Moku Hooniki,United States,Hawaii,Maui,21.13237283,-156.7048538
Molokini Crater,United States,Maui,Molokini Island,20.5,-156.4833333
Rabbit Island,United States,Hawaii,Oahu,21.32197992,-157.6588082
St  Anthony Wreck,United States,Hawaii,Maui,20.69417054,-156.4504731
Turtle Town,United States,Hawaii,Maui,20.66418822,-156.4449692
Kahekili,United States,Hawaii,Maui,20.93641052,-156.693095
Old Kona Airport,United States,Hawaii,Big Island,19.64700819,-156.0158694
Vertical Awareness,United States,Hawaii,Niihau,22.03031409,-160.1015711
Arches,United States,Hawaii,Niihau,21.99191936,-160.0496006
Tunnels Beach,United States,Hawaii,Kauai,22.22716678,-159.5579839
Haleiwa Trench,United States,Hawaii,Oahu,21.59310796,-158.1107819
Three Tables,United States,Hawaii,Oahu,21.64608522,-158.0646962
Cathedrals,United States,Maui,Lanai Island,20.75113767,-156.8615913
Pray for Sex Beach,United States,Hawaii,Oahu,21.52688781,-158.2296038
Hanauma Bay,United States,Hawaii,Oahu,21.27155,-157.6964333
Lehua Crater,United States,Hawaii,Kauai,22.022079,-160.0973225
Anahola Beach Park,United States,Hawaii,Kauai,22.14761207,-159.3044508
South Golden Arches,United States,Hawaii,Big Island,19.64125373,-156.0099792
Koloa Landing,United States,Hawaii,Kauai,21.87880346,-159.4689345
Fantasy Reef,United States,Hawaii,Oahu,21.25914127,-157.7511406
Baby Barge,United States,Hawaii,Oahu,21.2684998,-157.731657
Kewalo Pipe,United States,Hawaii,Oahu,21.28777488,-157.8717327
Kaka ako point,United States,Hawaii,Oahu,21.28041705,-157.8633213
Hanakaoo Beach,United States,Hawaii,Maui,20.90956822,-156.6888142
Black Rock  Sheraton,United States,Hawaii,Maui,20.92708333,-156.6964167
Manta Ray Madness,United States,Hawaii,Big Island,19.559588,-155.967793
Kailua Bay,United States,Hawaii,Big Island,19.63807076,-155.9975982
La -a-loa Bay,United States,Hawaii,Big Island,19.59248333,-155.9712833
Alua Beach,United States,Hawaii,Big Island,19.66718333,-156.0278
Miloli i Bay,United States,Hawaii,Big Island,19.18494333,-155.9069
Mahukona,United States,Hawaii,Big Island,20.18377167,-155.9004617
Five Caves,United States,Hawaii,Maui,20.6761939,-156.4432526
Wailea Beach,United States,Hawaii,Maui,20.68089654,-156.4442396
Tako Flats,United States,Maui,Molokini Island,20.63178333,-156.4975667
Reef s End,United States,Maui,Molokini Island,20.63551667,-156.4984167
Enenue Side,United States,Maui,Molokini Island,20.63476667,-156.4937667
Back Side,United States,Maui,Molokini Island,20.62983333,-156.4957333
Middle Reef,United States,Maui,Molokini Island,20.6318,-156.4964667
YO-257,United States,Hawaii,Oahu,21.26076667,-157.8375
Sea Tiger,United States,Hawaii,Oahu,21.27986667,-157.85995
Corsair Wreck,United States,Hawaii,Oahu,21.25428333,-157.7308333
Kealakekua Bay,United States,Hawaii,Big Island,19.47401667,-155.9191833
Richardson Beach Park,United States,Hawaii,Big Island,19.73592667,-155.0134983
Makaha Caverns,United States,Hawaii,Oahu,21.47505508,-158.2250762
Electric Beach,United States,Hawaii,Oahu,21.35370893,-158.1312203
Halona Blow Hole,United States,Hawaii,Oahu,21.28161167,-157.6775867
Shark s Cove,United States,Hawaii,Oahu,21.65068734,-158.0624056
Hotel Canoas,Brazil,,,-20.24258409,-47.23115936
Bunda do Elefante,Brazil,Rio de Janeiro,Angra dos Reis,-23.15366593,-44.34046995
Primeira praia,Brazil,Bahia,,-13.37777699,-38.91255029
Portinho - Ilha Rasa,Brazil,Rio de Janeiro,,-23.0623099,-43.1484282
Lago Paranoa II,Brazil,Brasilia,,-15.7944248,-47.78489504
Papaní_a,Brazil,Rio de Janeiro,Angra dos Reis,-23.0508723,-44.30908248
Caixa Preta,Brazil,Tocantins,,-9.70243695,-48.3651638
Canyon da Corredeira,Brazil,Sao Paulo,,-20.13852773,-47.29819179
Pedras,Brazil,Amazonas,,-1.902967016,-59.46025014
Canyon do Guarda Sol,Brazil,Sao Paulo,,-20.12132528,-47.31322289
Vale das Tartarugas,Brazil,Sao Paulo,,-20.1470522,-47.2945118
Naufríçgio Draguinha,Brazil,Alagoas,,-9.77745,-35.64893333
Ponte Velha Submersa,Brazil,Sao Paulo,,-20.06879055,-47.41499662
Canyon da Ilha,Brazil,Sao Paulo,,-20.13465767,-47.30281591
Canyon dos Mandis,Brazil,Sao Paulo,,-20.12335014,-47.31073916
Ilha do Xavier,Brazil,Santa Catarina,Bombinhas Florianopolis,-27.60932162,-48.38653564
Mar Aberto,Brazil,Santa Catarina,,-28.7117428,-49.01670456
Praia do Ribeiro,Brazil,Santa Catarina,Bombinhas Florianopolis,-27.14570324,-48.49695683
Rio Pedreira,Brazil,Amapa,,0.5125,-50.92583333
Barragem de Boa Esperaní_a,Brazil,Piaui,,-6.766666667,-43.57111111
Aí_ude do Caldeirí£o,Brazil,Piaui,,-4.342222222,-41.71944444
Aí_ude do Bezerro,Brazil,Piaui,,-4.7675,-42.60222222
Lanchí_n  Goní_alo Cohelo,Brazil,Pernambuco,,-8.502253816,-34.67697144
Remolcador Marte,Brazil,Pernambuco,,-8.510402921,-34.77996826
Ilhota do Sirií_,Brazil,Santa Catarina,Bombinhas Florianopolis,-27.98704973,-48.61804247
Ilha do Coral,Brazil,Santa Catarina,Bombinhas Florianopolis,-27.93585829,-48.54481816
Naufríçgio do Dragí£o,Brazil,Alagoas,,-9.85,-35.71666667
Recifes da Praia do FrancíÈs,Brazil,Alagoas,,-9.768135293,-35.83741844
Lago do Manso,Brazil,Mato Grosso,,-14.84848456,-55.7216692
Dolina - ígua Milagrosa,Brazil,Mato Grosso,,-16.0432151,-57.52783656
Lagoa da Lua,Brazil,Mato Grosso,,-15.37212584,-54.27526116
Tocantins wreck,Brazil,Sao Paulo,,-24.48228609,-46.67777538
Mata Fome,Brazil,Santa Catarina,Bombinhas Florianopolis,-27.42663299,-48.36730957
Gruta Mimoso,Brazil,Mato Grosso do Sul,,-21.13333333,-56.56666667
Cagarras,Brazil,Pernambuco,Fernando de Noronha,-3.812015327,-32.39503384
Ilha dos Papagaios,Brazil,Rio de Janeiro,Cabo,-22.89780181,-41.98254704
Cabeco das Cordas,Brazil,Pernambuco,Fernando de Noronha,-3.804949932,-32.37979889
Buraco do Mero,Brazil,Rio de Janeiro,Cabo,-23.00434255,-41.9863987
Pedras Pretas,Brazil,Santa Catarina,Bombinhas Florianopolis,-27.296969,-48.36555004
Ponta do Meio,Brazil,Santa Catarina,Bombinhas Florianopolis,-27.29464266,-48.36758852
Bahia do Sancho,Brazil,Pernambuco,Fernando de Noronha,-3.853164739,-32.44447231
Ilha do Campeche,Brazil,Santa Catarina,Bombinhas Florianopolis,-27.69831014,-48.46683025
Maraldi,Brazil,Bahia,,-13.00855101,-38.53375196
Caitíç,Brazil,Bahia,,-13.38060168,-38.90481949
Lago Paranoíç,Brazil,Brasilia,,-15.79605401,-47.78904274
Lagoa do Bomfim,Brazil,Rio Grande do Norte,Natal,-6.055892557,-35.20980835
Barrerinha,Brazil,Rio Grande do Norte,Natal,-5.947997288,-34.97360229
Navio do Titanzinho,Brazil,Ceara,,-3.693283333,-38.4265
Bahia de Salvador,Brazil,Bahia,,-12.97252565,-38.53197098
Jequirií_a,Brazil,Bahia,,-13.53288333,-38.85961667
Calhaus,Brazil,Sao Paulo,,-24.32891667,-46.16233333
Cabeco do Arrastado,Brazil,Ceara,,-3.597383333,-38.39048333
Pedreira,Brazil,Sao Paulo,,-23.65388333,-47.52596667
Lupus,Brazil,Pernambuco,,-8.163183333,-34.70546667
Naufragio Amazonas,Brazil,Ceara,,-3.705171863,-38.49248886
Pedra da Boia de Fogo,Brazil,Ceara,,-3.710182449,-38.4967804
Saco do Anequim,Brazil,Rio de Janeiro,Cabo,-22.98003333,-41.9836
Saltador - Ilha dos Porcos,Brazil,Rio de Janeiro,Cabo,-22.96495,-41.99363333
Saco da Abobora - Norte,Brazil,Rio de Janeiro,Cabo,-22.98301667,-41.98825
Saco do Cardeiro,Brazil,Rio de Janeiro,Cabo,-22.9652,-41.99916667
Saco do Cherne,Brazil,Rio de Janeiro,Cabo,-22.96141667,-42.00543333
Ilha dos Porcos - Lado de Fora,Brazil,Rio de Janeiro,Cabo,-22.9631,-41.99096667
Ponta Leste,Brazil,Rio de Janeiro,Cabo,-22.97886667,-41.9818
Lago azul Pirení_polis,Brazil,Goias,,-15.51111111,-48.95333333
Avií£o Bandeirantes,Brazil,Ceara,,-3.564466667,-38.37381667
Naufríçgio Siqueira Campos,Brazil,Ceara,,-4.166666667,-38
Navio Do Pecí©m,Brazil,Ceara,,-3.3975,-38.76277778
Ilha dos Cocos,Brazil,Rio de Janeiro,Paraty,-23.20091667,-44.58363333
Ilha Comprida,Brazil,Rio de Janeiro,Paraty,-23.18995,-44.62376667
Regií£o dos naufríçgios,Brazil,Sao Paulo,,-23.92326707,-45.459795
Montí£o de Trigo,Brazil,Sao Paulo,,-23.8713574,-45.7820034
Grutazul,Brazil,Rio de Janeiro,Cabo,-23.00641642,-42.00774908
Abismo Anhumas - Bonito,Brazil,Mato Grosso do Sul,,-21.14472222,-56.6
Rio da Prata - Bonito,Brazil,Mato Grosso do Sul,,-21.43416667,-56.44166667
Ilha do Meio,Brazil,Pernambuco,Fernando de Noronha,-3.819444444,-32.39555556
Rasa Island,Brazil,Espirito Santo,Espirito Santo and Guarapari,-20.67781667,-40.36618333
Taipus de Fora,Brazil,Bahia,,-13.93856561,-38.92644882
Ilha do Jorge Grego,Brazil,Rio de Janeiro,Angra dos Reis,-23.22699179,-44.15920258
Ilha dos Ratos,Brazil,Rio de Janeiro,Paraty,-23.19780519,-44.60809708
Ilha dos Ganchos,Brazil,Rio de Janeiro,Paraty,-23.17555599,-44.63453293
Prainha,Brazil,Rio de Janeiro,Cabo,-22.96040862,-42.02002287
Lage dos 2 Irmí£os,Brazil,Pernambuco,Fernando de Noronha,-3.847880556,-32.44218611
Porto de Galinhas,Brazil,Pernambuco,,-8.512669444,-34.99756944
Servemar I,Brazil,Pernambuco,,-8.100466667,-34.77988333
Saco do Eustíçquio,Brazil,Sao Paulo,,-23.83709267,-45.2444458
Ressureta,Brazil,Pernambuco,Fernando de Noronha,-3.813672222,-32.39240833
Naufríçgio do Porto,Brazil,Pernambuco,Fernando de Noronha,-3.834485035,-32.40209341
Risca do Zumbi - Risca Seca,Brazil,Rio Grande do Norte,Natal,-5.166666667,-35.18333333
Risca do Zumbi - Cabeí_o Amarelo,Brazil,Rio Grande do Norte,Natal,-5.166666667,-35.18333333
Chata de Noronha,Brazil,Pernambuco,,-7.949483333,-34.73061667
Naufríçgio Reboque,Brazil,Pernambuco,,-8.017233333,-34.69616667
Minuano,Brazil,Pernambuco,,-8.169202778,-34.74784722
Atractores,Brazil,Bahia,,-12.58253353,-38.01031351
Ilha de íncora,Brazil,Rio de Janeiro,Armacao dos Buzios,-22.77511314,-41.82164669
Alvarenga,Brazil,Pernambuco,,-7.945633333,-34.76768333
Lagoa do Uruaí_,Brazil,Ceara,,-4.224444522,-38.08713198
Tartaruguinha,Brazil,Rio Grande do Norte,Natal,-5.754518365,-35.06320953
Ponta Sul da Ilha de Porcos,Brazil,Rio de Janeiro,Cabo,-22.9685189,-41.99422002
Naufríçgio do Sí£o Luiz,Brazil,Rio Grande do Norte,Natal,-5.266666667,-35.15
Serigado de Fora,Brazil,Rio Grande do Norte,Natal,-5.747344875,-35.03265381
Servemar X,Brazil,Pernambuco,,-8.121944444,-34.76277778
Ilha de Buzios,Brazil,Sao Paulo,,-23.80105195,-45.12205124
Ilha Rapada,Brazil,Sao Paulo,,-23.42475,-44.9041
Gales de Maragogi,Brazil,Alagoas,,-9.041961633,-35.19817829
Ilha Anchieta,Brazil,Sao Paulo,,-23.53613371,-45.06917953
California,Brazil,Rio de Janeiro,Angra dos Reis,-23.15931667,-44.35015
Helicoptero,Brazil,Rio de Janeiro,Angra dos Reis,-23.10956667,-44.266
Ilha dos Meros - Ponta Sul,Brazil,Rio de Janeiro,Paraty,-23.18673333,-44.57791667
Lagoa Verde,Brazil,Rio de Janeiro,Angra dos Reis,-23.1374,-44.32339722
Parcel do Coronel,Brazil,Rio de Janeiro,Angra dos Reis,-23.09861667,-44.40569722
Araí_atibinha,Brazil,Rio de Janeiro,Angra dos Reis,-23.15593333,-44.33411389
Lagoa Azul,Brazil,Rio de Janeiro,Angra dos Reis,-23.08225,-44.23944722
Boca do Boqueirao,Brazil,Rio de Janeiro,Angra dos Reis,-23.13256667,-44.31401389
Ponta Grossa,Brazil,Rio de Janeiro,Angra dos Reis,-23.11575,-44.29748056
Pinguino,Brazil,Rio de Janeiro,Angra dos Reis,-23.11783333,-44.28333333
Lage Branca,Brazil,Rio de Janeiro,Angra dos Reis,-23.13748333,-44.34633333
Ponta da Ilha Longa,Brazil,Rio de Janeiro,Angra dos Reis,-23.13917611,-44.32691574
Naufríçgio do Comandante Pessoa,Brazil,Rio Grande do Norte,Natal,-5.145383333,-35.2184
Ilha Vitoria,Brazil,Sao Paulo,,-23.74958434,-45.01723051
Praia do Julií£o,Brazil,Sao Paulo,,-23.8533038,-45.4170084
Lagoa dos Ingleses,Brazil,Minas Gerais,,-20.16884726,-43.9633584
Pirapama,Brazil,Pernambuco,,-8.05,-34.76666667
Mercurius,Brazil,Pernambuco,,-8.07875,-34.7337
Taurus,Brazil,Pernambuco,,-8.066666667,-34.75
Vapor de Baixo,Brazil,Pernambuco,,-8.05,-34.78333333
Saveiros,Brazil,Pernambuco,,-8.07545,-34.7219
Ilha das Couves - Paredinha das Miriquites,Brazil,Sao Paulo,,-23.42355556,-44.85771667
Baia do Farol,Brazil,Santa Catarina,Bombinhas Florianopolis,-27.2969976,-48.36271763
Ponta do Farol,Brazil,Santa Catarina,Bombinhas Florianopolis,-27.30200288,-48.35718155
Vapor Bahia,Brazil,Pernambuco,,-7.579766667,-34.70253333
Cordilheira do Sul,Brazil,Santa Catarina,Bombinhas Florianopolis,-27.28522238,-48.37966919
Calhau de Sí£o Pedro,Brazil,Santa Catarina,Bombinhas Florianopolis,-27.25115,-48.422
Parcel de Boi,Brazil,Santa Catarina,Bombinhas Florianopolis,-27.28911263,-48.37855339
Lagoinha,Brazil,Santa Catarina,Bombinhas Florianopolis,-27.14651474,-48.48201692
Parque da Galheta,Brazil,Santa Catarina,Bombinhas Florianopolis,-27.12598208,-48.51262629
Estaleiro,Brazil,Santa Catarina,Bombinhas Florianopolis,-27.11752636,-48.52100015
Sepultura,Brazil,Santa Catarina,Bombinhas Florianopolis,-27.13990326,-48.48015547
Ponta de Porto Belo,Brazil,Santa Catarina,Bombinhas Florianopolis,-27.11158644,-48.50674689
Enseada da Praia Vermelha,Brazil,Rio de Janeiro,Cabo,-22.98676279,-41.9929862
Caverna da Sapata,Brazil,Pernambuco,Fernando de Noronha,-3.874643215,-32.47470081
Pedras Secas,Brazil,Pernambuco,Fernando de Noronha,-3.850242383,-32.37345815
Pirangi,Brazil,Rio Grande do Norte,Natal,-5.956534082,-35.11470795
Saco do Vidal,Brazil,Santa Catarina,Bombinhas Florianopolis,-27.29759348,-48.3590591
Saco do Capim,Brazil,Santa Catarina,Bombinhas Florianopolis,-27.28323906,-48.37473392
Baia do Engenho,Brazil,Santa Catarina,Bombinhas Florianopolis,-27.29277392,-48.36756706
Ilha das Cabras,Brazil,Sao Paulo,,-23.83018368,-45.39334059
Lago Azul Mara Rosa,Brazil,Goias,,-13.97994444,-49.27386111
Santa Catarina,Brazil,Santa Catarina,Bombinhas Florianopolis,-27.28819729,-48.37005615
Batente das Agulhas,Brazil,Rio Grande do Norte,Natal,-5.623160947,-35.15693665
Ilha Escalvada,Brazil,Espirito Santo,Espirito Santo and Guarapari,-20.69998664,-40.40701747
Victory 8B,Brazil,Espirito Santo,Espirito Santo and Guarapari,-20.68986667,-40.38985
Baia Das Tartarugas,Brazil,Santa Catarina,Bombinhas Florianopolis,-27.28988056,-48.36899444
Recanto do campin,Brazil,Santa Catarina,Bombinhas Florianopolis,-27.28505278,-48.37106389
Ilha Grande,Brazil,Rio de Janeiro,Angra dos Reis,-23.10625998,-44.33395386
Saco do Oratí_rio,Brazil,Sao Paulo,,-24.11316667,-45.70471667
Queimada Grande,Brazil,Sao Paulo,,-24.481,-46.67201667
Corveta V-17 Ipiranga,Brazil,Pernambuco,Fernando de Noronha,-3.851944444,-32.47805556
Laje de Santos State Park,Brazil,Sao Paulo,,-24.32096667,-46.18171667
Stacked Hulls,Canada,Ontario,Lake Ontario,44.21734935,-76.51849851
Windmill Point Park,Canada,Ontario,,42.88308841,-79.00059994
Beachcomber South Wall,Canada,British Columbia,Vancouver Island,49.310835,-124.212933
Beachcomber Deep Wall,Canada,British Columbia,Vancouver Island,49.31581499,-124.220014
Swing Bridge,Canada,Ontario,,42.9770848,-79.25525826
Ontario St Bridge,Canada,Ontario,,42.97379332,-79.25688367
Zealandia Wreck   Grand Narrows,Canada,Nova Scotia,,45.95888968,-60.79737523
Chippawa Creek Leg 1,Canada,Ontario,Lake Ontario,43.05964535,-79.05277937
Chippawa Creek Drift - Leg 2,Canada,Ontario,,43.05269463,-79.060058
Alexandria,Canada,Ontario,Lake Ontario,43.72869519,-79.21115038
P  B  Locke,Canada,Ontario,Lake Ontario,43.916183,-78.298783
Julia B  Merrill,Canada,Ontario,Lake Ontario,43.618983,-79.445717
Glendora,Canada,Ontario,Lake Ontario,44.142633,-76.6342
Lyman Davis,Canada,Ontario,Lake Ontario,43.6022,-79.4166
Seymour Bay,Canada,British Columbia,Lower Mainland,49.34199115,-123.3565853
HMCS Annapolis,Canada,British Columbia,Lower Mainland,49.4499298,-123.3292965
Tuwanek spit,Canada,British Columbia,Lower Mainland,49.54526665,-123.7638523
Confederation Wreck,Canada,Ontario,,43.24595491,-79.74058024
Tiller Wreck,Canada,Ontario,,43.24615,-79.28458056
Sherkston Shores Quarry,Canada,Ontario,,42.87092507,-79.13178853
Welland Scuba Park,Canada,Ontario,,42.98086036,-79.25572268
Sambro Bridge,Canada,Nova Scotia,,44.48347222,-63.59788333
Iona,Canada,Nova Scotia,,45.9612,-60.80297222
Walton Gypsum Quarry,Canada,Nova Scotia,,45.22663056,-63.98764167
Herring Cove - Hebridean Park,Canada,Nova Scotia,,44.56929504,-63.55685528
Hayes Gardens,Canada,Nova Scotia,,44.577025,-63.5504
Prospect - Indian Pt Rd Cove,Canada,Nova Scotia,,44.47062922,-63.79316086
New Harbour,Canada,Nova Scotia,,44.47345833,-64.08943333
Princess Lodge,Canada,Nova Scotia,,44.69109167,-63.65866944
Africville Park,Canada,Nova Scotia,,44.67605177,-63.61545593
Arctic Trader shipwreck,Canada,Nova Scotia,,44.918276,-62.515953
Fox Point Anglican Church,Canada,Nova Scotia,,44.612865,-64.058663
Indian Point,Canada,Nova Scotia,,44.63324376,-63.93544883
Isabells Beach,Canada,Nova Scotia,,44.47083791,-63.57806861
CCG Ready,Canada,British Columbia,Lower Mainland,49.61937778,-123.2082472
Hubbards Shrimp Cannery Beach,Canada,Nova Scotia,,44.63710563,-64.05990525
Lower Prospect Community Wharf,Canada,Nova Scotia,,44.45103761,-63.72609973
Long Cove,Canada,Nova Scotia,,44.46798401,-63.65745664
Aloha- Effie Mai,Canada,Ontario,,44.16447446,-76.56852722
HMCS Chaudriere,Canada,British Columbia,Lower Mainland,49.628233,-123.81165
Costa Rican Trader Shipwreck,Canada,Nova Scotia,,44.55369729,-63.55513841
The fish shack,Canada,Nova Scotia,,44.5741974,-64.04230669
Sandy Cove  Sambro Area,Canada,Nova Scotia,,44.46941576,-63.55861187
Sigma 2,Canada,Quebec,,48.06821466,-77.45867729
The Juno Shipwreck,Canada,Ontario,Lake Ontario,43.88500351,-78.67411494
Cranberry cove,Canada,Nova Scotia,,44.50027039,-63.92152548
Bayswater,Canada,Nova Scotia,,44.50749444,-64.05629444
Whiskey Cove,Canada,British Columbia,Lower Mainland,49.32218148,-122.9268676
Racoon Island,Canada,British Columbia,Lower Mainland,49.34044758,-122.9042244
Belcarra Park,Canada,British Columbia,Lower Mainland,49.31323298,-122.92786
Prospect Community Wharf,Canada,Nova Scotia,,44.46874965,-63.78419638
Lovering Lakes,Canada,Saskatchewan,,50.84122525,-105.626775
East Blue Lake,Canada,Manitoba,,51.60525123,-100.9131575
Power House,Canada,Ontario,,45.02033781,-74.83045578
Knowlton Landing Jetty,Canada,Quebec,,45.15150725,-72.28965282
Canal Soulanges,Canada,Quebec,,45.3312867,-73.96788955
The Robert Gaskin,Canada,Ontario,,44.58915301,-75.67719698
Centeen Park,Canada,Ontario,,44.59192649,-75.67717552
New Bear Cove,Canada,Nova Scotia,,44.53873352,-63.54263663
Mill Cove,Canada,Nova Scotia,,44.58754845,-64.06153679
Fox Point Beach,Canada,Nova Scotia,,44.59662507,-64.06095743
Baie Dorí©e,Canada,Quebec,,45.98241089,-75.06649017
Kinghorn,Canada,Ontario,,44.37659292,-75.93171716
Vermont,Canada,Quebec,,45.0648219,-73.32974911
Ivy Lea Campground Beach,Canada,Ontario,,44.36531911,-75.98160625
Ash Island Barge,Canada,Ontario,,44.35810886,-75.99672318
Eastcliffe Hall,Canada,Ontario,,44.9243991,-75.10073662
Sandy Cove  Terence Bay,Canada,Nova Scotia,,44.46183669,-63.70820001
Eagle Island,Canada,British Columbia,Vancouver Island,49.24231496,-125.9157443
North Dunlap Island,Canada,British Columbia,Vancouver Island,49.22083467,-125.9424698
MV Gulfstream,Canada,British Columbia,Lower Mainland,49.94609734,-124.7225261
April Point,Canada,British Columbia,,50.06314488,-125.2370167
Gladstone,Canada,Ontario,,43.00572594,-82.40883887
Monarch,Canada,Ontario,,42.99603164,-82.42405772
George T Davie,Canada,Ontario,Lake Ontario,44.09448945,-76.56921387
Cornwall,Canada,Ontario,Lake Ontario,44.11864858,-76.6557312
Black Rock Beach,Canada,Nova Scotia,,44.62431222,-63.56405675
Paddys Head,Canada,Nova Scotia,,44.52637232,-63.94830197
Peggys Cove,Canada,Nova Scotia,,44.49220812,-63.91880572
Fergusons Cove,Canada,Nova Scotia,,44.60306494,-63.55721176
Portugal Cove - St  Phillip s,Canada,,,47.62745451,-52.85951614
Wall Beach,Canada,British Columbia,Vancouver Island,49.30365675,-124.2161465
The Rothesay,Canada,Ontario,,44.70025227,-75.52838266
Lookout Point,Canada,British Columbia,Lower Mainland,49.37579639,-123.2891214
Copper Cove Road,Canada,British Columbia,Lower Mainland,49.37833206,-123.2798249
Parliament Rock,Canada,Nova Scotia,,44.5034001,-63.51880789
Cross Island,Canada,Nova Scotia,,44.31444444,-64.20055556
Big Duck Island,Canada,Nova Scotia,,44.34148333,-64.14898333
Ovens point - Rose Bay,Canada,Nova Scotia,,44.31527778,-64.25805556
Bush Island,Canada,Nova Scotia,,44.23944444,-64.36916667
Hell Rackets,Canada,Nova Scotia,,44.39333333,-64.20666667
Second Penninsula,Canada,Nova Scotia,,44.40583333,-64.27916667
Wee Hawk,Canada,Ontario,,44.77694444,-75.39972222
Bergeronne Trader,Canada,Quebec,,48.31805556,-69.41388889
Bassin de Montreal,Canada,Quebec,,45.55959447,-73.54972243
Cedar Hill,Canada,Ontario,,44.80631293,-81.00798547
Gullivers Lake,Canada,Ontario,,43.35977484,-80.02077162
Innerkip Quarry,Canada,Ontario,,43.20085885,-80.69659442
McCurdy Point,Canada,British Columbia,Vancouver Island,48.56096667,-123.5201667
Little Group Islands,Canada,British Columbia,Vancouver Island,48.67166667,-123.3666667
Johnstone Reef,Canada,British Columbia,Vancouver Island,48.47833333,-123.2716667
Joan Rock,Canada,British Columbia,Vancouver Island,48.69,-123.3166667
Imrie Island,Canada,British Columbia,Vancouver Island,48.695,-123.3316667
Christe Islet,Canada,British Columbia,Lower Mainland,49.49944444,-123.3019444
Graham s Wall,Canada,British Columbia,Vancouver Island,48.67,-123.3216667
Fulford Reef,Canada,British Columbia,Vancouver Island,48.44666667,-123.24
Esquimalt Lagoon,Canada,British Columbia,Vancouver Island,48.42833333,-123.4583333
Dyer Rocks,Canada,British Columbia,Vancouver Island,48.62333333,-123.4833333
Cooper Reef,Canada,British Columbia,Vancouver Island,48.67,-123.275
Chain Islet,Canada,British Columbia,Vancouver Island,48.42166667,-123.2666667
Canoe Rock,Canada,British Columbia,Vancouver Island,48.73333333,-123.3383333
Burial Islet,Canada,British Columbia,Vancouver Island,48.77,-123.5616667
Brotchie Ledge Wreck,Canada,British Columbia,Vancouver Island,48.40666667,-123.3866667
Brinn Rock,Canada,British Columbia,Vancouver Island,48.425,-123.22
Bold Bluff Point,Canada,British Columbia,Vancouver Island,48.78833333,-123.5533333
Beechey Head,Canada,British Columbia,Vancouver Island,48.31333333,-123.6533333
Arbutus Island,Canada,British Columbia,Vancouver Island,48.70666667,-123.435
Arachne Reef,Canada,British Columbia,Vancouver Island,48.685,-123.2933333
Wexford Wreck,Canada,Ontario,Lake Huron,43.4005,-81.88833333
Wawinet Wreck,Canada,Ontario,Lake Huron,44.82145,-79.86825
North Wind Wreck,Canada,Ontario,Lake Huron,46.06018333,-82.20236667
Michigan,Canada,Ontario,Lake Huron,44.91611667,-80.20416667
Marquette Wreck,Canada,Ontario,Lake Huron,44.9113,-80.15686667
Mapledawn Wreck,Canada,Ontario,Lake Huron,44.86746667,-80.24381667
Lottie Wolf Wreck,Canada,Ontario,Lake Huron,44.9172,-80.16283333
Panther Wreck,Canada,Ontario,Lake Superior,46.64445,-84.80805
Edmund Fitzgerald Wreck,Canada,Ontario,Lake Superior,46.9985,-85.11
Sligo Wreck,Canada,Ontario,Lake Ontario,43.615,-79.45146667
Olive Branch Wreck,Canada,Ontario,Lake Ontario,43.93166667,-76.73666667
Munson Wreck,Canada,Ontario,Lake Ontario,44.20888333,-76.60765
Katie Eccles Wreck,Canada,Ontario,Lake Ontario,44.00966667,-76.74215
George A  Marsh Wreck,Canada,Ontario,Lake Ontario,44.12683333,-76.6028
Frontenac Wreck,Canada,Ontario,Lake Ontario,44.01871667,-76.60201667
Wilma Wreck,Canada,Ontario,Lake Erie,42.70283333,-80.03446667
Willis Wreck,Canada,Ontario,Lake Erie,41.94111667,-82.1686
Trade Wind Wreck,Canada,Ontario,Lake Erie,42.42526667,-80.20093333
Tasmania Wreck,Canada,Ontario,Lake Erie,41.79166667,-82.50528333
Specular Wreck,Canada,Ontario,Lake Erie,41.82288333,-82.53616667
Raleigh Wreck,Canada,Ontario,Lake Erie,42.86541667,-79.15423333
Pascal P  Pratt Wreck,Canada,Ontario,Lake Erie,42.56136667,-80.09048333
Nimrod Wreck,Canada,Ontario,Lake Erie,42.37666667,-81.005
M  I  Wilcox Wreck,Canada,Ontario,Lake Erie,41.9805,-82.94083333
Merida Wreck,Canada,Ontario,Lake Erie,42.23258333,-81.34648333
Lycoming Wreck,Canada,Ontario,Lake Erie,42.2513,-81.88973333
Little Wissahickon,Canada,Ontario,Lake Erie,41.9,-81.94635
George Worthington Wreck,Canada,Ontario,Lake Erie,41.945,-82.855
Frank E  Vigor Wreck,Canada,Ontario,Lake Erie,41.95908333,-81.95403333
Cecil J  Wreck,Canada,Ontario,Lake Erie,42.76308333,-80.22813333
C  B  Benson Wreck,Canada,Ontario,Lake Erie,42.77103333,-79.24348333
Carlingford Wreck,Canada,Ontario,Lake Erie,42.65571667,-79.47655
Brown Brothers Wreck,Canada,Ontario,Lake Erie,42.62666667,-80.09833333
Atlantic Wreck,Canada,Ontario,Lake Erie,42.51033333,-80.08476667
Annie Falconer Wreck,Canada,Ontario,Lake Ontario,43.96433333,-76.80166667
17 Fathom Wreck,Canada,Ontario,Lake Erie,42.65171667,-80.05241667
SS Saganaga Wreck,Canada,Newfoundland Labrador,,47.58333333,-52.97
SS Rose Castle Wreck,Canada,Newfoundland Labrador,,47.6,-52.96666667
SS Lord Strathcona Wreck,Canada,Newfoundland Labrador,,47.58666667,-52.95833333
Roche Carree,Canada,Quebec,,48.50779113,-64.17045593
Birchy Head,Canada,Nova Scotia,,44.56824447,-64.03690338
Cameron Bay,Canada,Alberta,,49.04392685,-113.9140606
Upper Kananaskis Lake,Canada,Alberta,,50.61134958,-115.1240158
Kahnawake Quarry,Canada,Quebec,,45.40148056,-73.68253889
Les phoques,Canada,Quebec,Parc National de Forillon,48.81669837,-64.27746534
Le Vieux,Canada,Quebec,Parc National de Forillon,48.75019038,-64.15852547
Baie de la Vieille,Canada,Quebec,Parc National de Forillon,48.74883216,-64.16187286
Petit Gaspí©,Canada,Quebec,Parc National de Forillon,48.80438333,-64.24641944
Grande Grave,Canada,Quebec,Parc National de Forillon,48.79270278,-64.22604722
Anse-aux-sauvages,Canada,Quebec,Parc National de Forillon,48.76697222,-64.19315556
Sacacomie,Canada,Quebec,,46.51794167,-73.229375
China,Canada,Ontario,Lake Huron,45.24957337,-81.69446468
Cascaden,Canada,Ontario,Lake Huron,45.23286298,-81.71592236
Big Tub Lighthouse Point,Canada,Ontario,Lake Huron,45.2581344,-81.6722399
The Tugs,Canada,Ontario,Lake Huron,45.2584516,-81.66126966
The Anchor,Canada,Ontario,Lake Huron,45.25794444,-81.66793333
Green River,Canada,Ontario,,44.74630652,-79.32452917
Big Bay Point,Canada,Ontario,,44.40337296,-79.52256203
Waome,Canada,Ontario,,45.07892253,-79.52464342
City of Grand Rapids,Canada,Ontario,Lake Huron,45.25514744,-81.68027043
Philo Scoville,Canada,Ontario,Lake Huron,45.26866494,-81.69977546
James C  King,Canada,Ontario,Lake Huron,45.26726803,-81.7091471
Caroline Rose,Canada,Ontario,Lake Huron,45.24223333,-81.57623333
The Caves,Canada,Ontario,Lake Huron,45.24552465,-81.52397275
Dave s Bay,Canada,Ontario,Lake Huron,45.24952427,-81.61253929
Sweepstakes,Canada,Ontario,Lake Huron,45.25526073,-81.68068886
American,Canada,Ontario,,44.45353431,-75.80877542
Steep Island,Canada,British Columbia,,50.07911667,-125.2535806
Neils Harbour,Canada,Nova Scotia,,46.80734458,-60.32901764
Murray Point,Canada,Nova Scotia,,46.29850051,-60.54591179
The Muff,Canada,Nova Scotia,,44.3638848,-64.2011404
Seal Rock,Canada,Nova Scotia,,44.35873787,-64.2112577
The Bluff,Canada,Nova Scotia,,44.3481588,-64.22457218
HMCS Saguenay,Canada,Nova Scotia,,44.31666667,-64.21666667
Anemones Alley,Canada,Nova Scotia,,44.33342623,-64.28186417
Peach Passage,Canada,Nova Scotia,,44.34840431,-64.30632591
Evelyn,Canada,Nova Scotia,,45.90338863,-59.96655464
Prudent,Canada,Nova Scotia,,45.91539246,-59.96835709
Cí©líÂbre,Canada,Nova Scotia,,45.9147356,-59.97024536
Englishtown,Canada,Nova Scotia,,46.29079089,-60.54531097
Louise P,Canada,New Brunswick,,47.83464965,-65.03365517
Patricia Lake,Canada,Alberta,,52.90652088,-118.0953884
Grande í_le,Canada,Quebec,,50.18047089,-63.88326645
ípave,Canada,Quebec,,49.32117796,-67.58454323
Unisol,Canada,Quebec,,48.33793775,-64.66544151
Brise Lame,Canada,Quebec,,48.09923488,-66.12859726
Guian,Canada,Quebec,,48.33913588,-64.66690063
Barge,Canada,Quebec,,49.10145136,-66.68675423
Blehem,Canada,Quebec,,48.4141059,-68.8866806
Empress of Ireland,Canada,Quebec,,48.62177167,-68.40637833
Germanicus,Canada,Quebec,,48.41347923,-68.8858223
Paradis Marin,Canada,Quebec,,48.27890902,-69.45187569
Vieux Quai du Franquelin,Canada,Quebec,,49.27894861,-67.94185638
Vieux Quai du Godbout,Canada,Quebec,,49.32116397,-67.58949995
Octopus Ghetto,Canada,British Columbia,Lower Mainland,49.78181481,-124.2179972
Escoumins,Canada,Quebec,,48.32059729,-69.4116962
Quartzite Lake,Canada,Newfoundland Labrador,,52.94063415,-66.93207979
Lock 21,Canada,Ontario,,44.99764277,-74.89909351
Charles P  Minch,Canada,Ontario,Lake Huron,45.29453555,-81.71118021
Two Jack Lake,Canada,Alberta,,51.22852898,-115.4958451
Lake Minnewanka,Canada,Alberta,,51.24421416,-115.4950619
Forget me not pond,Canada,Alberta,,50.79761483,-114.8475659
HMCS Columbia,Canada,British Columbia,,50.13225042,-125.3365213
Maple Bay,Canada,British Columbia,Vancouver Island,48.81459307,-123.6090553
China Creek Wall,Canada,British Columbia,Vancouver Island,49.14975,-124.7913083
China Creek Wreck,Canada,British Columbia,Vancouver Island,49.15015833,-124.7923167
Portier Pass,Canada,British Columbia,Vancouver Island,49.01456788,-123.5894966
Copper Cliffs,Canada,British Columbia,,50.09826389,-125.2711528
Forest Island - North End,Canada,British Columbia,Vancouver Island,48.66388889,-123.3383333
Mosses Point,Canada,British Columbia,Vancouver Island,48.68961111,-123.4854167
Discovery Island Western Wall,Canada,British Columbia,Vancouver Island,48.41888889,-123.2434583
Clover Point,Canada,British Columbia,Vancouver Island,48.40361111,-123.3494444
Elliot s Beach Park,Canada,British Columbia,Vancouver Island,48.9875,-123.7611111
Break Water Island,Canada,British Columbia,Vancouver Island,49.12944444,-123.68475
Octopus City,Canada,British Columbia,Lower Mainland,49.78185291,-124.21929
Rocky Point,Canada,British Columbia,Vancouver Island,49.23974444,-123.9900556
Braemar Avenue,Canada,British Columbia,Vancouver Island,48.63376667,-123.4776389
Saxe Point,Canada,British Columbia,Vancouver Island,48.42256111,-123.4199639
Port McNeill,Canada,British Columbia,Vancouver Island,50.59090833,-127.0523611
McKenzie Bight,Canada,British Columbia,Vancouver Island,48.56261111,-123.49875
Ten Mile Point,Canada,British Columbia,Vancouver Island,48.45568333,-123.2658889
Sidney Waterfront,Canada,British Columbia,Vancouver Island,48.64821667,-123.3934944
GB Church,Canada,British Columbia,Vancouver Island,48.72205,-123.35565
Dolphin Beach,Canada,British Columbia,Vancouver Island,49.29051944,-124.1410944
Deep Cove,Canada,British Columbia,Vancouver Island,48.680875,-123.4805778
Bear Cove,Canada,British Columbia,Vancouver Island,50.72288611,-127.4580194
Conestoga Wreck,Canada,Ontario,,44.77944444,-75.39277778
Madrona Point,Canada,British Columbia,Vancouver Island,49.31338056,-124.2421556
Henderson Point,Canada,British Columbia,Vancouver Island,48.59783056,-123.48085
Willis Point,Canada,British Columbia,Vancouver Island,48.57524167,-123.4785472
Neck Point,Canada,British Columbia,Vancouver Island,49.23661667,-123.9637278
Browning Wall,Canada,British Columbia,Vancouver Island,50.84678333,-127.6432
Keystorm,Canada,Ontario,,44.42968333,-75.82255
Emerald Bay,Canada,Alberta,,49.05622875,-113.9091468
City of Sheboygan,Canada,Ontario,Lake Ontario,44.07596667,-76.73446667
Wolf Islander II Wreck,Canada,Ontario,Lake Ontario,44.22533333,-76.41695
Comet,Canada,Ontario,Lake Ontario,44.13865,-76.58403333
Muscallonge,Canada,Ontario,,44.604157,-75.653572
Nakwakto Rapids,Canada,British Columbia,,51.09658252,-127.5032258
Flintkote Quarry,Canada,Quebec,,46.12715116,-71.27732277
Vanlene,Canada,British Columbia,Vancouver Island,48.86036694,-125.3127193
Pill point wall,Canada,British Columbia,Vancouver Island,48.96475135,-125.0760627
Porteau Cove,Canada,British Columbia,Lower Mainland,49.5599823,-123.2355416
Kyen point,Canada,British Columbia,Vancouver Island,48.95317012,-125.1917839
Renate s reef,Canada,British Columbia,Vancouver Island,48.90941331,-125.1885223
Tyler rock,Canada,British Columbia,Vancouver Island,48.95057736,-125.0331688
W L  Wetmore,Canada,Ontario,Lake Huron,45.26568985,-81.70899689
Bowyer Island,Canada,British Columbia,Lower Mainland,49.41944678,-123.2683825
Rendezvous House Reef,Canada,British Columbia,Vancouver Island,48.96887177,-125.0229442
Pam Rocks,Canada,British Columbia,Lower Mainland,49.48328056,-123.2849083
Ansell Place,Canada,British Columbia,Lower Mainland,49.39593492,-123.2515919
Coopers Green,Canada,British Columbia,Lower Mainland,49.50468741,-123.9102459
Xihwu  Key-Quot,Canada,British Columbia,Vancouver Island,48.9357,-123.7188333
Boutiliers Point,Canada,Nova Scotia,,44.6565635,-63.94641772
Quathiaski Cove,Canada,British Columbia,,50.04942341,-125.2223396
Whytecliff Park,Canada,British Columbia,Lower Mainland,49.37189484,-123.2916319
Kelvin Grove,Canada,British Columbia,Lower Mainland,49.45027158,-123.2399619
Morrison Quarry,Canada,Quebec,,45.61319688,-75.9084034
The Niagara II,Canada,Ontario,Lake Huron,45.25120486,-81.59683228
Snake Island,Canada,British Columbia,Vancouver Island,49.21704347,-123.8928008
The Henry C  Daryaw,Canada,Ontario,,44.5265,-75.76356667
The JC Morrison,Canada,Ontario,,44.37774703,-79.68772173
The Lillie Parsons,Canada,Ontario,,44.5563,-75.71918333
The Forest City,Canada,Ontario,Lake Huron,45.31642614,-81.55990362
The Arabia,Canada,Ontario,Lake Huron,45.31972222,-81.67888889
Edith Lake,Canada,Alberta,,52.90705,-118.0462167
HMCS Saskatchewan,Canada,British Columbia,Vancouver Island,49.216,-123.8845
HMCS Cape Breton,Canada,British Columbia,Vancouver Island,49.21466667,-123.88445
Ogden Point Breakwater,Canada,British Columbia,Vancouver Island,48.41481801,-123.3848333
Albert Head Lagoon,Canada,British Columbia,Vancouver Island,48.396015,-123.488882
McNeill Point,Canada,British Columbia,Vancouver Island,48.410973,-123.306975
Baja Casualidad,Chile,Zapallar,,-32.12736715,-71.52654659
Remolacador Caupolican,Chile,Quintay,,-33.02492871,-71.6289711
Blanco Encalada,Chile,,,-27.06023409,-70.82880378
Caleta la arena,Chile,Puerto Montt,,-41.69279933,-72.64617205
Isla Quenu,Chile,Golfo de Ancud,,-41.82813035,-73.13907623
Cantil del Mareado,Chile,,,-39.53448522,-72.10658669
La Lobera,Chile,Islas Choros-Dama,,-29.2814339,-71.53874159
La Pared,Chile,Islas Choros-Dama,,-29.25041682,-71.54221237
El Acuario de Santa Marí_a,Chile,Antofagasta,,-23.47423889,-70.62212778
Marí_a Elizabeth Wreck,Chile,Antofagasta,,-23.64091944,-70.40675
Bajos del Tiburí_n,Chile,Islas Choros-Dama,,-29.26377778,-71.5268
Vapor Lima,Chile,Antofagasta,,-23.36347222,-70.61426389
Pared Sur,Chile,Antofagasta,,-23.45379167,-70.61266111
Roca Alfa,Chile,Islas Choros-Dama,,-29.23499722,-71.54269444
Lynch Wreck,Chile,,,-29.20820278,-71.49160556
El Pangal,Chile,,,-33.64112778,-78.81788333
Roca Chungungo,Chile,Antofagasta,,-23.46402383,-70.61696291
El Buey,Chile,Antofagasta,,-23.40067749,-70.61115861
Jardines de Copetí_n,Chile,Antofagasta,,-23.33645363,-70.59182525
Lobera de Curaumilla,Chile,Quintay,,-33.10000841,-71.74423099
La Isla,Chile,Quintay,,-33.19109688,-71.70437336
La Portada,Chile,Antofagasta,,-23.50760556,-70.42731111
Colin s double strike,Chile,Antofagasta,,-23.49807222,-70.62155
The Moai Trail,Chile,Antofagasta,,-23.46961944,-70.61888889
The trail of the Moai,Chile,Antofagasta,,-23.46961944,-70.61888889
The sunken reef,Chile,Antofagasta,,-23.46980556,-70.61970833
Acapulco Beach,Chile,Antofagasta,,-23.51552222,-70.53001111
Cauldron of Death,Chile,Antofagasta,,-23.467025,-70.61779444
The Abyss,Chile,Antofagasta,,-23.46808056,-70.61891111
La Isla Seca,Chile,Zapallar,,-32.58808002,-71.45589352
The beach,Chile,Antofagasta,,-23.46334722,-70.61461389
Anemone Wall,Chile,Antofagasta,,-23.47070556,-70.62046111
La Catedral,Chile,Zapallar,,-32.47575,-71.43883333
Los Molles,Chile,Zapallar,,-32.23819444,-71.51098889
Bajo el Cerro de la Cruz,Chile,Zapallar,,-32.55186667,-71.47391667
Bajo Playa Chica,Chile,Quintay,,-33.21152778,-71.704
La Caldera,Chile,Quintay,,-33.19163889,-71.70211111
Los Jardines,Chile,Quintay,,-33.18825,-71.70041667
El Falucho,Chile,Quintay,,-33.19055556,-71.70213889
El Fraile,Chile,Quintay,,-33.17886742,-71.72956467
Bahia Aguacate,Colombia,Caribbean,,8.617067987,-77.32621908
Punta Granate,Colombia,Caribbean,Santa Marta,11.2901,-74.19585
Pescera Tayrona,Colombia,Caribbean,Santa Marta,11.29628,-74.19238
Punta del Cabo,Colombia,Caribbean,,8.668511954,-77.35748291
Isla Pavitos,Colombia,Caribbean,Islas del Rosario,10.17279001,-75.76849937
Picua,Colombia,Caribbean,Archipielago de San Bernardo,9.864722222,-75.87972222
El Planchí_n,Colombia,Caribbean,Isla Fuerte,9.344083333,-76.1799
Burbujas,Colombia,Caribbean,Isla Fuerte,9.402333333,-76.26366667
Bajo Bushnell,Colombia,Caribbean,Isla Fuerte,9.423066667,-76.3512
Alex Place,Colombia,Caribbean,Islas del Rosario,10.1762326,-75.75888634
Imelda,Colombia,Caribbean,Islas del Rosario,10.15308411,-75.70129395
Isla Gloria,Colombia,Caribbean,Islas del Rosario,10.17521884,-75.75914383
Punta Aguacate,Colombia,Caribbean,,8.620568521,-77.32495308
Salidero,Colombia,Caribbean,Santa Marta,11.31016951,-74.19288397
Grieta Isla Narza,Colombia,Caribbean,,8.640255766,-77.33748436
Salmedina,Colombia,Caribbean,Cartagena,10.35485854,-75.63829422
West view,Colombia,Caribbean,San Andres,12.52061008,-81.72926903
Puerto Naito Baru,Colombia,Caribbean,Islas del Rosario,10.23518397,-75.60618281
La Bocana,Colombia,Caribbean,Cartagena,10.4775364,-75.47899246
Turtle Rock,Colombia,Caribbean,Old Providence,13.37893166,-81.40663147
Blue Diamond,Colombia,Caribbean,San Andres,12.53679142,-81.73545957
El Oasis,Colombia,Caribbean,San Andres,12.54099107,-81.68746948
Big Channel,Colombia,Caribbean,San Andres,12.60901374,-81.67579651
Punta Norte,Colombia,Caribbean,San Andres,12.59879473,-81.7127037
West Point,Colombia,Caribbean,San Andres,12.4944036,-81.73965454
La Parguera,Colombia,Caribbean,San Andres,12.55556887,-81.659832
Blue Wall,Colombia,Caribbean,San Andres,12.49725271,-81.71047211
Las Piedras,Colombia,Caribbean,San Andres,12.50362121,-81.7096138
Trampa Tortuga,Colombia,Caribbean,San Andres,12.53914784,-81.65948868
La Piramide,Colombia,Caribbean,San Andres,12.58310421,-81.68352664
Peí±on Bobo,Colombia,Caribbean,,8.650523275,-77.34718323
Morrito Largo,Colombia,Caribbean,,11.3177126,-74.20306563
Caribaru,Colombia,Caribbean,Islas del Rosario,10.16930513,-75.75468063
Punta Baru,Colombia,Caribbean,Islas del Rosario,10.12587827,-75.7050705
Shark Bay,Ecuador,Galapagos,Wolf Island,1.38844906,-91.8157053
Cousin Rock,Ecuador,Galapagos,,-0.281015579,-90.55225179
Bahia Tiburones,Ecuador,Galapagos,Wolf Island,1.384716667,-91.81273333
Seymour North,Ecuador,Galapagos,Santa Cruz Island,-0.383316667,-90.28581667
Corona del Diablo,Ecuador,Galapagos,Santa Maria Island,-1.216616667,-90.42181667
Champion,Ecuador,Galapagos,Santa Maria Island,-1.238733333,-90.38425
Enderby,Ecuador,Galapagos,Santa Maria Island,-1.231747151,-90.36280632
Mosqueras,Ecuador,Galapagos,Santa Cruz Island,-0.404666874,-90.27819872
Seymour Channel,Ecuador,Galapagos,Santa Cruz Island,-0.411640441,-90.29027939
Kicker Rock,Ecuador,Galapagos,San Cristobal Island,-0.778347222,-89.51888889
Plaza islands,Ecuador,Galapagos,Santa Cruz Island,-0.581954248,-90.16351819
Gordon s Rock,Ecuador,Galapagos,Santa Cruz Island,-0.566993638,-90.14304221
Anchorage,Ecuador,Galapagos,Wolf Island,1.380238533,-91.81877375
Cape Douglas,Ecuador,Galapagos,Isabela Island,-0.302551771,-91.65580273
Tortuga Island,Ecuador,Galapagos,Isabela Island,-1.029698252,-90.87242603
4 Hermanos,Ecuador,Galapagos,Isabela Island,-0.851966932,-90.8096838
Punta Morena,Ecuador,Galapagos,Isabela Island,-0.687383333,-91.32043333
Elizabeth Bay,Ecuador,Galapagos,Isabela Island,-0.604665976,-91.08678818
Tagus Cove,Ecuador,Galapagos,Isabela Island,-0.260205567,-91.37147248
Cape Marshall,Ecuador,Galapagos,Isabela Island,0.138122902,-91.31878853
Punta Albemarle,Ecuador,Galapagos,Isabela Island,0.167197944,-91.34076118
Roca Redonda,Ecuador,Galapagos,Isabela Island,0.2711,-91.62403333
The Rock,Ecuador,Galapagos,Wolf Island,1.373427689,-91.82566166
Hat Island,Ecuador,Galapagos,Wolf Island,1.396949151,-91.8236661
Pinaculos,Ecuador,Galapagos,Wolf Island,1.395490462,-91.81785107
Channel,Ecuador,Galapagos,Darwin Island,1.672409466,-91.99202299
Darwin s Arch,Ecuador,Galapagos,Darwin Island,1.670452287,-91.9900918
Punta Vincente Roca,Ecuador,Galapagos,Isabela Island,-0.0499,-91.5578
Landslide Wall,Ecuador,Galapagos,Wolf Island,1.383670762,-91.81107044
Tower Rock,Ecuador,Galapagos,Darwin Island,1.677685798,-92.00858831
El Arrecife,Colombia,Pacific,Isla de Malpelo,4.004342673,-81.60408497
El remanso,Colombia,Pacific,Gorgona Island,2.940297947,-78.20128441
La tiburonera,Colombia,Pacific,Gorgona Island,2.933183356,-78.20952415
Los Gemelos,Colombia,Pacific,Isla de Malpelo,3.997193276,-81.60859108
Punta Machalilla,Ecuador,La Costa,Isla de la plata,-1.285807434,-81.08725548
Los Ahorcados,Ecuador,La Costa,,-1.677857386,-80.83529949
Isla Salango,Ecuador,La Costa,,-1.592554984,-80.8632803
El Pelado,Ecuador,La Costa,,-1.935083333,-80.78943333
Llaviucu,Ecuador,La Sierra,,-2.844708376,-79.14620583
Isla grande,Peru,,,-11.756348,-77.2845
Punta Naplo,Peru,,,-12.47298185,-76.79293156
El Dado,Peru,,,-12.47998994,-76.80374622
Palomino Island,Peru,,,-12.12711036,-77.23152637
El chuncho ucusana,Peru,,,-12.47278281,-76.79941177
Cantera El carpincho,Argentina,Buenos Aires Las Pampas,,-35.13937741,-58.25964725
Bosque sumergido,Argentina,Buenos Aires Las Pampas,Lagos Cordobeses,-32.18143328,-64.27463293
Aquarium - Mar del Plata,Argentina,Buenos Aires Las Pampas,Mar del Plata,-38.0939415,-57.54389226
Embalse Rio III,Argentina,Buenos Aires Las Pampas,Lagos Cordobeses,-32.17415949,-64.47841644
Tosquera Tarola,Argentina,Buenos Aires Las Pampas,Buenos Aires,-34.4016958,-58.68277431
Cantera Villa Monica,Argentina,Buenos Aires Las Pampas,Buenos Aires,-36.90220503,-60.14027596
Pozo del Tio,Argentina,Buenos Aires Las Pampas,Mar del Plata,-38.08527778,-57.36388889
Lago del Sol,Argentina,Buenos Aires Las Pampas,Buenos Aires,-34.39759707,-58.68788123
Tosquera La Saladita,Argentina,Buenos Aires Las Pampas,Buenos Aires,-34.67087183,-58.34022403
Camping Cerro Pelado,Argentina,Buenos Aires Las Pampas,Lagos Cordobeses,-32.20469006,-64.64928925
Isla Cerro Pelado,Argentina,Buenos Aires Las Pampas,Lagos Cordobeses,-32.20406366,-64.66008246
Banco del Medio,Argentina,Buenos Aires Las Pampas,Mar del Plata,-38.11524581,-57.51068115
Banco Patria,Argentina,Buenos Aires Las Pampas,Mar del Plata,-38.13611111,-57.25694444
Restinga del Faro,Argentina,Buenos Aires Las Pampas,Mar del Plata,-38.11460278,-57.54115833
Banco de Pescadores,Argentina,Buenos Aires Las Pampas,Mar del Plata,-38.13619444,-57.51013889
Escollera Norte,Argentina,Buenos Aires Las Pampas,Mar del Plata,-38.03635462,-57.5249666
Embalse de Rio III - 2da Usina,Argentina,Buenos Aires Las Pampas,Lagos Cordobeses,-32.17184374,-64.38478589
Laguna Azul,Argentina,Buenos Aires Las Pampas,Lagos Cordobeses,-31.3292442,-64.32621717
Cerro Pelado,Argentina,Buenos Aires Las Pampas,Lagos Cordobeses,-32.20472222,-64.66555556
Dique Piedras Moras - La Cascada,Argentina,Buenos Aires Las Pampas,Lagos Cordobeses,-32.1844752,-64.30033922
Dique Piedras Moras - La Bomba,Argentina,Buenos Aires Las Pampas,Lagos Cordobeses,-32.18131523,-64.27426279
Banco de Afuera,Argentina,Buenos Aires Las Pampas,Mar del Plata,-38.24043611,-57.45893611
Dique Valle Grande,Argentina,Cuyo Mendoza,,-34.83599046,-68.52060212
Dique Los Reyunos,Argentina,Cuyo Mendoza,,-34.57839148,-68.7045747
Laguna Valle Hermoso,Argentina,Cuyo Mendoza,,-35.15937188,-70.20656347
Pozos de Carapacho,Argentina,Cuyo Mendoza,,-35.72853769,-69.19507027
Dique La Florida,Argentina,Cuyo Mendoza,,-33.11418993,-66.00512981
Dique Potrerillos,Argentina,Cuyo Mendoza,,-32.98714444,-69.16575833
La Nina Encantada,Argentina,Cuyo Mendoza,,-35.15998588,-69.86973166
Boyas Blancas,Argentina,Iguazu Corientes Selvas,,-27.32321801,-58.5998565
Laguna Totora,Argentina,Iguazu Corientes Selvas,,-27.36650791,-58.50241184
Paraje Rincí_n,Argentina,Iguazu Corientes Selvas,,-27.30294195,-58.55116904
Dique Valle Grande,Argentina,Cuyo Mendoza,,-34.83599046,-68.52060212
Dique Los Reyunos,Argentina,Cuyo Mendoza,,-34.57839148,-68.7045747
Laguna Valle Hermoso,Argentina,Cuyo Mendoza,,-35.15937188,-70.20656347
Pozos de Carapacho,Argentina,Cuyo Mendoza,,-35.72853769,-69.19507027
Dique La Florida,Argentina,Cuyo Mendoza,,-33.11418993,-66.00512981
Dique Potrerillos,Argentina,Cuyo Mendoza,,-32.98714444,-69.16575833
La Nina Encantada,Argentina,Cuyo Mendoza,,-35.15998588,-69.86973166
Boyas Blancas,Argentina,Iguazu Corientes Selvas,,-27.32321801,-58.5998565
Laguna Totora,Argentina,Iguazu Corientes Selvas,,-27.36650791,-58.50241184
Paraje Rincí_n,Argentina,Iguazu Corientes Selvas,,-27.30294195,-58.55116904
Ile du diable,French Guiana,,,5.292246135,-52.58314133
Isla Mary Ann,Argentina,Patagonia,Ushuaia,-54.85968676,-68.23170662
Arroyo angostura,Argentina,Patagonia,Bariloche,-41.07197907,-71.56226993
Loberia,Argentina,Patagonia,,-46.10548333,-67.62708333
La Tranquera,Argentina,Patagonia,,-46.03833423,-67.59959579
La V corta,Argentina,Patagonia,,-46.04444102,-67.60519624
Lago Lacar Nonthue,Argentina,Patagonia,Bariloche,-40.15107913,-71.62231922
Punto Piramide,Argentina,Patagonia,Puerto Madryn,-42.615,-64.27777778
Don Felix,Argentina,Patagonia,Las Grutas San Antonio,-40.86305556,-65.06277778
La cueva de los fosiles,Argentina,Patagonia,Puerto Madryn,-42.57931014,-64.29307044
Playa Bonita,Argentina,Patagonia,Bariloche,-41.11988078,-71.39544725
Punta Este Off Shore,Argentina,Patagonia,Puerto Madryn,-42.75596185,-64.936409
Parque Viejo,Argentina,Patagonia,Puerto Madryn,-42.76450065,-65.02174616
Restinga Punta Cuevas,Argentina,Patagonia,Puerto Madryn,-42.77565289,-64.99245644
Naufragio Rio de Oro,Argentina,Patagonia,Puerto Madryn,-42.7624212,-65.02412796
Parque Natural las Piedras,Argentina,Patagonia,Puerto Madryn,-42.72078596,-64.99468803
Piedra Grande,Argentina,Patagonia,Puerto Madryn,-42.72873065,-65.02279758
Naufragio Albatros,Argentina,Patagonia,Puerto Madryn,-42.77436135,-65.0021553
Punta Este,Argentina,Patagonia,Puerto Madryn,-42.78475591,-64.95469093
Bahia Lapataia,Argentina,Patagonia,Ushuaia,-54.85339054,-68.56052399
Bahia Camarones,Argentina,Patagonia,Camarones,-44.8007711,-65.70074201
Blancas islands,Argentina,Patagonia,Camarones,-44.77089849,-65.64103603
Naufragio Folias,Argentina,Patagonia,Puerto Madryn,-42.7945071,-64.94224548
El Doradillo,Argentina,Patagonia,Puerto Madryn,-42.66827661,-64.98737097
Punta Pardelas,Argentina,Patagonia,Puerto Madryn,-42.62429675,-64.26624298
Loberia,Argentina,Patagonia,Puerto Madryn,-42.83534933,-64.86199379
Lago Falkner,Argentina,Patagonia,,-40.48090371,-71.49044037
La Isla,Argentina,Patagonia,Las Grutas San Antonio,-40.91611111,-65.09833333
Rio Futaleufu,Argentina,Patagonia,,-43.082244,-71.345549
Lago Mari Menuco,Argentina,Patagonia,,-38.61398671,-68.46895337
Isla Lepen,Argentina,Patagonia,,-38.93861111,-71.30166667
Villa la Angostura,Argentina,Patagonia,Bariloche,-40.78249118,-71.66244507
El bosque sumergido,Argentina,Patagonia,Bariloche,-40.62835018,-71.39714241
La plataforma,Argentina,Patagonia,Las Grutas San Antonio,-40.81857955,-65.07731616
Punta Cuevas,Argentina,Patagonia,Puerto Madryn,-42.7797754,-65.00252545
Isla Redonda,Argentina,Patagonia,Ushuaia,-54.86643273,-68.47512245
Estancia Tunel,Argentina,Patagonia,Ushuaia,-54.81882566,-68.19134474
Isla de los lobos,Argentina,Patagonia,Ushuaia,-54.87238333,-68.0855
Jose Ignacio,Uruguay,,,-34.84501473,-54.63028908
Playa Mansa  Punta del Este,Uruguay,,,-34.95873392,-54.94539499
Punta Colorada,Uruguay,,,-34.90324905,-55.26262522
Cantera El Terrible  Grande,Uruguay,,,-31.22603207,-57.85148263
Puertito de Don Anselmo,Uruguay,,,-34.88689902,-55.28186202
Stella Maris,Uruguay,,,-34.8799814,-55.28054237
Piriapolis Vertigo,Uruguay,,,-34.85501678,-55.30363083
Punta Ballena,Uruguay,,,-34.91400064,-55.04551649
Cantera Riachuelo,Uruguay,,,-34.44404444,-57.725575
Cantera Ferrando,Uruguay,,,-34.47275863,-57.82714963
Cantera El Terrible,Uruguay,,,-31.22516667,-57.854
Zona Sur,Venezuela,Central,Isla La Tortuga,10.89622876,-65.35442591
La Ensenada,Venezuela,East,Mochima,10.29017372,-64.6059595
La Picua,Venezuela,East,,10.36072656,-64.49292183
Punta Cruz de Manare,Venezuela,East,,10.39567914,-64.36743736
Guaiguíç,Venezuela,East,Mochima,10.39782661,-64.33694601
Playuelita,Venezuela,Central,Morrocoy,10.82721517,-68.23674917
Cayo Medio,Venezuela,Central,Morrocoy,10.74026539,-68.23664188
Magnesita,Venezuela,East,Margarita,10.99023843,-63.80002946
Noronqui,Venezuela,Central,Los Roques,11.92597393,-66.73370361
Cubagua,Venezuela,East,Margarita,10.84070331,-64.15929794
Boca de Cote,Venezuela,Central,Los Roques,11.77351109,-66.72237396
Peí±a - Bajo,Venezuela,East,Margarita,11.20382986,-63.71696949
La Guasa,Venezuela,Central,Los Roques,11.96090655,-66.70434952
Piscina Francisqui,Venezuela,Central,Los Roques,11.95570053,-66.64289474
Gran Roque West,Venezuela,Central,Los Roques,11.95773333,-66.69615833
Aquario Morrito,Venezuela,Central,Los Roques,11.95365278,-66.69120556
Cayo Norte,Venezuela,Central,Morrocoy,10.781,-68.19775
Cayo Sur,Venezuela,Central,Morrocoy,10.72909184,-68.24432373
Cayo Sombrero,Venezuela,Central,,10.88341874,-68.20582867
Chichiriviche de la costa,Venezuela,Central,,10.55083333,-67.23861111
Las topias,Venezuela,Central,,10.52518684,-67.52932191
Bajo Las Topias,Venezuela,,,10.5241953,-67.52167225
Punta de Tuja Oeste,Venezuela,,,10.53469073,-67.47465849
Bajo de Caí±averal,Venezuela,Central,,10.53346716,-67.45317936
Cominoto el Hoyo,Venezuela,East,Margarita,11.21727338,-63.76873612
Cominoto el Velero,Venezuela,East,Margarita,11.21081796,-63.7646699
Ichao el Tunal,Venezuela,East,Margarita,11.21389098,-63.73042345
La Pecha,Venezuela,East,Margarita,11.20540851,-63.75442386
La Pecha Afuera,Venezuela,East,Margarita,11.20161974,-63.75353336
Punta de Peí±a,Venezuela,East,Margarita,11.20519803,-63.71887922
Puerto Real,Venezuela,East,Margarita,11.19166667,-63.73388889
Punta Payape,Venezuela,East,Margarita,11.18711668,-63.72923255
Caraballeda - Cayo Sal,Venezuela,Central,,10.62420907,-66.85708523
Carabelleda - Caribe Soy,Venezuela,Central,,10.62134084,-66.8581903
Bajo de Chuao,Venezuela,Central,,10.52544,-67.54468024
Gran Roque,Venezuela,Central,,10.48440434,-67.8247726
Farallí_n,Venezuela,East,Margarita,10.96402822,-63.79117012
Isla Larga Puerto Cabello,Venezuela,West,,10.4886875,-67.94935584
Chichiriviche,Venezuela,Central,,10.55210498,-67.24036217
Manjack Cay Patch,Bahamas,Abaco,,26.85228872,-77.40026951
Fowl Cay Preserve,Bahamas,Abaco,,26.63464674,-77.04694748
Pillars of Hercules,Antigua,Antigua Island,,17.003,-61.75883333
Cades Reef,Antigua,Antigua Island,,17.00951667,-61.89063333
Carpenter s Hole,Antigua,Antigua Island,,17.00229189,-61.77852631
Snapper Hole,Antigua,Antigua Island,,16.99999366,-61.76153183
Rocky Beach,Aruba,,,12.46187223,-69.9666667
Sonesta Plane Wreck,Aruba,,,12.49908333,-70.03031667
Barcadera Reef,Aruba,,,12.48725,-70.01683333
Barge,Aruba,,,12.47405,-69.99556667
Jane C,Aruba,,,12.47405,-69.99556667
YS-11 Airplane,Aruba,,,12.49908333,-70.03031667
Pedernales Wreck,Aruba,,,12.57299412,-70.08350372
Sponge reef,Aruba,,,12.49478069,-70.03033161
Baby Beach,Aruba,,,12.41301667,-69.87928333
Antilla Wreck,Aruba,,,12.602062,-70.058613
Stargate,Bahamas,Andros Island,,24.19788668,-77.5957489
Andros Island - Amphitheatre,Bahamas,Andros Island,,24.86506186,-77.87109375
Guardian Inland Blue Hole,Bahamas,Andros Island,,24.51136051,-77.72097588
Back Side of the Blue Hole,Bahamas,Andros Island,,24.81338889,-77.84865278
Blue Hole 3rd Level,Bahamas,Andros Island,,24.81285,-77.84903889
Blue Hole 2nd Level,Bahamas,Andros Island,,24.81346944,-77.84930278
Little Frenchman Inland Blue Hole,Bahamas,Andros Island,,24.50686994,-77.72224188
The Garden,Anguilla,,,18.24903783,-63.091822
MV Oosterdiep,Anguilla,,,18.19836783,-63.14065883
Angel Reef,Anguilla,,,18.26423889,-63.02543333
Lobster Reef,Anguilla,,,18.26676667,-63.03517222
MV Commerce,Anguilla,,,18.24598056,-63.08023333
Frenchman s Reef,Anguilla,,,18.25032222,-63.04703889
Dog Island,Anguilla,,,18.27801389,-63.23919167
Captain Turtle,Anguilla,,,18.24883333,-63.05002222
MV Sarah,Anguilla,,,18.25250278,-63.13448056
Beacon,Anguilla,,,18.24826111,-63.05109444
Shoal Bay Reef,Anguilla,,,18.25745556,-63.03543056
Crystal Reef,Anguilla,,,18.252644,-63.04000083
Sea Fan,Anguilla,,,18.25641389,-63.031825
Teigland,Anguilla,,,17.98276667,-63.04253333
MV Catheley H Wreck,Anguilla,,,18.21045,-63.09353333
Blowing Rock,Anguilla,,,18.15057211,-63.16115141
Anguillita,Anguilla,,,18.15570011,-63.17713737
MV Ida Maria Wreck,Anguilla,,,18.22215,-63.13765
West Cay,Anguilla,,,18.27760626,-63.27515602
Prickly Pear,Anguilla,,,18.26163145,-63.17503452
No Name Reef,Anguilla,,,18.21443199,-63.11712027
Bird Cay South reef,Bahamas,Big Little Whale cays,,25.39335037,-77.81629086
Big Whale East Reef,Bahamas,Big Little Whale cays,,25.41726852,-77.75560856
Big Whale North Reef,Bahamas,Big Little Whale cays,,25.44381715,-77.75701404
North Turtle Rocks Reef,Bahamas,Bimini Islands,,25.66884167,-79.30626389
U-Boat,Bahamas,Bimini Islands,,25.57611111,-79.29277778
Miami Rita wreck,Bahamas,Bimini Islands,,25.60416667,-79.29722222
Hesperus,Bahamas,Bimini Islands,,25.80444444,-79.11222222
The Strip,Bahamas,Bimini Islands,,25.72119909,-79.29871559
Moray Alley,Bahamas,Bimini Islands,,25.74185,-79.3107
Sapona Wreck,Bahamas,Bimini Islands,,25.65125,-79.29358333
Tuna Alley,Bahamas,Bimini Islands,,25.52463333,-79.29913333
Atlantis Road,Bahamas,Bimini Islands,,25.76666667,-79.27858333
Deep South Reef,Bahamas,Cat Island,,24.1505423,-75.35650134
Greenwood Reef,Bahamas,Cat Island,,24.19146681,-75.30801773
Reef Balls,Bahamas,Coco Cay,,25.82083333,-77.93111667
Airplane Wreck,Bahamas,Coco Cay,,25.82091667,-77.93116667
Queen Anne s Revenge Wreck,Bahamas,Coco Cay,,25.81975,-77.93083333
Grandma s Secret Garden,Bahamas,Conception Island,,23.81029444,-75.11945833
The Notch,Bahamas,Conception Island,,23.81555833,-75.12502222
Wedge Rock,Bahamas,Conception Island,,23.80695278,-75.118075
Off The Wall,Bahamas,Eleuthera Island,,24.84461819,-76.37369156
Off Cape Eleuthera,Bahamas,Eleuthera Island,,24.81723784,-76.34991646
Devil s Backbone,Bahamas,Eleuthera Island,,25.57703333,-76.6869
Glass Window Bridge,Bahamas,Eleuthera Island,,25.43817364,-76.60360515
Current Cut,Bahamas,Eleuthera Island,,25.40357044,-76.79224491
Jeep Reef,Bahamas,Exuma Keys,,24.37040685,-76.61845922
Amberjack Reef,Bahamas,Exuma Keys,,24.40794883,-76.64945483
Connected dott,Bahamas,Exuma Keys,,23.584598,-75.85450172
The Cutt,Bahamas,Exuma Keys,,26.74561038,-77.87109375
Seabass,Bahamas,Exuma Keys,,23.65804705,-75.94273567
Normans Key Cut,Bahamas,Exuma Keys,,24.57292375,-76.7908287
Highborn Key Wall,Bahamas,Exuma Keys,,24.72508175,-76.80258751
Pygmy canyon,Bahamas,Grand Bahama,,26.50514245,-78.61550331
Hydro Lab,Bahamas,Grand Bahama,,26.50347183,-78.61644745
Angel Grand,Bahamas,Grand Bahama,,26.46811436,-78.4135437
Shark Junction,Bahamas,Grand Bahama,,26.50311667,-78.61666667
Sea Star II Wreck,Bahamas,Grand Bahama,,26.52518795,-78.58426094
Ben s Blue Hole,Bahamas,Grand Bahama,,26.52726142,-78.58537674
Ben s Cavern,Bahamas,Grand Bahama,,26.548,-78.6374
Sugar Wreck,Bahamas,Grand Bahama,,27.05271667,-79.1605
Theo s Wreck,Bahamas,Grand Bahama,,26.48286667,-78.67035
Barracuda Aquarium,Bahamas,Little San Salvador,,24.59455556,-75.97508889
MV Comberbach Wreck,Bahamas,Long Island,,23.66009109,-75.36020279
Shark Reef,Bahamas,Long Island,,23.63768362,-75.36930084
Deans Blue Hole,Bahamas,Long Island,,23.1063636,-75.00869393
BBC Wreck,Bahamas,New Providence - Nassau,,25.01349815,-77.56465673
Anthony Bell wreck,Bahamas,New Providence - Nassau,,25.01591904,-77.57006943
Pumpkin Patch,Bahamas,New Providence - Nassau,,24.89998352,-77.53755569
Mike s Reef,Bahamas,New Providence - Nassau,,24.88020747,-77.51678467
Lampton Wall,Bahamas,New Providence - Nassau,,25.03397215,-77.56175995
DC3 Wall,Bahamas,New Providence - Nassau,,25.00605044,-77.55193233
Clifton Wall,Bahamas,New Providence - Nassau,,25.00492255,-77.55064487
Palace Wall,Bahamas,New Providence - Nassau,,25.01281757,-77.56630898
Sand Chute,Bahamas,New Providence - Nassau,,25.01017299,-77.56145954
David Tucker Wreck,Bahamas,New Providence - Nassau,,25.00861733,-77.55673885
Steel Forest,Bahamas,New Providence - Nassau,,24.98329617,-77.54695415
Twin Sister,Bahamas,New Providence - Nassau,,24.97827799,-77.54184723
Hollywood Bowl,Bahamas,New Providence - Nassau,,25.03023947,-77.55691167
De La Salle Wreck,Bahamas,New Providence - Nassau,,25.09725556,-77.35800278
Trinity Caves,Bahamas,New Providence - Nassau,,25.08995278,-77.35954167
Shark Encounter,Bahamas,New Providence - Nassau,,24.88807156,-77.52339363
The Lighthouse,Bahamas,New Providence - Nassau,,25.08750338,-77.35005856
Landing Craft Wreck,Bahamas,New Providence - Nassau,,25.07160584,-77.22942352
Caribe Breeze Wreck,Bahamas,New Providence - Nassau,,24.9798,-77.535
Cessna Wreck,Bahamas,New Providence - Nassau,,25.007295,-77.55021572
The Willaurie Wreck,Bahamas,New Providence - Nassau,,25.01580237,-77.56958127
Goulding Cay,Bahamas,New Providence - Nassau,,25.02261757,-77.57073998
Tunnel Wall,Bahamas,New Providence - Nassau,,25.03863811,-77.55806923
Lost Blue Hole,Bahamas,New Providence - Nassau,,25.02672984,-77.14218736
Travellers s Rest Wall,Bahamas,New Providence - Nassau,,25.07300522,-77.47558594
Goulding Cay Wall,Bahamas,New Providence - Nassau,,25.02137317,-77.57600784
The James Bond Wrecks,Bahamas,New Providence - Nassau,,25.00764503,-77.55446434
Sea Viking Wreck,Bahamas,New Providence - Nassau,,24.96614016,-77.51026154
Snowfields,Bahamas,Rum Cay,,23.65639722,-74.94974167
Runaway 10,Bahamas,San Salvador,,24.06456894,-74.54423189
Hole in the Wall,Bahamas,San Salvador,,24.00648301,-74.55408096
Great Cut,Bahamas,San Salvador,,23.97233254,-74.56086159
Telephone Pole,Bahamas,San Salvador,,24.04295636,-74.53262329
Halloween Reef,Bahamas,San Salvador,,24.02027778,-74.54473889
Stewpot,Bahamas,San Salvador,,24.04532746,-74.53373909
Black Forest,Bahamas,San Salvador,,23.93915362,-74.56995964
Vicky s Reef,Bahamas,San Salvador,,24.02796454,-74.5343399
Sam Lord s,Barbados,,,13.12311667,-59.42818333
Asta Reef,Barbados,,,13.07258333,-59.60588333
Berwin Shipwreck,Barbados,,,13.0726,-59.6028
Bajan Queen Shipwreck,Barbados,,,13.0726,-59.6028
Eillon Shipwreck,Barbados,,,13.07258333,-59.6034
Ce-Trek Shipwreck,Barbados,,,13.07305,-59.60333333
Carlisle Bay Shipwrecks,Barbados,,,13.08333333,-59.61666667
Friars Craig,Barbados,,,13.072425,-59.60593611
Pamir,Barbados,,,13.25832564,-59.65387344
SS Stavronikita,Barbados,,,13.14431667,-59.64301667
Matty s Crack,Belize,Glovers Reef,,16.75771703,-87.77094612
Tres Cocos,Belize,Ambergris Caye,,17.93522655,-87.94290125
South of Long Caye,Belize,Lighthouse Reef,,17.20147407,-87.57923126
Gladden Spit Whalesharks,Belize,,,16.5467064,-87.97289371
Amigo s Wreck,Belize,Ambergris Caye,,17.86015257,-87.97010422
Chris s Chimney,Belize,Lighthouse Reef,,17.22623386,-87.59287834
Christ of the abyss,Belize,Ambergris Caye,,17.91634938,-87.94967651
Tuckle Bucket Canyon,Belize,Ambergris Caye,,17.8983814,-87.95611382
Paradise Canyon,Belize,Ambergris Caye,,17.90360864,-87.955513
Mermaid layer,Belize,Ambergris Caye,,17.8859661,-87.96272278
Cypress Canyon,Belize,Ambergris Caye,,17.92043275,-87.94675827
Tuffy Canyon,Belize,Ambergris Caye,,17.89968823,-87.94933319
Fabian s Roost,Belize,Turneffe Islands,,17.18138889,-87.87222222
Black Beauty,Belize,Turneffe Islands,,17.15916667,-87.90611111
Julie s Jungle,Belize,Lighthouse Reef,,17.20251667,-87.6173
Black Hole,Belize,,,17.02264645,-88.04031372
Pilican Cay,Belize,Turneffe Islands,,17.49555556,-87.7675
Three Corner Cay,Belize,Turneffe Islands,,17.54472222,-87.74638889
Rendez-vous Point,Belize,Turneffe Islands,,17.55888889,-87.81416667
Crawl Cay,Belize,Turneffe Islands,,17.5757119,-87.81028748
Aquarium,Belize,Lighthouse Reef,,17.22623386,-87.60489464
Coral Garden,Belize,Caye Caulker,,17.74991794,-88.00218344
Colusium,Belize,Turneffe Islands,,17.301425,-87.79271389
Peter s Peaks,Belize,Turneffe Islands,,17.24133611,-87.84678056
Coco Point,Belize,Turneffe Islands,,17.21106111,-87.86525278
Turtle Ridge,Belize,Turneffe Islands,,17.32616111,-87.77591667
Stingray Motel,Belize,Turneffe Islands,,17.31412778,-87.78169444
Calabash Cut,Belize,Turneffe Islands,,17.28026389,-87.79888889
Cut Throat,Belize,Turneffe Islands,,17.22570278,-87.85227222
3 Amigos,Belize,Turneffe Islands,,17.21401389,-87.85549722
Elbow,Belize,Turneffe Islands,,17.15527778,-87.90861111
Majestic,Belize,Turneffe Islands,,17.20540278,-87.85615
Long Cay Wall,Belize,Turneffe Islands,,17.22312778,-87.60531111
Shark and Ray Alley,Belize,Ambergris Caye,,17.8417755,-87.98618674
Mexico Rocks,Belize,Ambergris Caye,,17.99516232,-87.90523767
Rocky Point Canyons,Belize,Ambergris Caye,,18.11977036,-87.83172369
Grand Bogue,Belize,Turneffe Islands,,17.2618,-87.8154
Sayonara Wreck,Belize,Turneffe Islands,,17.2019,-87.93165
Hat Caye Drop-Off,Belize,Lighthouse Reef,,17.17712098,-87.62824059
Que Brada,Belize,Lighthouse Reef,,17.21573,-87.61228
West Point,Belize,Lighthouse Reef,,17.37513237,-87.58060455
Half Moon Wall,Belize,Lighthouse Reef,,17.2035,-87.5425
Blue Hole,Belize,Lighthouse Reef,,17.31581687,-87.53468513
Lartington,Bermuda,,,32.36,-64.91000278
Cathedral,Bermuda,,,32.355,-64.6566
Gurnet Rock,Bermuda,,,32.355,-64.65666111
Rita Zovetto,Bermuda,,,32.35497222,-64.65663889
Constellation,Bermuda,,,32.36197222,-64.90794444
Madiana,Bermuda,,,32.47308333,-64.80378056
Darlington,Bermuda,,,32.27919444,-64.98655278
Cristobal Colon,Bermuda,,,32.48919444,-64.71461389
North Carolina,Bermuda,,,32.25002778,-64.96349722
Pelanion,Bermuda,,,32.35225278,-64.640725
Minnie Breslauer,Bermuda,,,32.24919722,-64.80933333
Caraquet,Bermuda,,,32.46617781,-64.83186722
Montana,Bermuda,,,32.36197222,-64.90794444
Pollockshields,Bermuda,,,32.26836389,-64.77211111
Marie Celeste,Bermuda,,,32.24113889,-64.84516389
L Herminie,Bermuda,,,32.32252778,-64.97683056
Blanche King,Bermuda,,,32.26722222,-64.97166667
Aristo,Bermuda,,,32.50527778,-64.66666667
Wayaca II,Bonaire,Bonnaire North,,12.26944444,-68.41388889
South Bay,Bonaire,Bonnaire North,,12.14998333,-68.3145
Carel s Vision,Bonaire,Bonnaire North,,12.23025371,-68.41210127
Ti Amo Beach,Bonaire,Bonnaire South,,12.13493535,-68.27922463
Keepsake,Bonaire,Bonnaire North,,12.14557108,-68.30114365
Ebo s Reef,Bonaire,,,12.16839348,-68.31371784
Knife,Bonaire,,,12.1688969,-68.30582142
Boka Bartí_l South,Bonaire,Bonnaire North,,12.30339975,-68.39888334
Cai,Bonaire,Bonnaire South,,12.10131565,-68.22076321
Sweet Dreams,Bonaire,Bonnaire South,,12.03151376,-68.25857162
Red Beryl,Bonaire,Bonnaire South,,12.04691667,-68.26818333
Jeannie s Glory,Bonaire,Bonnaire South,,12.08665,-68.28265
Larry s Lair,Bonaire,Bonnaire South,,12.09526667,-68.28378333
Punt Vierkant,Bonaire,Bonnaire South,,12.10878333,-68.2915
Playa Benge,Bonaire,Bonnaire North,,12.29021667,-68.41191667
Eighteen Palms,Bonaire,Bonnaire South,,12.13834953,-68.2768482
Wayaca III,Bonaire,Bonnaire North,,12.2684,-68.41355
Tolo,Bonaire,Bonnaire North,,12.21147778,-68.32751111
Petries Pillar,Bonaire,Bonnaire North,,12.1819486,-68.29451323
Reef Scientifico,Bonaire,Bonnaire North,,12.1715398,-68.28881621
Small Wall,Bonaire,Bonnaire North,,12.17407256,-68.29039872
Town Pier,Bonaire,Bonnaire South,,12.14917392,-68.27732563
Boka Slagbaai North,Bonaire,Bonnaire North,,12.26433933,-68.41379106
Aquarius,Bonaire,Bonnaire South,,12.0985619,-68.28508258
Salt pier,Bonaire,Bonnaire South,,12.08337118,-68.28220189
Jerry s reef,Bonaire,Bonnaire North,,12.15571345,-68.29223871
Baby Beach,Bonaire,Bonnaire South,,12.07772165,-68.23138475
The Point,Bonaire,Bonnaire North,,12.22506866,-68.4082067
Nukove,Bonaire,Bonnaire North,,12.24089611,-68.41243386
Mi Dushi,Bonaire,Bonnaire North,,12.16155536,-68.32504749
Joanne s Sunchi,Bonaire,Bonnaire North,,12.14794152,-68.31176519
Invisibles,Bonaire,Bonnaire South,,12.06321172,-68.2828939
Pink Beach,Bonaire,Bonnaire South,,12.06296667,-68.28185
Angel City,Bonaire,Bonnaire South,,12.10338333,-68.28721667
Cliff,Bonaire,Bonnaire North,,12.17327026,-68.28958333
Playa Funchi,Bonaire,Bonnaire North,,12.28223333,-68.41408333
Red Slaves,Bonaire,Bonnaire South,,12.02640092,-68.25172529
Alice in Wonderland,Bonaire,Bonnaire South,,12.104746,-68.28879476
Eden Resort,Bonaire,Bonnaire North,,12.1639676,-68.28753948
Yellow Submarine,Bonaire,Bonnaire North,,12.15962555,-68.28228772
Vista Blue,Bonaire,Bonnaire South,,12.03885,-68.26448333
Webber s Joey,Bonaire,Bonnaire North,,12.18449174,-68.29639077
Atlantis,Bonaire,Bonnaire South,,12.06769173,-68.28247547
Punt Wekua,Bonaire,Bonnaire North,,12.22258881,-68.40172648
Something Special,Bonaire,Bonnaire South,,12.16113584,-68.28324795
Andrea I,Bonaire,Bonnaire North,,12.18824087,-68.29697549
The Lake,Bonaire,Bonnaire South,,12.10703333,-68.29033333
North Belnem,Bonaire,Bonnaire South,,12.13088333,-68.28466667
La Machaca,Bonaire,Bonnaire North,,12.17221101,-68.28961015
Weber s Joy,Bonaire,Bonnaire North,,12.20645,-68.3165
Thousand Steps,Bonaire,Bonnaire North,,12.21061667,-68.32173333
Jeff Davis Memorial,Bonaire,Bonnaire North,,12.20168333,-68.31045
Windjammer,Bonaire,Bonnaire North,,12.21878333,-68.37873333
La Dania s Leap,Bonaire,Bonnaire North,,12.21818333,-68.3482
Calabas Reef,Bonaire,Bonnaire South,,12.14448026,-68.27641904
Windsock,Bonaire,Bonnaire South,,12.1327064,-68.28298509
Margate Bay,Bonaire,Bonnaire South,,12.0532547,-68.27448249
Bari Reef,Bonaire,Bonnaire North,,12.167705,-68.28718667
Oil Slick Leap,Bonaire,Bonnaire North,,12.20015,-68.30856667
Hilma Hooker,Bonaire,Bonnaire South,,12.09957424,-68.28688502
Karpata,Bonaire,Bonnaire North,,12.21951667,-68.35196667
Front Porch,Bonaire,Bonnaire North,,12.16432419,-68.2871747
Andrea II,Bonaire,Bonnaire North,,12.19131879,-68.29798937
Ol  Blue,Bonaire,Bonnaire North,,12.21555556,-68.33694444
Witches Hut,Bonaire,Bonnaire North,,12.20645,-68.3165
Tori s Reef,Bonaire,Bonnaire South,,12.07036711,-68.28074276
Salt City,Bonaire,Bonnaire South,,12.0824532,-68.28171372
White Slave,Bonaire,Bonnaire South,,12.05756667,-68.28083333
Lac Bay,Bonaire,Bonnaire South,,12.10222832,-68.22505474
White Hole,Bonaire,Bonnaire South,,12.09413333,-68.2281
Bachelor s Beach,Bonaire,Bonnaire South,,12.12553333,-68.28731667
Willemstoren Lighthouse,Bonaire,Bonnaire South,,12.02808333,-68.23708333
Boca Bartol North,Bonaire,Bonnaire North,,12.30493333,-68.39725
Karpata,Bonaire,Bonnaire North,,12.21951667,-68.35196667
Buddy s Reef,Bonaire,Bonnaire North,,12.17075,-68.28843333
Beatta Wreck  Wreck Alley,British Virgin,,,18.3696772,-64.51098919
Dip N Scrub,British Virgin,,,18.46523333,-64.51965
Tow Rock,British Virgin,,,18.48933333,-64.49318333
Grand Central Station,British Virgin,,,18.49068995,-64.57957864
Mercurius Rock,British Virgin,,,18.44816667,-64.81253333
Blind Side,British Virgin,,,18.44976667,-64.83085
Island Seal  Wreck Alley,British Virgin,,,18.36973333,-64.51056667
Cathedral,British Virgin,,,18.4433,-64.78096667
Rocks and Beans,British Virgin,,,18.4405,-64.78033333
Marina Cay,British Virgin,,,18.46,-64.5261
Jack Bay Point,British Virgin,,,18.74333333,-64.31438333
Lioness,British Virgin,,,18.70405,-64.3883
The Rose,British Virgin,,,18.60223333,-64.20728333
Ginger Backside,British Virgin,,,18.38908333,-64.48573333
Brewers Bay Inside,British Virgin,,,18.44056667,-64.65023333
Devils Bay,British Virgin,,,18.4279,-64.4456
Sandy Cay,British Virgin,,,18.435,-64.71105
The Baths,British Virgin,,,18.42946667,-64.44538333
Garden,British Virgin,,,18.3864,-64.73295
Cane Garden Bay North Side,British Virgin,,,18.42835698,-64.66125727
Brewers Bay West Point,British Virgin,,,18.44580232,-64.66072083
Brewers Bay North Side,British Virgin,,,18.44895735,-64.65392947
Great Thatch West End,British Virgin,,,18.38273019,-64.75363255
Little Thatch,British Virgin,,,18.38365669,-64.71300244
West End Point,British Virgin,,,18.38881853,-64.7183454
The Caves,British Virgin,,,18.31551507,-64.62437689
Garry s Grotto,British Virgin,,,18.50415598,-64.41677392
Kellys Reef,British Virgin,,,18.32288333,-64.62151667
Invisibles,British Virgin,,,18.52665466,-64.34336185
White Bay Wall,British Virgin,,,18.43983333,-64.76661667
Kingfish Banks North,British Virgin,,,18.54185,-64.6955
Kingfish Banks South,British Virgin,,,18.51756667,-64.67051667
Turtle Head,British Virgin,,,18.6296,-64.77331667
Twin Towers,British Virgin,,,18.46,-64.7253
The Playground,British Virgin,,,18.45506667,-64.70978333
Josiah s Bay,British Virgin,,,18.4478,-64.5911
Smuggler s Cove,British Virgin,,,18.3952,-64.70321667
Alphie Rock,British Virgin,,,18.40013333,-64.69128333
Pirates Purchase,British Virgin,,,18.43975,-64.77853333
Black Forest,British Virgin,,,18.35084942,-64.61228013
Seal Dog West,British Virgin,,,18.50687755,-64.43569422
Seal Dog North,British Virgin,,,18.49739512,-64.45549965
Aquarium,British Virgin,,,18.43286389,-64.44900278
Dry Rocks East,British Virgin,,,18.384975,-64.50130556
Wall To Wall,British Virgin,,,18.48108611,-64.46545556
Mystery Anchor,British Virgin,,,18.38408056,-64.47047222
Markoe Point,British Virgin,,,18.36449444,-64.49984444
Deadchest West,British Virgin,,,18.35975,-64.56907778
Ring Dove Rock,British Virgin,,,18.32554444,-64.62265
Randys Reef,British Virgin,,,18.35828333,-64.5904
Blue Chromis Reef,British Virgin,,,18.37266667,-64.511
Rhone Reef,British Virgin,,,18.36766667,-64.53366667
Devils Kitchen,British Virgin,,,18.37406667,-64.49926667
West Dog,British Virgin,,,18.48143333,-64.47445
Great Dog,British Virgin,,,18.48383333,-64.46193333
Brown Pants,British Virgin,,,18.31574424,-64.59746361
Painted Walls,British Virgin,,,18.36330816,-64.56543267
The Sandy Spit,British Virgin,,,18.45,-64.70916667
Fearless Wreck,British Virgin,,,18.37375,-64.59248543
Vanishing Rock,British Virgin,,,18.37805688,-64.52008724
Cistern Point,British Virgin,,,18.38116225,-64.51678276
Tip of Scrub,British Virgin,,,18.47205858,-64.5020628
Visibles,British Virgin,,,18.49493285,-64.46461916
Chimney,British Virgin,,,18.48128802,-64.46138978
Bronco Billy,British Virgin,,,18.48302803,-64.46228027
Ginger Steps,British Virgin,,,18.38443047,-64.48045492
Carval Rock,British Virgin,,,18.37295581,-64.49013233
Shark Point,British Virgin,,,18.32886241,-64.5641613
Thumb Rock,British Virgin,,,18.37004375,-64.51030254
Spyglass,British Virgin,,,18.32226271,-64.61663604
Inganess Bay Wreck,British Virgin,,,18.37135,-64.51416667
Coral Gardens,British Virgin,,,18.47978204,-64.45658326
Carrot Shoal,British Virgin,,,18.3251,-64.57886667
The Indians,British Virgin,,,18.3312,-64.629
Angelfish Reef,British Virgin,,,18.30894032,-64.62922096
Maria L    Pat Wrecks  Wreck Alley,British Virgin,,,18.3693,-64.5107
Chikuzen Wreck,British Virgin,,,18.61881667,-64.51615
Blonde Rock,British Virgin,,,18.36868333,-64.55133333
Alice in Wonderland,British Virgin,,,18.38615109,-64.48154926
R M S  Rhone,British Virgin,,,18.36938333,-64.53526667
Santa Monica Rock,British Virgin,,,18.29977295,-64.63874817
El Cabezo de las Isabelitas,Cuba,Isla de la Juventud,,21.58648333,-83.16965
Reino Magico,Cuba,Isla de la Juventud,,21.59091667,-83.1726
La Peguena Pared,Cuba,Isla de la Juventud,,21.58366667,-83.16976667
Salon Maravilloso,Cuba,Isla de la Juventud,,21.58875,-83.171
Cueva del Ensueno,Cuba,Isla de la Juventud,,21.59058333,-83.17208333
El Cangilon,Cuba,Isla de la Juventud,,21.599,-83.17888333
El Escondite del Buzo,Cuba,Isla de la Juventud,,21.5896,-83.1715
El Jardin de la Reina,Cuba,Isla de la Juventud,,21.61441667,-83.19575
Cueva Azul,Cuba,Isla de la Juventud,,21.58775,-83.17058333
Off Limit,Cuba,Isla de la Juventud,,21.57441667,-83.17333333
El Pasaje Escondido,Cuba,Isla de la Juventud,,21.59183333,-83.17358333
Paraiso de Muke,Cuba,Isla de la Juventud,,21.62316667,-83.20808333
Tunel del Amor,Cuba,Isla de la Juventud,,21.58658333,-83.17083333
El Pequeno Reino,Cuba,Isla de la Juventud,,21.58908333,-83.17075
Power plant,Cuba,Varadero,,23.11070058,-81.53181553
Playa El Coral,Cuba,Varadero,,23.08797921,-81.44970238
The fishboat,Cuba,Trinidad Cienfuegos,,21.72454041,-80.00268817
Sailboat Wreck,Cuba,Trinidad Cienfuegos,,21.723763,-80.00207126
Wreck Ancon,Cuba,Trinidad Cienfuegos,,21.72574705,-80.00754833
Cenote mar,Cuba,Playa Giron Larga,,22.16685914,-81.13855004
Cueva de los peces,Cuba,Playa Giron Larga,,22.16651635,-81.13637209
Cenote Cuba Checoslovaquia,Cuba,Playa Giron Larga,,22.15623731,-81.13301396
Patrol Boat Wreck,Cuba,Ciego de Avila,Jardines del Rey,22.54458641,-78.36007118
Maria,Cuba,Trinidad Cienfuegos,,21.72378293,-80.01342773
Jardí_n Sin Nombre,Cuba,Maria la Gorda,,21.76002851,-84.52846527
El Almirante,Cuba,Maria la Gorda,,21.81245,-84.50993333
Guantanamo bay reef,Cuba,,,19.90565373,-75.17995834
La Cadena Misteriosa,Cuba,Maria la Gorda,,21.77611111,-84.51972222
Yemayíç,Cuba,Maria la Gorda,,21.83361111,-84.49166667
El Ancla de Francois,Cuba,Maria la Gorda,,21.80138889,-84.51361111
El Encanto,Cuba,Maria la Gorda,,21.78333333,-84.5175
Acuario,Cuba,Maria la Gorda,,21.79833333,-84.51444444
Paraiso Perdido,Cuba,Maria la Gorda,,21.76923333,-84.52286667
Cabeza de Marcel,Cuba,Maria la Gorda,,21.81638889,-84.50166667
Balena Moby Dick,Cuba,Maria la Gorda,,21.77222222,-84.51805556
Las Cuevas de Bebo,Cuba,Maria la Gorda,,21.79722222,-84.51666667
El Jardin de la Gorgonia,Cuba,Maria la Gorda,,21.81031906,-84.51283336
El Salí_n de Marí_a,Cuba,Maria la Gorda,,21.81098333,-84.51366667
El Patio de Vanessa,Cuba,Maria la Gorda,,21.81130518,-84.51215744
Rancho Luna,Cuba,Trinidad Cienfuegos,,22.03770339,-80.42861223
Jibacoa,Cuba,La Havana,,23.15219824,-81.82140827
Cayo Felipe el Grande,Cuba,Ciego de Avila,Jardines del Rey,22.61478338,-78.62702608
La Angelica,Cuba,Ciego de Avila,Jardines del Rey,22.62660814,-78.63962173
La Borgonia,Cuba,Ciego de Avila,Jardines del Rey,22.63754068,-78.63069534
La Finca,Cuba,Ciego de Avila,Jardines del Rey,22.62320144,-78.59739304
La Jaula II,Cuba,Ciego de Avila,Jardines del Rey,22.57193241,-78.50924492
La Jaula I,Cuba,Ciego de Avila,Jardines del Rey,22.58302779,-78.52143288
El Acuario II,Cuba,Ciego de Avila,Jardines del Rey,22.63508489,-78.73403549
El Acuario I,Cuba,Ciego de Avila,Jardines del Rey,22.62922252,-78.71601105
Jardines de la Reina,Cuba,Camagueey,Cayo Anclitas,20.80362036,-78.94741058
Baie des cochons,Cuba,Playa Giron Larga,,22.27980425,-81.1988461
La Puntilla,Cuba,Santa Clara,Las Brujas,22.65302695,-79.13619518
Espanol,Cuba,Santa Clara,Las Brujas,22.64807628,-79.15340424
La Corona,Cuba,Santa Clara,Las Brujas,22.65156157,-79.15048599
Caleta 1,Cuba,Santa Clara,Las Brujas,22.63904581,-79.17632103
Las Pajuals,Cuba,Santa Clara,Las Brujas,22.65164078,-79.16679382
Tunel azul,Cuba,Trinidad Cienfuegos,,21.75694883,-80.10131836
Canto Chiquiton,Cuba,Holguin,,21.10171723,-75.93792915
Phare,Cuba,Holguin,,21.09867435,-75.94230652
Taza Azul,Cuba,Holguin,,21.10355895,-75.93904495
Ta Hanita,Cuba,Holguin,,21.1027582,-75.94204903
Bucanero,Cuba,Santiago de Cuba,,19.94195568,-75.69427729
Cajilone,Cuba,Varadero,,23.14251068,-81.29844189
Cruz Corsario,Cuba,Isla de la Juventud,,21.61405582,-83.19303632
Barco Hundido,Cuba,Varadero,,23.17346501,-81.22719169
Pecios Cayo los Indios,Cuba,Isla de la Juventud,,21.74111111,-83.19527778
El Ballenato,Cuba,Cayo Largo del sur,,21.57923083,-81.63253784
Punta Perdiz,Cuba,Playa Giron Larga,,22.11500429,-81.11747861
Radar Reef,Cayman,Cayman Brac,,19.71447505,-79.83366609
MV Captain Keith Tibbetts,Cayman,Cayman Brac,,19.69298087,-79.88317966
Playing Fields,Cayman,Grand Cayman,,19.29202587,-81.10369205
The Kittiwake,Cayman,Grand Cayman,,19.3619,-81.40121667
Fish Reef,Cayman,Grand Cayman,,19.32133056,-81.39334167
Julie s Wall,Cayman,Grand Cayman,,19.39416667,-81.4175
Hammerhead Hill,Cayman,Grand Cayman,,19.383967,-81.309083
Lemon drop off,Cayman,Grand Cayman,,19.38393333,-81.32243333
Black Forest north,Cayman,Grand Cayman,,19.38405,-81.328417
Big Tunnel,Cayman,Grand Cayman,,19.368267,-81.416517
Blue Peter reef,Cayman,Grand Cayman,,19.38295,-81.322017
Hammerhead Hole,Cayman,Grand Cayman,,19.336217,-81.38911667
In Between,Cayman,Grand Cayman,,19.3673,-81.41436667
Lemon reef,Cayman,Grand Cayman,,19.38532394,-81.32680893
Hoffman s Hangout,Cayman,Grand Cayman,,19.26997926,-81.39246941
Black Forest,Cayman,Grand Cayman,,19.27116667,-81.3955
Lone Star,Cayman,Grand Cayman,,19.32683333,-81.391
Sunset reef,Cayman,Grand Cayman,,19.28630436,-81.39142334
Babylon,Cayman,Grand Cayman,,19.35331667,-81.16431667
Snapper Hole,Cayman,Grand Cayman,,19.34415,-81.07783333
Scuba Bowl,Cayman,Grand Cayman,,19.29233333,-81.08798333
Three Sisters,Cayman,Grand Cayman,,19.28851667,-81.11771667
High Rock Drop Off,Cayman,Grand Cayman,,19.29008333,-81.12403333
Fish Tank,Cayman,Grand Cayman,,19.35675,-81.10696667
Chubb Hole,Cayman,Grand Cayman,,19.35046667,-81.08428333
Grouper Grotto,Cayman,Grand Cayman,,19.29628333,-81.08598333
The Maze,Cayman,Grand Cayman,,19.29401667,-81.0923
Lodge Anchor,Cayman,Grand Cayman,,19.29056667,-81.11235
Iron Shore Gardens,Cayman,Grand Cayman,,19.29141667,-81.14363333
Maggie s Maze,Cayman,Grand Cayman,,19.29116667,-81.14478333
Kelly s Caverns,Cayman,Grand Cayman,,19.29128333,-81.14601667
Little House on the Prairie,Cayman,Grand Cayman,,19.29121667,-81.14815
Tarpon Tap Room,Cayman,Grand Cayman,,19.29136667,-81.15016667
Turtle Reef,Cayman,Grand Cayman,,19.38309233,-81.41681314
L C M  David Nicholson,Cayman,Grand Cayman,,19.28735,-81.39261667
Devil s Grotto,Cayman,Grand Cayman,,19.291333,-81.388333
Eden Rock,Cayman,Grand Cayman,,19.293145,-81.387097
Sand Chute,Cayman,Grand Cayman,,19.332167,-81.392833
Orange Canyon,Cayman,Grand Cayman,,19.3696,-81.4192
Bonnie s Arch,Cayman,Grand Cayman,,19.37,-81.4194
Cobalt Ridge,Cayman,Grand Cayman,,19.39366309,-81.40047312
Sea Fans  1 to 3,Cayman,Grand Cayman,,19.39228676,-81.40604138
Bear s Paw,Cayman,Grand Cayman,,19.39781227,-81.36032045
Ghost Mountain,Cayman,Grand Cayman,,19.40243696,-81.38546348
Tarpon Alley,Cayman,Grand Cayman,,19.38538466,-81.33655071
Hole in the Wall,Cayman,Grand Cayman,,19.3928,-81.3454
Princess Penny s Wall,Cayman,Grand Cayman,,19.3845,-81.3332
Eagle Ray Pass,Cayman,Grand Cayman,,19.3837,-81.325
Leslie s curl,Cayman,Grand Cayman,,19.3842,-81.3203
Stingray City  Sandbar,Cayman,Grand Cayman,,19.37579512,-81.30483627
Northwest Point,Cayman,Grand Cayman,,19.36941667,-81.42066667
Pat s Wall,Cayman,Grand Cayman,,19.2931,-81.0888
Stingray City,Cayman,Grand Cayman,,19.38467622,-81.34428084
Oro Verde,Cayman,Grand Cayman,,19.3386,-81.3907
Doc Poulson Wreck,Cayman,Grand Cayman,,19.36759169,-81.40929222
Lealeas Lookout,Cayman,Little Cayman,,19.6811,-80.08881667
Dynamite Drop Off,Cayman,Little Cayman,,19.65515,-80.09566667
Ann s Attic,Cayman,Little Cayman,,19.68466667,-80.07833333
Charlies Chimneys,Cayman,Little Cayman,,19.65583333,-80.09333333
Grundyäó» s Gardens,Cayman,Little Cayman,,19.65583333,-80.09
Windsock,Cayman,Little Cayman,,19.65583333,-80.10166667
Coconut Walk,Cayman,Little Cayman,,19.68091667,-80.08976667
Great Wall West,Cayman,Little Cayman,,19.68192222,-80.08685556
Donna s Delight,Cayman,Little Cayman,,19.68395278,-80.08106111
Bus Stop,Cayman,Little Cayman,,19.68872778,-80.07151111
Cumber s Caves,Cayman,Little Cayman,,19.69054167,-80.06978889
Jackson s Reef and Wall,Cayman,Little Cayman,,19.69214444,-80.06906389
Eagle Ray Roundup,Cayman,Little Cayman,,19.69445556,-80.06788611
Mike s Mountain,Cayman,Little Cayman,,19.696475,-80.06630278
Nancy s Cup of Tea,Cayman,Little Cayman,,19.69924167,-80.06486667
Disneyland,Cayman,Little Cayman,,19.67603333,-80.034
Patty s Place,Cayman,Little Cayman,,19.65545833,-80.10441944
Joys Joy,Cayman,Little Cayman,,19.67875,-80.09285
Randy s Gazebo,Cayman,Little Cayman,,19.68368333,-80.08318333
Marilyn s Cut,Cayman,Little Cayman,,19.68475,-80.07893333
Mixing Bowl,Cayman,Little Cayman,,19.68488333,-80.07788333
Soto Trader Wreck,Cayman,Little Cayman,,19.65515,-80.0823
Jig Saw,Cayman,Little Cayman,,19.67298333,-80.10321667
Black Hole,Cayman,Little Cayman,,19.65575,-80.09195
Sand Castles,Cayman,Little Cayman,,19.6684,-80.10796667
Uvita wall,Costa Rica,Caribbean,,9.995837231,-83.01214814
Bajo Dos Amigos,Costa Rica,Pacific,Cocos Islands,5.507408585,-87.09514618
Shark Fin Rock,Costa Rica,Pacific,Cocos Islands,5.493653475,-87.08132744
Bait Balls,Costa Rica,Pacific,Cocos Islands,5.464433494,-87.0457077
Lobster Rock,Costa Rica,Pacific,Cocos Islands,5.550102927,-87.03194261
Dos Amigos - Small,Costa Rica,Pacific,Cocos Islands,5.508294967,-87.10217357
Dos Amigos - Big,Costa Rica,Pacific,Cocos Islands,5.51215018,-87.10098267
Isla Cascara,Costa Rica,Pacific,Cocos Islands,5.550124284,-87.06467628
Manuelita Garden,Costa Rica,Pacific,Cocos Islands,5.561059007,-87.04690933
Submerged Rock,Costa Rica,Pacific,Cocos Islands,5.506810544,-87.05703735
Isla Pajara,Costa Rica,Pacific,Cocos Islands,5.554224829,-87.05411911
Tortuga shipwreck,Costa Rica,Pacific,Papagayo Gulf,10.57550877,-85.71226358
Punta Ballena,Costa Rica,Pacific,Catalina Islands,10.60387779,-85.69198608
Cabeza de Mono,Costa Rica,Pacific,Herradura,10.60854947,-85.70277125
Monkey Island,Costa Rica,Caribbean,,9.630326311,-82.61574984
Bajo Del Diablo,Costa Rica,Pacific,Isla del Cano,8.702874726,-83.91511917
Barco del Caí±o,Costa Rica,Pacific,Isla del Cano,8.715855397,-83.87679577
Sugar Reef,Costa Rica,Caribbean,,9.63400731,-82.65920162
Bloody Reef,Costa Rica,Caribbean,,9.638280604,-82.65963078
Long Shoal,Costa Rica,Caribbean,,9.655584773,-82.66113281
Pelagic Park,Costa Rica,Pacific,,8.510402921,-84.08111572
Patrick s Point,Costa Rica,Pacific,,10.57873601,-85.70331573
The Cave,Costa Rica,Pacific,Isla del Cano,8.7,-83.88333333
Devils Bottom,Costa Rica,Pacific,Isla del Cano,8.7,-83.9
Campanario,Costa Rica,Pacific,Isla del Cano,8.706204777,-83.87789011
Virador,Costa Rica,Pacific,Papagayo Gulf,10.61096437,-85.70194244
Punta Argentina,Costa Rica,Pacific,Papagayo Gulf,10.57867273,-85.71237087
Playa Conchal,Costa Rica,Pacific,,10.40992499,-85.82294226
Los Sombreros,Costa Rica,Pacific,Catalina Islands,10.4786969,-85.87115765
Catalina Islands,Costa Rica,Pacific,Catalina Islands,10.50983865,-85.8201313
Cocalito,Costa Rica,Pacific,,9.755838326,-84.94791985
La Chancha,Costa Rica,Pacific,,9.729614558,-84.95118141
Herradura Island,Costa Rica,Pacific,,9.626095228,-84.67703819
Pesebre,Costa Rica,Pacific,,9.656007847,-84.68313217
Isla Tortuga Acquario,Costa Rica,Pacific,,9.774532075,-84.89341736
Middle Reef,Costa Rica,Pacific,Herradura,9.644669288,-84.66424942
Isla Manuelita,Costa Rica,Pacific,Cocos Islands,5.56282093,-87.04832554
Bajo Alcyone,Costa Rica,Pacific,Cocos Islands,5.509031838,-87.0230484
Dirty Rock,Costa Rica,Pacific,Cocos Islands,5.544998563,-87.08518982
Silverado,Costa Rica,Pacific,Cocos Islands,5.545158743,-87.03081608
Punta Maria,Costa Rica,Pacific,Cocos Islands,5.531073463,-87.09120333
El Aquario,Costa Rica,Pacific,Manuel Antonio National Park,9.369212431,-84.15295601
Veinteseis,Costa Rica,Pacific,,9.164467221,-84.64279175
Starfish Garden,Costa Rica,Pacific,Manuel Antonio National Park,9.385048293,-84.1683197
Punta Quepos,Costa Rica,Pacific,Manuel Antonio National Park,9.393516372,-84.18205261
Canyon Reef,Costa Rica,Pacific,Manuel Antonio National Park,9.380306078,-84.16591644
Tortuga Island,Costa Rica,Pacific,,9.775800843,-84.89487648
Point Halfway,Curacao,,,12.156128,-69.00436895
Off the Road,Curacao,,,12.1578166,-69.00487857
Marie Pampoen,Curacao,,,12.08976527,-68.90554682
Pietermaai,Curacao,,,12.10151497,-68.92661333
Blue Bay,Curacao,,,12.13422209,-68.98508549
Awa Blanku,Curacao,,,12.033333,-68.78333283
Car Pile,Curacao,,,12.08834498,-68.90305012
The Pipe,Curacao,,,12.178629,-68.86951383
Beyond the Tunnel of Doom,Curacao,,,12.153207,-68.81466883
Jan Thiel Baai,Curacao,,,12.07605,-68.8797
Daaibooibaai,Curacao,,,12.21188333,-69.0845
Cas Abou  Lower House,Curacao,,,12.2276,-69.09198333
Playa Largu,Curacao,,,12.2353,-69.09851667
Playa Manzalina,Curacao,,,12.24541667,-69.1056
Playa Jeremi,Curacao,,,12.32863333,-69.15021667
Grote Knip  Playa Abou,Curacao,,,12.35128333,-69.15175
Dark Wall,Curacao,,,12.07323131,-68.87854815
Sandy s Plateau,Curacao,,,12.08255812,-68.89640093
Airplane Wreck,Curacao,,,12.26733249,-69.12854075
Hamrak,Curacao,,,12.03260505,-68.776474
Playa Kanoa,Curacao,,,12.17612287,-68.86464357
Klein - The north point,Curacao,,,11.9999,-68.64561667
Klein - Southern point,Curacao,,,11.97785,-68.64273333
Tarpon Bridge,Curacao,,,12.04267825,-68.72154236
Kenepa,Curacao,,,12.30553056,-69.14529444
Tunnel of doom,Curacao,,,12.15553056,-68.83020556
Directors Bay,Curacao,,,12.06631667,-68.8598
Tugboat Wreck,Curacao,,,12.06901667,-68.86176667
Caracas Bay,Curacao,,,12.06901667,-68.86176667
Sponge Forest,Curacao,,,12.28901747,-69.15138245
Snake Bay,Curacao,,,12.13933611,-68.99721667
Playa Lagun,Curacao,,,12.31796833,-69.15061167
Lions Dive Housereef,Curacao,,,12.08471404,-68.8983804
Alice in Wonderland,Curacao,,,12.37527838,-69.15790558
Bullenbaai,Curacao,,,12.17423667,-69.024265
Wata Mula,Curacao,,,12.38555556,-69.1625
Vaersen Bay,Curacao,,,12.16028953,-69.00576107
Habitat Curacao Housereef,Curacao,,,12.19805556,-69.07972222
Tugboat,Curacao,,,12.06680556,-68.86196944
Oswaldo s Drop-off,Curacao,,,12.08811667,-68.90168667
Port Marie,Curacao,,,12.2187,-69.085705
Superior Producer,Curacao,,,12.10465159,-68.9451313
Castle Comfort,Dominica,,,15.2851683,-61.37573361
Coral Gardens South,Dominica,,,15.2381,-61.37111667
Pointe Guignard,Dominica,,,15.24089963,-61.3729763
Soufriere Pinnacles,Dominica,,,15.23100337,-61.36210799
Scott s Head Dropoff,Dominica,,,15.21455,-61.37148333
La SorciíÂre,Dominica,,,15.23455,-61.36601667
Danglebens North,Dominica,,,15.24219444,-61.37438889
L Abym,Dominica,,,15.23448333,-61.36608333
Scott s Head Pinnacle,Dominica,,,15.21561667,-61.37706667
Rodney s Rock,Dominica,,,15.37961667,-61.412
Champagne Beach,Dominica,,,15.24448122,-61.37396336
Solomon reef,Dominica,,,15.27223126,-61.37424231
Dangleben s Pinnacles,Dominica,,,15.23711667,-61.37278333
Coral Garden,Dominican Republic,Punta Cana,,18.7249532,-68.45015645
Tropical Shallow,Dominican Republic,Punta Cana,,18.67694444,-68.40611111
Aquarium,Dominican Republic,La Romana and Saona Island,,18.36392047,-69.0225184
Padre Nuestro Cave,Dominican Republic,La Romana and Saona Island,,18.37578637,-68.80939275
Shalom Tropical,Dominican Republic,Punta Cana,,18.7271447,-68.44568253
Rondana,Dominican Republic,Punta Cana,,18.74250718,-68.46988678
Peor,Dominican Republic,La Romana and Saona Island,,18.29390557,-68.82350922
Domenicus Reef,Dominican Republic,La Romana and Saona Island,,18.34026871,-68.82745743
Viva Shallow,Dominican Republic,La Romana and Saona Island,,18.34548277,-68.83007526
Atlantic Princess Wreck,Dominican Republic,La Romana and Saona Island,,18.36845534,-68.85161877
Los Naturales,Dominican Republic,Puerto Plata area,,19.78729942,-70.49343109
Cuevas de Du-du,Dominican Republic,,,19.56471349,-69.9073711
La Puntilla,Dominican Republic,Puerto Plata area,,19.76165514,-70.52068233
Zingara Wreck,Dominican Republic,Puerto Plata area,,19.7862495,-70.50218582
Cuevitas,Dominican Republic,Punta Cana,,18.67222665,-68.39165211
Taberna,Dominican Republic,Punta Cana,,18.70854936,-68.42999697
Park Reef,Dominican Republic,Punta Cana,,18.69930173,-68.41894627
Paradise,Dominican Republic,Punta Cana,,18.69104957,-68.40705872
Channel,Dominican Republic,Punta Cana,,18.66489815,-68.36559176
Monica Wreck,Dominican Republic,Punta Cana,,18.65441816,-68.34676266
Coral Garden  Luperon,Dominican Republic,,,19.90541162,-70.94254017
Traktor Wreck,Dominican Republic,Puerto Plata area,,19.85569088,-70.78302383
The Canyon,Dominican Republic,Puerto Plata area,,19.86206827,-70.78722954
The Anker,Dominican Republic,Puerto Plata area,,19.85423777,-70.7809639
Great Wall,Dominican Republic,Puerto Plata area,,19.85197734,-70.78027725
The Rock,Dominican Republic,Puerto Plata area,,19.85657889,-70.77581406
Patricia Wreck,Dominican Republic,,,18.53782406,-68.35344672
Acuario  Club Med,Dominican Republic,Punta Cana,,18.54126221,-68.35179448
Benjis,Dominican Republic,Juan Dolio,,18.42102819,-69.40584898
Cayacoa Reef,Dominican Republic,Juan Dolio,,18.42125213,-69.39615011
Mariottis Reef,Dominican Republic,Juan Dolio,,18.42139464,-69.40099955
Los Canones,Dominican Republic,Juan Dolio,,18.42182216,-69.41479683
Los Jardines,Dominican Republic,Juan Dolio,,18.42229039,-69.40803766
Parque Nacional Submarino La Caleta,Dominican Republic,Boca Chica,,18.44857061,-69.68365073
St George,Dominican Republic,La Romana and Saona Island,,18.34220364,-68.83248925
Tania V,Dominican Republic,Juan Dolio,,18.38775971,-69.41574097
Patato,Dominican Republic,Punta Cana,,18.71491062,-68.43512535
The Wall,Dominican Republic,Puerto Plata area,,19.75472222,-70.52
Three Rocks,Dominican Republic,Puerto Plata area,,19.773017,-70.514917
Larimar,Dominican Republic,Puerto Plata area,,19.77058062,-70.5214119
Five Rocks,Dominican Republic,Puerto Plata area,,19.75850485,-70.54969311
Canyon,Dominican Republic,Puerto Plata area,,19.75640462,-70.52351475
Coral Garden,Dominican Republic,Puerto Plata area,,19.7747201,-70.51722765
Boca Chica Housereef,Dominican Republic,Boca Chica,,18.44411282,-69.6054697
Ray Point,Dominican Republic,Puerto Plata area,,19.79044914,-70.51214218
Airport Puerto Plata,Dominican Republic,Puerto Plata area,,19.76638046,-70.5505085
Puerto Plata,Dominican Republic,Puerto Plata area,,19.77898062,-70.58441162
La Parguera,Dominican Republic,La Romana and Saona Island,,18.1442,-68.7912
Astron Wreck,Dominican Republic,Punta Cana,,18.72998971,-68.45426559
Tortuga,Dominican Republic,La Romana and Saona Island,,18.32242567,-68.81029129
Catalinita Island,Dominican Republic,La Romana and Saona Island,,18.19735062,-68.63360882
Parque Nacional 1,Dominican Republic,La Romana and Saona Island,,18.34263135,-68.83312225
El Derrumbao,Dominican Republic,,,18.22690563,-70.55797577
Santa Catalina Wall,Dominican Republic,La Romana and Saona Island,,18.37342418,-69.00632858
Isla de los Patos,El Salvador,,,13.64796774,-89.02813911
Cerro El Mono,El Salvador,,,13.64519444,-89.02052164
Westsider Wreck,Grenada,,,12.48866337,-61.49301052
Seaview,Grenada,,,12.4509507,-61.49420142
Tropical Hill,Grenada,,,12.43669179,-61.49926543
Big Blue,Grenada,,,12.29973611,-61.611375
Molinere Sculpture Garden,Grenada,,,12.08265556,-61.76328333
Shakem Wreck,Grenada,,,12.03516536,-61.75715446
Bianca C,Grenada,,,12.00506971,-61.85371399